{
"type": "FeatureCollection",
"name": "accesos_temporales_eje",
"xy_coordinate_resolution": 1e-06,
"features": [
{ "type": "Feature", "properties": { "torre_id": "000-QUAR", "tramo": "000-QUAR-274", "ancho_m": 3.5, "longitud_m": 120.8, "via_osm_id": 193290144, "via_tipo": "primary", "via_superficie": "asphalt", "estado": "PRELIMINAR_REVISAR" }, "geometry": { "type": "LineString", "coordinates": [ [ 9.218439, 44.416301 ], [ 9.217999, 44.416302 ], [ 9.217911, 44.416239 ], [ 9.217735, 44.41624 ], [ 9.217647, 44.416177 ], [ 9.217559, 44.416177 ], [ 9.217295, 44.415988 ], [ 9.217392, 44.41587 ] ] } },
{ "type": "Feature", "properties": { "torre_id": "102", "tramo": "000-QUAR-274", "ancho_m": 3.5, "longitud_m": 6.9, "via_osm_id": 83480066, "via_tipo": "unclassified", "via_superficie": "asphalt", "estado": "PRELIMINAR_REVISAR" }, "geometry": { "type": "LineString", "coordinates": [ [ 9.219843, 44.415479 ], [ 9.219758, 44.415469 ] ] } },
{ "type": "Feature", "properties": { "torre_id": "101", "tramo": "000-QUAR-274", "ancho_m": 3.5, "longitud_m": 54.4, "via_osm_id": 83480066, "via_tipo": "unclassified", "via_superficie": "asphalt", "estado": "PRELIMINAR_REVISAR" }, "geometry": { "type": "LineString", "coordinates": [ [ 9.220549, 44.416297 ], [ 9.220637, 44.416234 ], [ 9.220901, 44.416234 ], [ 9.221077, 44.416359 ], [ 9.221106, 44.416333 ] ] } },
{ "type": "Feature", "properties": { "torre_id": "224", "tramo": "000-QUAR-274", "ancho_m": 3.5, "longitud_m": 69.4, "via_osm_id": 83480066, "via_tipo": "unclassified", "via_superficie": "asphalt", "estado": "PRELIMINAR_REVISAR" }, "geometry": { "type": "LineString", "coordinates": [ [ 9.221079, 44.41699 ], [ 9.221167, 44.416926 ], [ 9.221431, 44.416926 ], [ 9.221694, 44.416736 ], [ 9.221791, 44.416773 ] ] } },
{ "type": "Feature", "properties": { "torre_id": "225", "tramo": "000-QUAR-274", "ancho_m": 3.5, "longitud_m": 117.3, "via_osm_id": 34283808, "via_tipo": "primary", "via_superficie": "asphalt", "estado": "PRELIMINAR_REVISAR" }, "geometry": { "type": "LineString", "coordinates": [ [ 9.218004, 44.417563 ], [ 9.218357, 44.417814 ], [ 9.218621, 44.417877 ], [ 9.219087, 44.418249 ] ] } },
{ "type": "Feature", "properties": { "torre_id": "226", "tramo": "000-QUAR-274", "ancho_m": 3.5, "longitud_m": 15.5, "via_osm_id": 83479743, "via_tipo": "unclassified", "via_superficie": "asphalt", "estado": "PRELIMINAR_REVISAR" }, "geometry": { "type": "LineString", "coordinates": [ [ 9.217307, 44.419329 ], [ 9.217307, 44.419265 ], [ 9.217201, 44.419276 ] ] } },
{ "type": "Feature", "properties": { "torre_id": "227", "tramo": "000-QUAR-274", "ancho_m": 3.5, "longitud_m": 18.3, "via_osm_id": 1442612416, "via_tipo": "residential", "via_superficie": "", "estado": "PRELIMINAR_REVISAR" }, "geometry": { "type": "LineString", "coordinates": [ [ 9.215464, 44.420214 ], [ 9.215376, 44.420214 ], [ 9.215376, 44.420277 ], [ 9.215413, 44.420249 ] ] } },
{ "type": "Feature", "properties": { "torre_id": "228", "tramo": "000-QUAR-274", "ancho_m": 3.5, "longitud_m": 76.4, "via_osm_id": 1442612416, "via_tipo": "residential", "via_superficie": "", "estado": "PRELIMINAR_REVISAR" }, "geometry": { "type": "LineString", "coordinates": [ [ 9.21476, 44.420153 ], [ 9.214762, 44.420657 ], [ 9.214674, 44.42072 ], [ 9.214543, 44.420723 ] ] } },
{ "type": "Feature", "properties": { "torre_id": "229", "tramo": "000-QUAR-274", "ancho_m": 3.5, "longitud_m": 33.6, "via_osm_id": 193290142, "via_tipo": "unclassified", "via_superficie": "asphalt", "estado": "PRELIMINAR_REVISAR" }, "geometry": { "type": "LineString", "coordinates": [ [ 9.212742, 44.421354 ], [ 9.212919, 44.421542 ], [ 9.213022, 44.421553 ] ] } },
{ "type": "Feature", "properties": { "torre_id": "230", "tramo": "000-QUAR-274", "ancho_m": 3.5, "longitud_m": 179.0, "via_osm_id": 193290142, "via_tipo": "unclassified", "via_superficie": "asphalt", "estado": "PRELIMINAR_REVISAR" }, "geometry": { "type": "LineString", "coordinates": [ [ 9.21257, 44.422425 ], [ 9.212218, 44.422426 ], [ 9.211955, 44.422616 ], [ 9.211779, 44.422616 ], [ 9.211341, 44.422869 ], [ 9.210901, 44.42287 ], [ 9.210813, 44.422807 ], [ 9.210725, 44.42287 ], [ 9.21063, 44.42286 ] ] } },
{ "type": "Feature", "properties": { "torre_id": "231", "tramo": "000-QUAR-274", "ancho_m": 3.5, "longitud_m": 234.8, "via_osm_id": 181229503, "via_tipo": "unclassified", "via_superficie": "asphalt", "estado": "PRELIMINAR_REVISAR" }, "geometry": { "type": "LineString", "coordinates": [ [ 9.207032, 44.42294 ], [ 9.207384, 44.422939 ], [ 9.207472, 44.423002 ], [ 9.208175, 44.423001 ], [ 9.208528, 44.423189 ], [ 9.208616, 44.423189 ], [ 9.208792, 44.423315 ], [ 9.208793, 44.42363 ], [ 9.208618, 44.423756 ], [ 9.208618, 44.423945 ], [ 9.208656, 44.423934 ] ] } },
{ "type": "Feature", "properties": { "torre_id": "232", "tramo": "000-QUAR-274", "ancho_m": 3.5, "longitud_m": 68.7, "via_osm_id": 223170684, "via_tipo": "unclassified", "via_superficie": "asphalt", "estado": "PRELIMINAR_REVISAR" }, "geometry": { "type": "LineString", "coordinates": [ [ 9.206597, 44.424327 ], [ 9.20695, 44.424515 ], [ 9.207038, 44.424515 ], [ 9.207251, 44.424701 ] ] } },
{ "type": "Feature", "properties": { "torre_id": "233", "tramo": "000-QUAR-274", "ancho_m": 3.5, "longitud_m": 6.4, "via_osm_id": 223170684, "via_tipo": "unclassified", "via_superficie": "asphalt", "estado": "PRELIMINAR_REVISAR" }, "geometry": { "type": "LineString", "coordinates": [ [ 9.205457, 44.425274 ], [ 9.205536, 44.425259 ] ] } },
{ "type": "Feature", "properties": { "torre_id": "234", "tramo": "000-QUAR-274", "ancho_m": 3.5, "longitud_m": 135.0, "via_osm_id": 223170684, "via_tipo": "unclassified", "via_superficie": "asphalt", "estado": "PRELIMINAR_REVISAR" }, "geometry": { "type": "LineString", "coordinates": [ [ 9.202122, 44.427234 ], [ 9.20221, 44.427171 ], [ 9.20221, 44.427045 ], [ 9.20256, 44.426792 ], [ 9.202472, 44.426603 ], [ 9.202296, 44.426477 ], [ 9.202295, 44.426414 ], [ 9.202478, 44.426259 ] ] } },
{ "type": "Feature", "properties": { "torre_id": "235", "tramo": "000-QUAR-274", "ancho_m": 3.5, "longitud_m": 76.2, "via_osm_id": 223170684, "via_tipo": "unclassified", "via_superficie": "asphalt", "estado": "PRELIMINAR_REVISAR" }, "geometry": { "type": "LineString", "coordinates": [ [ 9.201419, 44.427235 ], [ 9.201417, 44.426857 ], [ 9.201329, 44.426794 ], [ 9.201329, 44.426731 ], [ 9.201417, 44.426668 ], [ 9.201422, 44.426601 ] ] } },
{ "type": "Feature", "properties": { "torre_id": "236", "tramo": "000-QUAR-274", "ancho_m": 3.5, "longitud_m": 244.1, "via_osm_id": 223170684, "via_tipo": "unclassified", "via_superficie": "asphalt", "estado": "PRELIMINAR_REVISAR" }, "geometry": { "type": "LineString", "coordinates": [ [ 9.200981, 44.427929 ], [ 9.200454, 44.42793 ], [ 9.200278, 44.428056 ], [ 9.20019, 44.428057 ], [ 9.200014, 44.427931 ], [ 9.199838, 44.427931 ], [ 9.19975, 44.427994 ], [ 9.199223, 44.427995 ], [ 9.199046, 44.427869 ], [ 9.198695, 44.42787 ], [ 9.1983, 44.427622 ] ] } },
{ "type": "Feature", "properties": { "torre_id": "237", "tramo": "000-QUAR-274", "ancho_m": 3.5, "longitud_m": 99.5, "via_osm_id": 1442612428, "via_tipo": "residential", "via_superficie": "", "estado": "PRELIMINAR_REVISAR" }, "geometry": { "type": "LineString", "coordinates": [ [ 9.195006, 44.429326 ], [ 9.195269, 44.429136 ], [ 9.195269, 44.42901 ], [ 9.195444, 44.428821 ], [ 9.195458, 44.428546 ] ] } },
{ "type": "Feature", "properties": { "torre_id": "238", "tramo": "000-QUAR-274", "ancho_m": 3.5, "longitud_m": 100.2, "via_osm_id": 1442612428, "via_tipo": "residential", "via_superficie": "", "estado": "PRELIMINAR_REVISAR" }, "geometry": { "type": "LineString", "coordinates": [ [ 9.19483, 44.429263 ], [ 9.194742, 44.4292 ], [ 9.193774, 44.429202 ], [ 9.193686, 44.429139 ], [ 9.193717, 44.429118 ] ] } },
{ "type": "Feature", "properties": { "torre_id": "239", "tramo": "000-QUAR-274", "ancho_m": 3.5, "longitud_m": 78.2, "via_osm_id": 1442612434, "via_tipo": "residential", "via_superficie": "", "estado": "PRELIMINAR_REVISAR" }, "geometry": { "type": "LineString", "coordinates": [ [ 9.192634, 44.430023 ], [ 9.192545, 44.42996 ], [ 9.192457, 44.42996 ], [ 9.192369, 44.429898 ], [ 9.192193, 44.429898 ], [ 9.192105, 44.429835 ], [ 9.192105, 44.429772 ], [ 9.192017, 44.429709 ], [ 9.192114, 44.429643 ] ] } },
{ "type": "Feature", "properties": { "torre_id": "240", "tramo": "000-QUAR-274", "ancho_m": 3.5, "longitud_m": 70.6, "via_osm_id": 182761952, "via_tipo": "residential", "via_superficie": "", "estado": "PRELIMINAR_REVISAR" }, "geometry": { "type": "LineString", "coordinates": [ [ 9.190345, 44.429586 ], [ 9.190347, 44.429964 ], [ 9.190435, 44.430027 ], [ 9.190435, 44.43009 ], [ 9.190557, 44.430149 ] ] } },
{ "type": "Feature", "properties": { "torre_id": "241", "tramo": "000-QUAR-274", "ancho_m": 3.5, "longitud_m": 122.1, "via_osm_id": 182761952, "via_tipo": "residential", "via_superficie": "", "estado": "PRELIMINAR_REVISAR" }, "geometry": { "type": "LineString", "coordinates": [ [ 9.188763, 44.429778 ], [ 9.188763, 44.429841 ], [ 9.189204, 44.430155 ], [ 9.189292, 44.430155 ], [ 9.18938, 44.430218 ], [ 9.189381, 44.430533 ], [ 9.189293, 44.430596 ], [ 9.189253, 44.430578 ] ] } },
{ "type": "Feature", "properties": { "torre_id": "242", "tramo": "000-QUAR-274", "ancho_m": 3.5, "longitud_m": 178.8, "via_osm_id": 964846583, "via_tipo": "secondary", "via_superficie": "", "estado": "PRELIMINAR_REVISAR" }, "geometry": { "type": "LineString", "coordinates": [ [ 9.186044, 44.432177 ], [ 9.186484, 44.432176 ], [ 9.186748, 44.43205 ], [ 9.186571, 44.431735 ], [ 9.186306, 44.431483 ], [ 9.186306, 44.43142 ], [ 9.186481, 44.431294 ], [ 9.186597, 44.431444 ] ] } },
{ "type": "Feature", "properties": { "torre_id": "243", "tramo": "000-QUAR-274", "ancho_m": 3.5, "longitud_m": 9.1, "via_osm_id": 964846583, "via_tipo": "secondary", "via_superficie": "", "estado": "PRELIMINAR_REVISAR" }, "geometry": { "type": "LineString", "coordinates": [ [ 9.185428, 44.431863 ], [ 9.18543, 44.431781 ] ] } },
{ "type": "Feature", "properties": { "torre_id": "244", "tramo": "000-QUAR-274", "ancho_m": 3.5, "longitud_m": 367.6, "via_osm_id": 183633823, "via_tipo": "residential", "via_superficie": "", "estado": "PRELIMINAR_REVISAR" }, "geometry": { "type": "LineString", "coordinates": [ [ 9.181292, 44.431302 ], [ 9.181556, 44.431428 ], [ 9.181557, 44.43168 ], [ 9.181645, 44.431743 ], [ 9.181646, 44.431932 ], [ 9.18147, 44.432058 ], [ 9.181295, 44.432058 ], [ 9.181206, 44.431995 ], [ 9.180943, 44.431996 ], [ 9.180855, 44.432059 ], [ 9.180679, 44.432059 ], [ 9.180503, 44.432186 ], [ 9.180504, 44.432312 ], [ 9.180416, 44.432375 ], [ 9.180417, 44.432627 ], [ 9.180505, 44.43269 ], [ 9.180681, 44.43269 ], [ 9.180769, 44.432626 ], [ 9.180857, 44.432626 ], [ 9.180945, 44.432689 ], [ 9.180945, 44.432752 ], [ 9.180769, 44.432878 ], [ 9.18077, 44.432941 ], [ 9.180858, 44.433004 ], [ 9.181219, 44.433001 ] ] } },
{ "type": "Feature", "properties": { "torre_id": "245", "tramo": "000-QUAR-274", "ancho_m": 3.5, "longitud_m": 212.2, "via_osm_id": 25659188, "via_tipo": "primary", "via_superficie": "asphalt", "estado": "PRELIMINAR_REVISAR" }, "geometry": { "type": "LineString", "coordinates": [ [ 9.179008, 44.432125 ], [ 9.179096, 44.432125 ], [ 9.179272, 44.432251 ], [ 9.179273, 44.43244 ], [ 9.17989, 44.43288 ], [ 9.17989, 44.432943 ], [ 9.180067, 44.433132 ], [ 9.180067, 44.433258 ], [ 9.180507, 44.433257 ], [ 9.180594, 44.433194 ], [ 9.180563, 44.433166 ] ] } },
{ "type": "Feature", "properties": { "torre_id": "246", "tramo": "000-QUAR-274", "ancho_m": 3.5, "longitud_m": 9.4, "via_osm_id": 183633821, "via_tipo": "residential", "via_superficie": "", "estado": "PRELIMINAR_REVISAR" }, "geometry": { "type": "LineString", "coordinates": [ [ 9.177958, 44.433891 ], [ 9.177994, 44.43381 ] ] } },
{ "type": "Feature", "properties": { "torre_id": "247", "tramo": "000-QUAR-274", "ancho_m": 3.5, "longitud_m": 25.0, "via_osm_id": 183631776, "via_tipo": "residential", "via_superficie": "asphalt", "estado": "PRELIMINAR_REVISAR" }, "geometry": { "type": "LineString", "coordinates": [ [ 9.175146, 44.434715 ], [ 9.175058, 44.434652 ], [ 9.175139, 44.434528 ] ] } },
{ "type": "Feature", "properties": { "torre_id": "248", "tramo": "000-QUAR-274", "ancho_m": 3.5, "longitud_m": 151.8, "via_osm_id": 183631776, "via_tipo": "residential", "via_superficie": "asphalt", "estado": "PRELIMINAR_REVISAR" }, "geometry": { "type": "LineString", "coordinates": [ [ 9.173829, 44.435536 ], [ 9.17295, 44.435537 ], [ 9.172861, 44.435474 ], [ 9.172422, 44.435475 ], [ 9.172245, 44.435349 ], [ 9.172245, 44.435223 ], [ 9.172281, 44.435234 ] ] } },
{ "type": "Feature", "properties": { "torre_id": "249", "tramo": "000-QUAR-274", "ancho_m": 3.5, "longitud_m": 7.7, "via_osm_id": 1442562240, "via_tipo": "residential", "via_superficie": "", "estado": "PRELIMINAR_REVISAR" }, "geometry": { "type": "LineString", "coordinates": [ [ 9.170312, 44.435793 ], [ 9.170288, 44.435727 ] ] } },
{ "type": "Feature", "properties": { "torre_id": "250", "tramo": "000-QUAR-274", "ancho_m": 3.5, "longitud_m": 120.7, "via_osm_id": 1442562240, "via_tipo": "residential", "via_superficie": "", "estado": "PRELIMINAR_REVISAR" }, "geometry": { "type": "LineString", "coordinates": [ [ 9.169079, 44.435543 ], [ 9.168728, 44.435796 ], [ 9.168729, 44.435859 ], [ 9.168641, 44.435922 ], [ 9.168642, 44.436174 ], [ 9.168729, 44.436174 ], [ 9.168818, 44.436237 ], [ 9.168905, 44.436174 ], [ 9.168881, 44.43609 ] ] } },
{ "type": "Feature", "properties": { "torre_id": "251", "tramo": "000-QUAR-274", "ancho_m": 3.5, "longitud_m": 316.8, "via_osm_id": 1442562240, "via_tipo": "residential", "via_superficie": "", "estado": "PRELIMINAR_REVISAR" }, "geometry": { "type": "LineString", "coordinates": [ [ 9.169079, 44.43548 ], [ 9.168552, 44.435481 ], [ 9.168464, 44.435544 ], [ 9.168288, 44.435544 ], [ 9.167586, 44.436113 ], [ 9.167586, 44.436239 ], [ 9.167323, 44.436491 ], [ 9.166444, 44.436492 ], [ 9.166268, 44.436619 ], [ 9.166356, 44.436682 ], [ 9.166356, 44.436745 ], [ 9.166444, 44.436744 ], [ 9.166412, 44.436718 ] ] } },
{ "type": "Feature", "properties": { "torre_id": "252", "tramo": "000-QUAR-274", "ancho_m": 3.5, "longitud_m": 59.1, "via_osm_id": 25678628, "via_tipo": "primary", "via_superficie": "asphalt", "estado": "PRELIMINAR_REVISAR" }, "geometry": { "type": "LineString", "coordinates": [ [ 9.163452, 44.436245 ], [ 9.163995, 44.436608 ] ] } },
{ "type": "Feature", "properties": { "torre_id": "253", "tramo": "000-QUAR-274", "ancho_m": 3.5, "longitud_m": 77.5, "via_osm_id": 25678628, "via_tipo": "primary", "via_superficie": "asphalt", "estado": "PRELIMINAR_REVISAR" }, "geometry": { "type": "LineString", "coordinates": [ [ 9.160903, 44.436878 ], [ 9.160903, 44.436752 ], [ 9.160815, 44.436689 ], [ 9.160639, 44.43669 ], [ 9.160551, 44.436627 ], [ 9.16055, 44.436438 ], [ 9.160441, 44.436448 ] ] } },
{ "type": "Feature", "properties": { "torre_id": "254", "tramo": "000-QUAR-274", "ancho_m": 3.5, "longitud_m": 174.9, "via_osm_id": 25678628, "via_tipo": "primary", "via_superficie": "asphalt", "estado": "PRELIMINAR_REVISAR" }, "geometry": { "type": "LineString", "coordinates": [ [ 9.160288, 44.437131 ], [ 9.160112, 44.437006 ], [ 9.160112, 44.436879 ], [ 9.159847, 44.436691 ], [ 9.159846, 44.436124 ], [ 9.159758, 44.436061 ], [ 9.159494, 44.436061 ], [ 9.159494, 44.436187 ], [ 9.159533, 44.436173 ] ] } },
{ "type": "Feature", "properties": { "torre_id": "255", "tramo": "000-QUAR-274", "ancho_m": 3.5, "longitud_m": 128.2, "via_osm_id": 25678628, "via_tipo": "primary", "via_superficie": "asphalt", "estado": "PRELIMINAR_REVISAR" }, "geometry": { "type": "LineString", "coordinates": [ [ 9.156768, 44.436443 ], [ 9.157119, 44.43619 ], [ 9.157119, 44.436127 ], [ 9.157207, 44.436064 ], [ 9.157207, 44.435938 ], [ 9.157645, 44.435623 ], [ 9.157749, 44.435624 ] ] } },
{ "type": "Feature", "properties": { "torre_id": "256", "tramo": "000-QUAR-274", "ancho_m": 3.5, "longitud_m": 234.7, "via_osm_id": 25678628, "via_tipo": "primary", "via_superficie": "asphalt", "estado": "PRELIMINAR_REVISAR" }, "geometry": { "type": "LineString", "coordinates": [ [ 9.156328, 44.436444 ], [ 9.156327, 44.436002 ], [ 9.155886, 44.435688 ], [ 9.155711, 44.435688 ], [ 9.15571, 44.435562 ], [ 9.155622, 44.435499 ], [ 9.155622, 44.435436 ], [ 9.155798, 44.43531 ], [ 9.155797, 44.435247 ], [ 9.155709, 44.435184 ], [ 9.155709, 44.435121 ], [ 9.15525, 44.434847 ] ] } },
{ "type": "Feature", "properties": { "torre_id": "257", "tramo": "000-QUAR-274", "ancho_m": 3.5, "longitud_m": 6.5, "via_osm_id": 21848440, "via_tipo": "secondary", "via_superficie": "asphalt", "estado": "PRELIMINAR_REVISAR" }, "geometry": { "type": "LineString", "coordinates": [ [ 9.151403, 44.436387 ], [ 9.151376, 44.436331 ] ] } },
{ "type": "Feature", "properties": { "torre_id": "258", "tramo": "000-QUAR-274", "ancho_m": 3.5, "longitud_m": 74.3, "via_osm_id": 21848440, "via_tipo": "secondary", "via_superficie": "asphalt", "estado": "PRELIMINAR_REVISAR" }, "geometry": { "type": "LineString", "coordinates": [ [ 9.149818, 44.436011 ], [ 9.149642, 44.436011 ], [ 9.149467, 44.436138 ], [ 9.149467, 44.436201 ], [ 9.149643, 44.436327 ], [ 9.149527, 44.436417 ] ] } },
{ "type": "Feature", "properties": { "torre_id": "259", "tramo": "000-QUAR-274", "ancho_m": 3.5, "longitud_m": 71.6, "via_osm_id": 529686383, "via_tipo": "residential", "via_superficie": "", "estado": "PRELIMINAR_REVISAR" }, "geometry": { "type": "LineString", "coordinates": [ [ 9.146652, 44.435952 ], [ 9.146652, 44.436078 ], [ 9.14674, 44.436141 ], [ 9.14674, 44.436267 ], [ 9.146653, 44.43633 ], [ 9.146668, 44.436545 ] ] } },
{ "type": "Feature", "properties": { "torre_id": "260", "tramo": "000-QUAR-274", "ancho_m": 3.5, "longitud_m": 77.8, "via_osm_id": 529686383, "via_tipo": "residential", "via_superficie": "", "estado": "PRELIMINAR_REVISAR" }, "geometry": { "type": "LineString", "coordinates": [ [ 9.14463, 44.436333 ], [ 9.144542, 44.436396 ], [ 9.144542, 44.436585 ], [ 9.144455, 44.436648 ], [ 9.144366, 44.436585 ], [ 9.144191, 44.436586 ], [ 9.144059, 44.436657 ] ] } },
{ "type": "Feature", "properties": { "torre_id": "261", "tramo": "000-QUAR-274", "ancho_m": 3.5, "longitud_m": 511.0, "via_osm_id": 529686383, "via_tipo": "residential", "via_superficie": "", "estado": "PRELIMINAR_REVISAR" }, "geometry": { "type": "LineString", "coordinates": [ [ 9.14463, 44.436333 ], [ 9.144542, 44.436396 ], [ 9.144543, 44.436648 ], [ 9.144455, 44.436711 ], [ 9.144455, 44.436774 ], [ 9.144104, 44.437027 ], [ 9.14384, 44.437027 ], [ 9.143752, 44.43709 ], [ 9.143048, 44.437091 ], [ 9.142872, 44.436965 ], [ 9.142784, 44.436965 ], [ 9.14252, 44.43684 ], [ 9.14208, 44.43684 ], [ 9.141729, 44.43703 ], [ 9.141729, 44.437219 ], [ 9.141554, 44.437345 ], [ 9.14129, 44.437345 ], [ 9.141202, 44.437409 ], [ 9.140938, 44.437409 ], [ 9.140674, 44.437157 ], [ 9.140673, 44.437094 ], [ 9.140497, 44.436968 ], [ 9.140409, 44.436968 ], [ 9.140321, 44.437032 ], [ 9.140145, 44.436906 ], [ 9.140145, 44.436843 ], [ 9.140261, 44.436823 ] ] } },
{ "type": "Feature", "properties": { "torre_id": "262", "tramo": "000-QUAR-274", "ancho_m": 3.5, "longitud_m": 757.2, "via_osm_id": 529686383, "via_tipo": "residential", "via_superficie": "", "estado": "PRELIMINAR_REVISAR" }, "geometry": { "type": "LineString", "coordinates": [ [ 9.14463, 44.436333 ], [ 9.144542, 44.436396 ], [ 9.144543, 44.436648 ], [ 9.144455, 44.436711 ], [ 9.144455, 44.436774 ], [ 9.144104, 44.437027 ], [ 9.14384, 44.437027 ], [ 9.143752, 44.43709 ], [ 9.143048, 44.437091 ], [ 9.142872, 44.436965 ], [ 9.142784, 44.436965 ], [ 9.14252, 44.43684 ], [ 9.14208, 44.43684 ], [ 9.141992, 44.436903 ], [ 9.141904, 44.436904 ], [ 9.141729, 44.43703 ], [ 9.141729, 44.437219 ], [ 9.141554, 44.437345 ], [ 9.14129, 44.437345 ], [ 9.141202, 44.437409 ], [ 9.141026, 44.437409 ], [ 9.140763, 44.437598 ], [ 9.140764, 44.438039 ], [ 9.140412, 44.438292 ], [ 9.139973, 44.438292 ], [ 9.139885, 44.438229 ], [ 9.139709, 44.43823 ], [ 9.13962, 44.438167 ], [ 9.139533, 44.438167 ], [ 9.139092, 44.437852 ], [ 9.139091, 44.4376 ], [ 9.138915, 44.437474 ], [ 9.138915, 44.437348 ], [ 9.138827, 44.437285 ], [ 9.138826, 44.437159 ], [ 9.139002, 44.437033 ], [ 9.138967, 44.436879 ] ] } },
{ "type": "Feature", "properties": { "torre_id": "263", "tramo": "000-QUAR-274", "ancho_m": 3.5, "longitud_m": 555.5, "via_osm_id": 183582425, "via_tipo": "residential", "via_superficie": "", "estado": "PRELIMINAR_REVISAR" }, "geometry": { "type": "LineString", "coordinates": [ [ 9.135916, 44.433697 ], [ 9.13574, 44.433823 ], [ 9.135652, 44.433823 ], [ 9.135389, 44.43395 ], [ 9.135213, 44.43395 ], [ 9.135125, 44.434013 ], [ 9.135125, 44.434076 ], [ 9.135037, 44.434139 ], [ 9.135038, 44.434265 ], [ 9.134774, 44.43458 ], [ 9.134775, 44.43477 ], [ 9.134951, 44.434895 ], [ 9.135039, 44.434895 ], [ 9.135303, 44.435021 ], [ 9.135305, 44.435714 ], [ 9.135217, 44.435777 ], [ 9.135217, 44.43584 ], [ 9.13557, 44.436092 ], [ 9.135658, 44.436092 ], [ 9.135834, 44.436218 ], [ 9.136273, 44.436217 ], [ 9.13689, 44.436658 ], [ 9.136627, 44.436973 ], [ 9.136259, 44.436997 ] ] } },
{ "type": "Feature", "properties": { "torre_id": "264", "tramo": "000-QUAR-274", "ancho_m": 3.5, "longitud_m": 371.3, "via_osm_id": 1484324686, "via_tipo": "trunk", "via_superficie": "asphalt", "estado": "PRELIMINAR_REVISAR" }, "geometry": { "type": "LineString", "coordinates": [ [ 9.13241, 44.438932 ], [ 9.132585, 44.438742 ], [ 9.132761, 44.438742 ], [ 9.132937, 44.438616 ], [ 9.133376, 44.438615 ], [ 9.13364, 44.438363 ], [ 9.13364, 44.4383 ], [ 9.134342, 44.437732 ], [ 9.134341, 44.437354 ], [ 9.134429, 44.437291 ], [ 9.134429, 44.437228 ], [ 9.134341, 44.437165 ], [ 9.13434, 44.437039 ], [ 9.134252, 44.436976 ], [ 9.133988, 44.436976 ], [ 9.1339, 44.436913 ], [ 9.133725, 44.437039 ], [ 9.133741, 44.437106 ] ] } },
{ "type": "Feature", "properties": { "torre_id": "265", "tramo": "000-QUAR-274", "ancho_m": 3.5, "longitud_m": 133.9, "via_osm_id": 1484324686, "via_tipo": "trunk", "via_superficie": "asphalt", "estado": "PRELIMINAR_REVISAR" }, "geometry": { "type": "LineString", "coordinates": [ [ 9.130649, 44.43824 ], [ 9.130648, 44.438051 ], [ 9.131, 44.437799 ], [ 9.130999, 44.437736 ], [ 9.131175, 44.437547 ], [ 9.131175, 44.437421 ], [ 9.131348, 44.437211 ] ] } },
{ "type": "Feature", "properties": { "torre_id": "266", "tramo": "000-QUAR-274", "ancho_m": 3.5, "longitud_m": 66.1, "via_osm_id": 1484324686, "via_tipo": "trunk", "via_superficie": "asphalt", "estado": "PRELIMINAR_REVISAR" }, "geometry": { "type": "LineString", "coordinates": [ [ 9.127657, 44.437551 ], [ 9.12792, 44.437424 ], [ 9.128096, 44.437424 ], [ 9.128184, 44.437361 ], [ 9.128096, 44.437298 ], [ 9.128124, 44.437238 ] ] } },
{ "type": "Feature", "properties": { "torre_id": "267", "tramo": "000-QUAR-274", "ancho_m": 3.5, "longitud_m": 44.0, "via_osm_id": 819370863, "via_tipo": "tertiary", "via_superficie": "asphalt", "estado": "PRELIMINAR_REVISAR" }, "geometry": { "type": "LineString", "coordinates": [ [ 9.126691, 44.438497 ], [ 9.12669, 44.438182 ], [ 9.12661, 44.438125 ] ] } },
{ "type": "Feature", "properties": { "torre_id": "268", "tramo": "000-QUAR-274", "ancho_m": 3.5, "longitud_m": 27.0, "via_osm_id": 1247675001, "via_tipo": "tertiary", "via_superficie": "asphalt", "estado": "PRELIMINAR_REVISAR" }, "geometry": { "type": "LineString", "coordinates": [ [ 9.124139, 44.437996 ], [ 9.123963, 44.437996 ], [ 9.123875, 44.437933 ], [ 9.123914, 44.437932 ] ] } },
{ "type": "Feature", "properties": { "torre_id": "269", "tramo": "000-QUAR-274", "ancho_m": 3.5, "longitud_m": 70.1, "via_osm_id": 1415200281, "via_tipo": "trunk", "via_superficie": "asphalt", "estado": "PRELIMINAR_REVISAR" }, "geometry": { "type": "LineString", "coordinates": [ [ 9.12185, 44.437116 ], [ 9.121851, 44.437305 ], [ 9.121763, 44.437368 ], [ 9.121763, 44.437431 ], [ 9.121939, 44.437557 ], [ 9.122027, 44.437557 ], [ 9.122017, 44.437605 ] ] } },
{ "type": "Feature", "properties": { "torre_id": "270", "tramo": "000-QUAR-274", "ancho_m": 3.5, "longitud_m": 166.0, "via_osm_id": 1247674998, "via_tipo": "tertiary", "via_superficie": "asphalt", "estado": "PRELIMINAR_REVISAR" }, "geometry": { "type": "LineString", "coordinates": [ [ 9.118599, 44.438821 ], [ 9.118951, 44.438568 ], [ 9.11895, 44.438442 ], [ 9.119126, 44.438316 ], [ 9.11939, 44.438253 ], [ 9.119653, 44.438063 ], [ 9.119653, 44.437937 ], [ 9.119565, 44.437874 ], [ 9.119586, 44.437723 ] ] } },
{ "type": "Feature", "properties": { "torre_id": "271", "tramo": "000-QUAR-274", "ancho_m": 3.5, "longitud_m": 9.8, "via_osm_id": 1247674997, "via_tipo": "tertiary", "via_superficie": "asphalt", "estado": "PRELIMINAR_REVISAR" }, "geometry": { "type": "LineString", "coordinates": [ [ 9.116575, 44.437941 ], [ 9.116585, 44.437853 ] ] } },
{ "type": "Feature", "properties": { "torre_id": "272", "tramo": "000-QUAR-274", "ancho_m": 3.5, "longitud_m": 58.1, "via_osm_id": 1247674997, "via_tipo": "tertiary", "via_superficie": "asphalt", "estado": "PRELIMINAR_REVISAR" }, "geometry": { "type": "LineString", "coordinates": [ [ 9.115606, 44.437374 ], [ 9.115575, 44.437897 ] ] } },
{ "type": "Feature", "properties": { "torre_id": "273", "tramo": "000-QUAR-274", "ancho_m": 3.5, "longitud_m": 127.5, "via_osm_id": 1456375149, "via_tipo": "tertiary", "via_superficie": "asphalt", "estado": "PRELIMINAR_REVISAR" }, "geometry": { "type": "LineString", "coordinates": [ [ 9.111472, 44.437378 ], [ 9.111296, 44.437505 ], [ 9.111384, 44.437568 ], [ 9.111736, 44.437567 ], [ 9.111824, 44.43763 ], [ 9.111561, 44.437883 ], [ 9.111561, 44.438009 ], [ 9.111672, 44.438067 ] ] } },
{ "type": "Feature", "properties": { "torre_id": "274", "tramo": "000-QUAR-274", "ancho_m": 3.5, "longitud_m": 138.8, "via_osm_id": 9218637, "via_tipo": "trunk", "via_superficie": "asphalt", "estado": "PRELIMINAR_REVISAR" }, "geometry": { "type": "LineString", "coordinates": [ [ 9.107689, 44.437256 ], [ 9.107777, 44.437319 ], [ 9.107778, 44.437445 ], [ 9.107866, 44.437508 ], [ 9.107866, 44.437697 ], [ 9.107954, 44.43776 ], [ 9.107955, 44.438201 ], [ 9.108043, 44.438264 ], [ 9.108054, 44.4384 ] ] } },
{ "type": "Feature", "properties": { "torre_id": "275", "tramo": "274-327", "ancho_m": 3.5, "longitud_m": 53.7, "via_osm_id": 52448090, "via_tipo": "unclassified", "via_superficie": "asphalt", "estado": "PRELIMINAR_REVISAR" }, "geometry": { "type": "LineString", "coordinates": [ [ 9.107165, 44.438895 ], [ 9.107164, 44.438769 ], [ 9.107252, 44.438706 ], [ 9.107252, 44.438643 ], [ 9.107057, 44.438493 ] ] } },
{ "type": "Feature", "properties": { "torre_id": "276", "tramo": "274-327", "ancho_m": 3.5, "longitud_m": 14.4, "via_osm_id": 819361057, "via_tipo": "tertiary", "via_superficie": "asphalt", "estado": "PRELIMINAR_REVISAR" }, "geometry": { "type": "LineString", "coordinates": [ [ 9.105405, 44.438645 ], [ 9.105584, 44.438626 ] ] } },
{ "type": "Feature", "properties": { "torre_id": "277", "tramo": "274-327", "ancho_m": 3.5, "longitud_m": 27.2, "via_osm_id": 9218637, "via_tipo": "trunk", "via_superficie": "asphalt", "estado": "PRELIMINAR_REVISAR" }, "geometry": { "type": "LineString", "coordinates": [ [ 9.103206, 44.43871 ], [ 9.103206, 44.438773 ], [ 9.103294, 44.438836 ], [ 9.103423, 44.438826 ] ] } },
{ "type": "Feature", "properties": { "torre_id": "278", "tramo": "274-327", "ancho_m": 3.5, "longitud_m": 27.4, "via_osm_id": 9218637, "via_tipo": "trunk", "via_superficie": "asphalt", "estado": "PRELIMINAR_REVISAR" }, "geometry": { "type": "LineString", "coordinates": [ [ 9.10092, 44.439405 ], [ 9.100832, 44.439342 ], [ 9.10092, 44.439279 ], [ 9.100913, 44.439211 ] ] } },
{ "type": "Feature", "properties": { "torre_id": "279", "tramo": "274-327", "ancho_m": 3.5, "longitud_m": 73.7, "via_osm_id": 9218637, "via_tipo": "trunk", "via_superficie": "asphalt", "estado": "PRELIMINAR_REVISAR" }, "geometry": { "type": "LineString", "coordinates": [ [ 9.099338, 44.43991 ], [ 9.099338, 44.439784 ], [ 9.098985, 44.439533 ], [ 9.099073, 44.43947 ], [ 9.099202, 44.439473 ] ] } },
{ "type": "Feature", "properties": { "torre_id": "280", "tramo": "274-327", "ancho_m": 3.5, "longitud_m": 176.0, "via_osm_id": 9218637, "via_tipo": "trunk", "via_superficie": "asphalt", "estado": "PRELIMINAR_REVISAR" }, "geometry": { "type": "LineString", "coordinates": [ [ 9.094766, 44.441427 ], [ 9.094678, 44.441364 ], [ 9.094678, 44.441112 ], [ 9.094766, 44.441049 ], [ 9.094765, 44.440923 ], [ 9.094413, 44.440671 ], [ 9.094413, 44.440608 ], [ 9.094237, 44.440419 ], [ 9.094237, 44.440293 ], [ 9.0945, 44.440167 ], [ 9.094494, 44.440194 ] ] } },
{ "type": "Feature", "properties": { "torre_id": "281", "tramo": "274-327", "ancho_m": 3.5, "longitud_m": 200.0, "via_osm_id": 9218637, "via_tipo": "trunk", "via_superficie": "asphalt", "estado": "PRELIMINAR_REVISAR" }, "geometry": { "type": "LineString", "coordinates": [ [ 9.093975, 44.44168 ], [ 9.093975, 44.441427 ], [ 9.093358, 44.440987 ], [ 9.09327, 44.440987 ], [ 9.093094, 44.440798 ], [ 9.093006, 44.440798 ], [ 9.092742, 44.440609 ], [ 9.092741, 44.44042 ], [ 9.0929, 44.440437 ] ] } },
{ "type": "Feature", "properties": { "torre_id": "282", "tramo": "274-327", "ancho_m": 3.5, "longitud_m": 207.4, "via_osm_id": 307286338, "via_tipo": "primary", "via_superficie": "asphalt", "estado": "PRELIMINAR_REVISAR" }, "geometry": { "type": "LineString", "coordinates": [ [ 9.090633, 44.442312 ], [ 9.090633, 44.441934 ], [ 9.090545, 44.441871 ], [ 9.090544, 44.441682 ], [ 9.090632, 44.441619 ], [ 9.090632, 44.441493 ], [ 9.090896, 44.441304 ], [ 9.090895, 44.441241 ], [ 9.090983, 44.441178 ], [ 9.090983, 44.441052 ], [ 9.090631, 44.4408 ], [ 9.090543, 44.4408 ], [ 9.090582, 44.440787 ] ] } },
{ "type": "Feature", "properties": { "torre_id": "283", "tramo": "274-327", "ancho_m": 3.5, "longitud_m": 89.7, "via_osm_id": 307286338, "via_tipo": "primary", "via_superficie": "asphalt", "estado": "PRELIMINAR_REVISAR" }, "geometry": { "type": "LineString", "coordinates": [ [ 9.088082, 44.441936 ], [ 9.08817, 44.441873 ], [ 9.088169, 44.441306 ], [ 9.088056, 44.441178 ] ] } },
{ "type": "Feature", "properties": { "torre_id": "284", "tramo": "274-327", "ancho_m": 3.5, "longitud_m": 20.3, "via_osm_id": 307286338, "via_tipo": "primary", "via_superficie": "asphalt", "estado": "PRELIMINAR_REVISAR" }, "geometry": { "type": "LineString", "coordinates": [ [ 9.086498, 44.441496 ], [ 9.086701, 44.441386 ] ] } },
{ "type": "Feature", "properties": { "torre_id": "285", "tramo": "274-327", "ancho_m": 3.5, "longitud_m": 43.1, "via_osm_id": 587738312, "via_tipo": "primary", "via_superficie": "asphalt", "estado": "PRELIMINAR_REVISAR" }, "geometry": { "type": "LineString", "coordinates": [ [ 9.086057, 44.441245 ], [ 9.085703, 44.441538 ] ] } },
{ "type": "Feature", "properties": { "torre_id": "286", "tramo": "274-327", "ancho_m": 3.5, "longitud_m": 203.2, "via_osm_id": 1447244000, "via_tipo": "secondary", "via_superficie": "asphalt", "estado": "PRELIMINAR_REVISAR" }, "geometry": { "type": "LineString", "coordinates": [ [ 9.079551, 44.443455 ], [ 9.079639, 44.443455 ], [ 9.079815, 44.443329 ], [ 9.079815, 44.443266 ], [ 9.080078, 44.44314 ], [ 9.080166, 44.44295 ], [ 9.081221, 44.442193 ], [ 9.081243, 44.442218 ] ] } },
{ "type": "Feature", "properties": { "torre_id": "287", "tramo": "274-327", "ancho_m": 3.5, "longitud_m": 83.6, "via_osm_id": 1447244000, "via_tipo": "secondary", "via_superficie": "asphalt", "estado": "PRELIMINAR_REVISAR" }, "geometry": { "type": "LineString", "coordinates": [ [ 9.079111, 44.443203 ], [ 9.079111, 44.442951 ], [ 9.078846, 44.442762 ], [ 9.079011, 44.442561 ] ] } },
{ "type": "Feature", "properties": { "torre_id": "288", "tramo": "274-327", "ancho_m": 3.5, "longitud_m": 100.0, "via_osm_id": 1447243999, "via_tipo": "secondary", "via_superficie": "asphalt", "estado": "PRELIMINAR_REVISAR" }, "geometry": { "type": "LineString", "coordinates": [ [ 9.075066, 44.444277 ], [ 9.075066, 44.444088 ], [ 9.074977, 44.444025 ], [ 9.074977, 44.44371 ], [ 9.074889, 44.443647 ], [ 9.074887, 44.44343 ] ] } },
{ "type": "Feature", "properties": { "torre_id": "289", "tramo": "274-327", "ancho_m": 3.5, "longitud_m": 100.5, "via_osm_id": 1447243999, "via_tipo": "secondary", "via_superficie": "asphalt", "estado": "PRELIMINAR_REVISAR" }, "geometry": { "type": "LineString", "coordinates": [ [ 9.072427, 44.44472 ], [ 9.072163, 44.444468 ], [ 9.072163, 44.444342 ], [ 9.072251, 44.444279 ], [ 9.072251, 44.44409 ], [ 9.072338, 44.444027 ], [ 9.072338, 44.443964 ], [ 9.072295, 44.443975 ] ] } },
{ "type": "Feature", "properties": { "torre_id": "290", "tramo": "274-327", "ancho_m": 3.5, "longitud_m": 181.0, "via_osm_id": 1447243999, "via_tipo": "secondary", "via_superficie": "asphalt", "estado": "PRELIMINAR_REVISAR" }, "geometry": { "type": "LineString", "coordinates": [ [ 9.070668, 44.445162 ], [ 9.070668, 44.444973 ], [ 9.07058, 44.44491 ], [ 9.069876, 44.444911 ], [ 9.069613, 44.4451 ], [ 9.06926, 44.444785 ], [ 9.069285, 44.44461 ] ] } },
{ "type": "Feature", "properties": { "torre_id": "291", "tramo": "274-327", "ancho_m": 3.5, "longitud_m": 244.3, "via_osm_id": 1447243999, "via_tipo": "secondary", "via_superficie": "asphalt", "estado": "PRELIMINAR_REVISAR" }, "geometry": { "type": "LineString", "coordinates": [ [ 9.070668, 44.445162 ], [ 9.070668, 44.444973 ], [ 9.07058, 44.44491 ], [ 9.069876, 44.444911 ], [ 9.069613, 44.4451 ], [ 9.069437, 44.444974 ], [ 9.069436, 44.444911 ], [ 9.069084, 44.444722 ], [ 9.068381, 44.444723 ], [ 9.068302, 44.444654 ] ] } },
{ "type": "Feature", "properties": { "torre_id": "292", "tramo": "274-327", "ancho_m": 3.5, "longitud_m": 103.0, "via_osm_id": 1447243998, "via_tipo": "secondary", "via_superficie": "asphalt", "estado": "PRELIMINAR_REVISAR" }, "geometry": { "type": "LineString", "coordinates": [ [ 9.064159, 44.44567 ], [ 9.064159, 44.445544 ], [ 9.064335, 44.445418 ], [ 9.064335, 44.445229 ], [ 9.064422, 44.445166 ], [ 9.064423, 44.444821 ] ] } },
{ "type": "Feature", "properties": { "torre_id": "293", "tramo": "274-327", "ancho_m": 3.5, "longitud_m": 29.4, "via_osm_id": 1447243998, "via_tipo": "secondary", "via_superficie": "asphalt", "estado": "PRELIMINAR_REVISAR" }, "geometry": { "type": "LineString", "coordinates": [ [ 9.06152, 44.445231 ], [ 9.061494, 44.444967 ] ] } },
{ "type": "Feature", "properties": { "torre_id": "294", "tramo": "274-327", "ancho_m": 3.5, "longitud_m": 51.0, "via_osm_id": 1447243998, "via_tipo": "secondary", "via_superficie": "asphalt", "estado": "PRELIMINAR_REVISAR" }, "geometry": { "type": "LineString", "coordinates": [ [ 9.059673, 44.445799 ], [ 9.059585, 44.445736 ], [ 9.059585, 44.44561 ], [ 9.059366, 44.445423 ] ] } },
{ "type": "Feature", "properties": { "torre_id": "295", "tramo": "274-327", "ancho_m": 3.5, "longitud_m": 128.4, "via_osm_id": 1447243998, "via_tipo": "secondary", "via_superficie": "asphalt", "estado": "PRELIMINAR_REVISAR" }, "geometry": { "type": "LineString", "coordinates": [ [ 9.058706, 44.446493 ], [ 9.057737, 44.445863 ], [ 9.057474, 44.445863 ], [ 9.057515, 44.445864 ] ] } },
{ "type": "Feature", "properties": { "torre_id": "296", "tramo": "274-327", "ancho_m": 3.5, "longitud_m": 36.5, "via_osm_id": 1499686368, "via_tipo": "secondary", "via_superficie": "asphalt", "estado": "PRELIMINAR_REVISAR" }, "geometry": { "type": "LineString", "coordinates": [ [ 9.055011, 44.446368 ], [ 9.054835, 44.446495 ], [ 9.05464, 44.446551 ] ] } },
{ "type": "Feature", "properties": { "torre_id": "297", "tramo": "274-327", "ancho_m": 3.5, "longitud_m": 746.3, "via_osm_id": 79634617, "via_tipo": "secondary", "via_superficie": "asphalt", "estado": "PRELIMINAR_REVISAR" }, "geometry": { "type": "LineString", "coordinates": [ [ 9.048323, 44.444481 ], [ 9.048148, 44.44467 ], [ 9.048148, 44.444922 ], [ 9.04806, 44.444985 ], [ 9.047972, 44.444985 ], [ 9.047884, 44.444922 ], [ 9.047268, 44.444922 ], [ 9.04718, 44.444985 ], [ 9.047092, 44.444986 ], [ 9.047004, 44.444923 ], [ 9.046828, 44.444923 ], [ 9.046564, 44.445112 ], [ 9.046565, 44.445364 ], [ 9.046653, 44.445427 ], [ 9.046653, 44.445553 ], [ 9.046917, 44.445805 ], [ 9.046917, 44.445931 ], [ 9.047093, 44.44612 ], [ 9.047093, 44.446309 ], [ 9.047181, 44.446372 ], [ 9.047357, 44.446372 ], [ 9.047621, 44.446624 ], [ 9.047621, 44.446687 ], [ 9.047709, 44.44675 ], [ 9.047709, 44.446876 ], [ 9.047886, 44.447065 ], [ 9.047886, 44.447191 ], [ 9.04815, 44.44738 ], [ 9.048238, 44.44738 ], [ 9.04859, 44.447569 ], [ 9.049294, 44.447568 ], [ 9.049382, 44.447505 ], [ 9.049821, 44.447568 ], [ 9.049909, 44.447505 ], [ 9.050613, 44.447505 ], [ 9.050701, 44.447442 ], [ 9.05097, 44.447424 ] ] } },
{ "type": "Feature", "properties": { "torre_id": "298", "tramo": "274-327", "ancho_m": 3.5, "longitud_m": 632.9, "via_osm_id": 79634617, "via_tipo": "secondary", "via_superficie": "asphalt", "estado": "PRELIMINAR_REVISAR" }, "geometry": { "type": "LineString", "coordinates": [ [ 9.048323, 44.444481 ], [ 9.048148, 44.44467 ], [ 9.048148, 44.444922 ], [ 9.04806, 44.444985 ], [ 9.047972, 44.444985 ], [ 9.047884, 44.444922 ], [ 9.047268, 44.444922 ], [ 9.04718, 44.444985 ], [ 9.047092, 44.444986 ], [ 9.047004, 44.444923 ], [ 9.046828, 44.444923 ], [ 9.046564, 44.445112 ], [ 9.046565, 44.445364 ], [ 9.046653, 44.445427 ], [ 9.046653, 44.445553 ], [ 9.046917, 44.445805 ], [ 9.046917, 44.445931 ], [ 9.047093, 44.44612 ], [ 9.047093, 44.446309 ], [ 9.047181, 44.446372 ], [ 9.047357, 44.446372 ], [ 9.047621, 44.446624 ], [ 9.047621, 44.446687 ], [ 9.047709, 44.44675 ], [ 9.047709, 44.446876 ], [ 9.047886, 44.447065 ], [ 9.047886, 44.447191 ], [ 9.04815, 44.44738 ], [ 9.048238, 44.44738 ], [ 9.04859, 44.447569 ], [ 9.049294, 44.447568 ], [ 9.049261, 44.447833 ] ] } },
{ "type": "Feature", "properties": { "torre_id": "299", "tramo": "274-327", "ancho_m": 3.5, "longitud_m": 628.3, "via_osm_id": 79634617, "via_tipo": "secondary", "via_superficie": "asphalt", "estado": "PRELIMINAR_REVISAR" }, "geometry": { "type": "LineString", "coordinates": [ [ 9.048323, 44.444481 ], [ 9.048148, 44.44467 ], [ 9.048148, 44.444922 ], [ 9.04806, 44.444985 ], [ 9.047972, 44.444985 ], [ 9.047884, 44.444922 ], [ 9.047268, 44.444922 ], [ 9.04718, 44.444985 ], [ 9.047092, 44.444986 ], [ 9.047004, 44.444923 ], [ 9.046828, 44.444923 ], [ 9.046564, 44.445112 ], [ 9.046565, 44.445364 ], [ 9.046653, 44.445427 ], [ 9.046653, 44.445553 ], [ 9.046917, 44.445805 ], [ 9.046917, 44.445931 ], [ 9.047093, 44.44612 ], [ 9.047093, 44.446309 ], [ 9.047181, 44.446372 ], [ 9.047357, 44.446372 ], [ 9.047621, 44.446624 ], [ 9.047621, 44.446687 ], [ 9.047709, 44.44675 ], [ 9.047709, 44.446876 ], [ 9.047886, 44.447065 ], [ 9.047886, 44.447191 ], [ 9.04815, 44.44738 ], [ 9.048238, 44.44738 ], [ 9.04859, 44.447569 ], [ 9.04859, 44.447884 ], [ 9.048414, 44.44801 ], [ 9.048414, 44.448199 ], [ 9.048476, 44.448211 ] ] } },
{ "type": "Feature", "properties": { "torre_id": "300", "tramo": "274-327", "ancho_m": 3.5, "longitud_m": 325.9, "via_osm_id": 1523963816, "via_tipo": "residential", "via_superficie": "", "estado": "PRELIMINAR_REVISAR" }, "geometry": { "type": "LineString", "coordinates": [ [ 9.043842, 44.451352 ], [ 9.04393, 44.451289 ], [ 9.04393, 44.450848 ], [ 9.043842, 44.450785 ], [ 9.043842, 44.450722 ], [ 9.045073, 44.449902 ], [ 9.045337, 44.449839 ], [ 9.0456, 44.44965 ], [ 9.045864, 44.449586 ], [ 9.04604, 44.44946 ], [ 9.04604, 44.449397 ], [ 9.046201, 44.449318 ] ] } },
{ "type": "Feature", "properties": { "torre_id": "301", "tramo": "274-327", "ancho_m": 3.5, "longitud_m": 110.0, "via_osm_id": 1523963816, "via_tipo": "residential", "via_superficie": "", "estado": "PRELIMINAR_REVISAR" }, "geometry": { "type": "LineString", "coordinates": [ [ 9.043842, 44.451352 ], [ 9.04393, 44.451289 ], [ 9.04393, 44.450848 ], [ 9.043842, 44.450785 ], [ 9.043842, 44.450659 ], [ 9.043753, 44.450596 ], [ 9.043753, 44.450533 ], [ 9.043665, 44.450533 ], [ 9.043706, 44.450525 ] ] } },
{ "type": "Feature", "properties": { "torre_id": "302", "tramo": "274-327", "ancho_m": 3.5, "longitud_m": 14.0, "via_osm_id": 503849278, "via_tipo": "secondary", "via_superficie": "asphalt", "estado": "PRELIMINAR_REVISAR" }, "geometry": { "type": "LineString", "coordinates": [ [ 9.040235, 44.452109 ], [ 9.040411, 44.452123 ] ] } },
{ "type": "Feature", "properties": { "torre_id": "303", "tramo": "274-327", "ancho_m": 3.5, "longitud_m": 49.5, "via_osm_id": 503849278, "via_tipo": "secondary", "via_superficie": "asphalt", "estado": "PRELIMINAR_REVISAR" }, "geometry": { "type": "LineString", "coordinates": [ [ 9.04006, 44.452361 ], [ 9.039437, 44.452352 ] ] } },
{ "type": "Feature", "properties": { "torre_id": "304", "tramo": "274-327", "ancho_m": 3.5, "longitud_m": 3.4, "via_osm_id": 503849277, "via_tipo": "secondary", "via_superficie": "asphalt", "estado": "PRELIMINAR_REVISAR" }, "geometry": { "type": "LineString", "coordinates": [ [ 9.038206, 44.452645 ], [ 9.038212, 44.452614 ] ] } },
{ "type": "Feature", "properties": { "torre_id": "305", "tramo": "274-327", "ancho_m": 3.5, "longitud_m": 185.9, "via_osm_id": 1029577167, "via_tipo": "footway", "via_superficie": "paved", "estado": "PRELIMINAR_REVISAR" }, "geometry": { "type": "LineString", "coordinates": [ [ 9.032933, 44.452364 ], [ 9.033109, 44.45249 ], [ 9.033109, 44.452553 ], [ 9.033197, 44.452616 ], [ 9.033197, 44.452742 ], [ 9.033373, 44.452868 ], [ 9.033373, 44.452931 ], [ 9.033813, 44.453246 ], [ 9.033901, 44.453246 ], [ 9.033989, 44.453309 ], [ 9.03399, 44.453624 ], [ 9.034078, 44.453622 ] ] } },
{ "type": "Feature", "properties": { "torre_id": "306", "tramo": "274-327", "ancho_m": 3.5, "longitud_m": 208.6, "via_osm_id": 1029577167, "via_tipo": "footway", "via_superficie": "paved", "estado": "PRELIMINAR_REVISAR" }, "geometry": { "type": "LineString", "coordinates": [ [ 9.032933, 44.452364 ], [ 9.033109, 44.45249 ], [ 9.033109, 44.452553 ], [ 9.033197, 44.452616 ], [ 9.033197, 44.452742 ], [ 9.033373, 44.452868 ], [ 9.033373, 44.453057 ], [ 9.033198, 44.453183 ], [ 9.033198, 44.453561 ], [ 9.032934, 44.453813 ], [ 9.033022, 44.453876 ], [ 9.03311, 44.453876 ], [ 9.03309, 44.453849 ] ] } },
{ "type": "Feature", "properties": { "torre_id": "307", "tramo": "274-327", "ancho_m": 3.5, "longitud_m": 263.4, "via_osm_id": 188059899, "via_tipo": "residential", "via_superficie": "", "estado": "PRELIMINAR_REVISAR" }, "geometry": { "type": "LineString", "coordinates": [ [ 9.028447, 44.454823 ], [ 9.028535, 44.45476 ], [ 9.028799, 44.45476 ], [ 9.028975, 44.454949 ], [ 9.029063, 44.454949 ], [ 9.029151, 44.454886 ], [ 9.029151, 44.45476 ], [ 9.029239, 44.454696 ], [ 9.029239, 44.45457 ], [ 9.029327, 44.454507 ], [ 9.029327, 44.454318 ], [ 9.029503, 44.454192 ], [ 9.029503, 44.454066 ], [ 9.029415, 44.454003 ], [ 9.029503, 44.45394 ], [ 9.029855, 44.45394 ], [ 9.030119, 44.454066 ], [ 9.030303, 44.454069 ] ] } },
{ "type": "Feature", "properties": { "torre_id": "308", "tramo": "274-327", "ancho_m": 3.5, "longitud_m": 168.7, "via_osm_id": 188059899, "via_tipo": "residential", "via_superficie": "", "estado": "PRELIMINAR_REVISAR" }, "geometry": { "type": "LineString", "coordinates": [ [ 9.028447, 44.454823 ], [ 9.028535, 44.45476 ], [ 9.028799, 44.45476 ], [ 9.028887, 44.454823 ], [ 9.028887, 44.454886 ], [ 9.028975, 44.454949 ], [ 9.029063, 44.454949 ], [ 9.029151, 44.454886 ], [ 9.029151, 44.45476 ], [ 9.029239, 44.454696 ], [ 9.029239, 44.45457 ], [ 9.029327, 44.454507 ], [ 9.029327, 44.454318 ], [ 9.029503, 44.454192 ], [ 9.029475, 44.454147 ] ] } },
{ "type": "Feature", "properties": { "torre_id": "309", "tramo": "274-327", "ancho_m": 3.5, "longitud_m": 69.4, "via_osm_id": 188059899, "via_tipo": "residential", "via_superficie": "", "estado": "PRELIMINAR_REVISAR" }, "geometry": { "type": "LineString", "coordinates": [ [ 9.028271, 44.45476 ], [ 9.028183, 44.454697 ], [ 9.027919, 44.454697 ], [ 9.027655, 44.454949 ], [ 9.027698, 44.454942 ] ] } },
{ "type": "Feature", "properties": { "torre_id": "310", "tramo": "274-327", "ancho_m": 3.5, "longitud_m": 6.5, "via_osm_id": 188059897, "via_tipo": "residential", "via_superficie": "", "estado": "PRELIMINAR_REVISAR" }, "geometry": { "type": "LineString", "coordinates": [ [ 9.026072, 44.455706 ], [ 9.025993, 44.455691 ] ] } },
{ "type": "Feature", "properties": { "torre_id": "311", "tramo": "274-327", "ancho_m": 3.5, "longitud_m": 3.1, "via_osm_id": 1007176524, "via_tipo": "unclassified", "via_superficie": "asphalt", "estado": "PRELIMINAR_REVISAR" }, "geometry": { "type": "LineString", "coordinates": [ [ 9.023559, 44.456782 ], [ 9.023521, 44.456777 ] ] } },
{ "type": "Feature", "properties": { "torre_id": "312", "tramo": "274-327", "ancho_m": 3.5, "longitud_m": 61.6, "via_osm_id": 193956314, "via_tipo": "residential", "via_superficie": "", "estado": "PRELIMINAR_REVISAR" }, "geometry": { "type": "LineString", "coordinates": [ [ 9.02097, 44.458038 ], [ 9.020794, 44.458164 ], [ 9.020618, 44.458164 ], [ 9.02053, 44.458101 ], [ 9.020358, 44.458205 ] ] } },
{ "type": "Feature", "properties": { "torre_id": "313", "tramo": "274-327", "ancho_m": 3.5, "longitud_m": 81.5, "via_osm_id": 193956952, "via_tipo": "residential", "via_superficie": "", "estado": "PRELIMINAR_REVISAR" }, "geometry": { "type": "LineString", "coordinates": [ [ 9.019474, 44.457913 ], [ 9.019474, 44.458039 ], [ 9.01965, 44.458165 ], [ 9.01965, 44.458354 ], [ 9.019562, 44.458417 ], [ 9.019546, 44.458568 ] ] } },
{ "type": "Feature", "properties": { "torre_id": "314", "tramo": "274-327", "ancho_m": 3.5, "longitud_m": 105.6, "via_osm_id": 193956952, "via_tipo": "residential", "via_superficie": "", "estado": "PRELIMINAR_REVISAR" }, "geometry": { "type": "LineString", "coordinates": [ [ 9.019474, 44.457913 ], [ 9.019474, 44.458039 ], [ 9.019298, 44.458165 ], [ 9.019122, 44.458165 ], [ 9.019122, 44.458417 ], [ 9.018946, 44.458543 ], [ 9.018858, 44.458543 ], [ 9.018894, 44.458551 ] ] } },
{ "type": "Feature", "properties": { "torre_id": "315", "tramo": "274-327", "ancho_m": 3.5, "longitud_m": 305.2, "via_osm_id": 285465176, "via_tipo": "residential", "via_superficie": "", "estado": "PRELIMINAR_REVISAR" }, "geometry": { "type": "LineString", "coordinates": [ [ 9.018066, 44.456715 ], [ 9.01701, 44.457472 ], [ 9.01701, 44.457535 ], [ 9.017098, 44.457598 ], [ 9.016746, 44.45785 ], [ 9.016658, 44.45785 ], [ 9.016482, 44.457976 ], [ 9.016394, 44.457976 ], [ 9.015954, 44.458291 ], [ 9.01569, 44.458291 ], [ 9.015514, 44.458417 ], [ 9.015519, 44.45847 ] ] } },
{ "type": "Feature", "properties": { "torre_id": "316", "tramo": "274-327", "ancho_m": 3.5, "longitud_m": 241.8, "via_osm_id": 9944551, "via_tipo": "secondary", "via_superficie": "asphalt", "estado": "PRELIMINAR_REVISAR" }, "geometry": { "type": "LineString", "coordinates": [ [ 9.011995, 44.459867 ], [ 9.012875, 44.459174 ], [ 9.013139, 44.459174 ], [ 9.013315, 44.459048 ], [ 9.013315, 44.458922 ], [ 9.013931, 44.458544 ], [ 9.013931, 44.458481 ], [ 9.013809, 44.458427 ] ] } },
{ "type": "Feature", "properties": { "torre_id": "317", "tramo": "274-327", "ancho_m": 3.5, "longitud_m": 9.8, "via_osm_id": 9944551, "via_tipo": "secondary", "via_superficie": "asphalt", "estado": "PRELIMINAR_REVISAR" }, "geometry": { "type": "LineString", "coordinates": [ [ 9.010147, 44.458418 ], [ 9.010204, 44.458339 ] ] } },
{ "type": "Feature", "properties": { "torre_id": "318", "tramo": "274-327", "ancho_m": 3.5, "longitud_m": 121.9, "via_osm_id": 9944551, "via_tipo": "secondary", "via_superficie": "asphalt", "estado": "PRELIMINAR_REVISAR" }, "geometry": { "type": "LineString", "coordinates": [ [ 9.009355, 44.457536 ], [ 9.009267, 44.457536 ], [ 9.009003, 44.457662 ], [ 9.009003, 44.457725 ], [ 9.008387, 44.458166 ], [ 9.00837, 44.458285 ] ] } },
{ "type": "Feature", "properties": { "torre_id": "319", "tramo": "274-327", "ancho_m": 3.5, "longitud_m": 191.4, "via_osm_id": 9944551, "via_tipo": "secondary", "via_superficie": "asphalt", "estado": "PRELIMINAR_REVISAR" }, "geometry": { "type": "LineString", "coordinates": [ [ 9.007067, 44.45678 ], [ 9.006979, 44.456843 ], [ 9.006979, 44.457221 ], [ 9.006891, 44.457284 ], [ 9.006891, 44.457473 ], [ 9.006803, 44.457536 ], [ 9.006803, 44.457851 ], [ 9.006627, 44.45804 ], [ 9.006451, 44.45804 ], [ 9.006451, 44.458166 ], [ 9.006374, 44.458242 ] ] } },
{ "type": "Feature", "properties": { "torre_id": "320", "tramo": "274-327", "ancho_m": 3.5, "longitud_m": 343.5, "via_osm_id": 9944551, "via_tipo": "secondary", "via_superficie": "asphalt", "estado": "PRELIMINAR_REVISAR" }, "geometry": { "type": "LineString", "coordinates": [ [ 9.006187, 44.45615 ], [ 9.005307, 44.45678 ], [ 9.005307, 44.456843 ], [ 9.005131, 44.456969 ], [ 9.005131, 44.457095 ], [ 9.005043, 44.457158 ], [ 9.005044, 44.457284 ], [ 9.005132, 44.457347 ], [ 9.005044, 44.45741 ], [ 9.004868, 44.45741 ], [ 9.00478, 44.457347 ], [ 9.004692, 44.457347 ], [ 9.004604, 44.45741 ], [ 9.004604, 44.457662 ], [ 9.004516, 44.457725 ], [ 9.00434, 44.457725 ], [ 9.003988, 44.457977 ], [ 9.003988, 44.45804 ], [ 9.003822, 44.458184 ] ] } },
{ "type": "Feature", "properties": { "torre_id": "321", "tramo": "274-327", "ancho_m": 3.5, "longitud_m": 541.1, "via_osm_id": 1137085133, "via_tipo": "secondary", "via_superficie": "asphalt", "estado": "PRELIMINAR_REVISAR" }, "geometry": { "type": "LineString", "coordinates": [ [ 9.004515, 44.454889 ], [ 9.004427, 44.454952 ], [ 9.004075, 44.454952 ], [ 9.0039, 44.455078 ], [ 9.003636, 44.455078 ], [ 9.003284, 44.45533 ], [ 9.003284, 44.455645 ], [ 9.003372, 44.455708 ], [ 9.003372, 44.455961 ], [ 9.00346, 44.456024 ], [ 9.00346, 44.456087 ], [ 9.003812, 44.456339 ], [ 9.003724, 44.456402 ], [ 9.003724, 44.456465 ], [ 9.002844, 44.457158 ], [ 9.002844, 44.457221 ], [ 9.002052, 44.457788 ], [ 9.002052, 44.458166 ], [ 9.001964, 44.458229 ], [ 9.001788, 44.458229 ], [ 9.001788, 44.458135 ] ] } },
{ "type": "Feature", "properties": { "torre_id": "322", "tramo": "274-327", "ancho_m": 3.5, "longitud_m": 1451.9, "via_osm_id": 282712084, "via_tipo": "residential", "via_superficie": "", "estado": "PRELIMINAR_REVISAR" }, "geometry": { "type": "LineString", "coordinates": [ [ 8.996157, 44.454322 ], [ 8.996157, 44.4547 ], [ 8.996509, 44.454952 ], [ 8.996597, 44.455141 ], [ 8.996509, 44.455204 ], [ 8.996509, 44.455267 ], [ 8.996069, 44.455582 ], [ 8.996069, 44.455645 ], [ 8.995981, 44.455708 ], [ 8.995981, 44.455835 ], [ 8.995717, 44.45615 ], [ 8.995629, 44.456591 ], [ 8.995541, 44.456654 ], [ 8.995101, 44.457347 ], [ 8.994661, 44.457662 ], [ 8.994397, 44.457725 ], [ 8.993781, 44.458166 ], [ 8.993781, 44.458229 ], [ 8.993869, 44.458292 ], [ 8.994133, 44.458292 ], [ 8.994221, 44.458229 ], [ 8.994397, 44.458229 ], [ 8.994485, 44.458292 ], [ 8.994485, 44.458355 ], [ 8.994749, 44.458481 ], [ 8.994749, 44.458544 ], [ 8.994485, 44.458733 ], [ 8.994485, 44.458922 ], [ 8.994573, 44.458985 ], [ 8.994749, 44.458985 ], [ 8.994837, 44.458922 ], [ 8.995101, 44.458922 ], [ 8.995189, 44.458985 ], [ 8.995189, 44.459048 ], [ 8.995541, 44.459301 ], [ 8.995805, 44.459364 ], [ 8.99642, 44.459805 ], [ 8.996772, 44.459805 ], [ 8.99686, 44.459868 ], [ 8.99686, 44.459931 ], [ 8.997036, 44.460057 ], [ 8.997124, 44.460057 ], [ 8.997212, 44.459994 ], [ 8.997652, 44.459931 ], [ 8.997828, 44.459805 ], [ 8.99818, 44.459805 ], [ 8.998268, 44.459742 ], [ 8.998268, 44.459679 ], [ 8.998356, 44.459616 ], [ 8.998356, 44.45949 ], [ 8.998444, 44.459427 ], [ 8.998444, 44.459175 ], [ 8.998708, 44.458986 ], [ 8.998796, 44.458986 ], [ 8.998884, 44.459049 ], [ 8.999324, 44.459049 ], [ 8.999412, 44.459112 ], [ 8.999588, 44.459112 ], [ 8.999764, 44.459238 ], [ 8.999852, 44.459238 ], [ 9.000116, 44.459364 ], [ 9.00038, 44.459364 ], [ 9.000468, 44.459301 ], [ 9.000468, 44.459112 ], [ 9.000556, 44.459049 ], [ 9.000556, 44.458544 ], [ 9.000732, 44.458418 ], [ 9.000908, 44.458418 ], [ 9.000929, 44.458349 ] ] } },
{ "type": "Feature", "properties": { "torre_id": "323", "tramo": "274-327", "ancho_m": 3.5, "longitud_m": 426.9, "via_osm_id": 282712084, "via_tipo": "residential", "via_superficie": "", "estado": "PRELIMINAR_REVISAR" }, "geometry": { "type": "LineString", "coordinates": [ [ 8.996157, 44.454322 ], [ 8.996157, 44.4547 ], [ 8.996509, 44.454952 ], [ 8.996597, 44.455141 ], [ 8.996509, 44.455204 ], [ 8.996509, 44.455267 ], [ 8.996069, 44.455582 ], [ 8.996069, 44.455708 ], [ 8.996421, 44.455961 ], [ 8.996509, 44.455961 ], [ 8.996861, 44.45615 ], [ 8.997125, 44.456213 ], [ 8.997301, 44.456339 ], [ 8.997301, 44.456402 ], [ 8.997916, 44.45678 ], [ 8.998268, 44.45678 ], [ 8.998356, 44.456843 ], [ 8.998473, 44.456814 ] ] } },
{ "type": "Feature", "properties": { "torre_id": "324", "tramo": "274-327", "ancho_m": 3.5, "longitud_m": 281.9, "via_osm_id": 282712084, "via_tipo": "residential", "via_superficie": "", "estado": "PRELIMINAR_REVISAR" }, "geometry": { "type": "LineString", "coordinates": [ [ 8.996157, 44.454322 ], [ 8.996157, 44.4547 ], [ 8.996509, 44.454952 ], [ 8.996685, 44.455267 ], [ 8.996773, 44.45533 ], [ 8.997125, 44.45533 ], [ 8.997389, 44.455519 ], [ 8.997389, 44.456024 ], [ 8.997653, 44.456213 ], [ 8.99768, 44.456294 ] ] } },
{ "type": "Feature", "properties": { "torre_id": "325", "tramo": "274-327", "ancho_m": 3.5, "longitud_m": 19.4, "via_osm_id": 285106377, "via_tipo": "pedestrian", "via_superficie": "paving_stones", "estado": "PRELIMINAR_REVISAR" }, "geometry": { "type": "LineString", "coordinates": [ [ 8.993781, 44.453881 ], [ 8.993781, 44.453755 ], [ 8.993844, 44.453737 ] ] } },
{ "type": "Feature", "properties": { "torre_id": "326", "tramo": "274-327", "ancho_m": 3.5, "longitud_m": 13.4, "via_osm_id": 1152984113, "via_tipo": "residential", "via_superficie": "asphalt", "estado": "PRELIMINAR_REVISAR" }, "geometry": { "type": "LineString", "coordinates": [ [ 8.992638, 44.452746 ], [ 8.99255, 44.452746 ], [ 8.99254, 44.452803 ] ] } },
{ "type": "Feature", "properties": { "torre_id": "327", "tramo": "274-327", "ancho_m": 3.5, "longitud_m": 61.5, "via_osm_id": 203377323, "via_tipo": "primary", "via_superficie": "asphalt", "estado": "PRELIMINAR_REVISAR" }, "geometry": { "type": "LineString", "coordinates": [ [ 8.991406, 44.451108 ], [ 8.991142, 44.451108 ], [ 8.991054, 44.451045 ], [ 8.991054, 44.450982 ], [ 8.990878, 44.450856 ], [ 8.990844, 44.450879 ] ] } },
{ "type": "Feature", "properties": { "torre_id": "328", "tramo": "327-999-MOLA", "ancho_m": 3.5, "longitud_m": 458.4, "via_osm_id": 203377323, "via_tipo": "primary", "via_superficie": "asphalt", "estado": "PRELIMINAR_REVISAR" }, "geometry": { "type": "LineString", "coordinates": [ [ 8.991582, 44.450226 ], [ 8.991406, 44.450226 ], [ 8.991142, 44.450036 ], [ 8.991142, 44.449847 ], [ 8.991054, 44.449784 ], [ 8.990967, 44.449469 ], [ 8.990791, 44.44928 ], [ 8.990527, 44.44928 ], [ 8.990439, 44.449343 ], [ 8.989823, 44.449406 ], [ 8.989735, 44.449469 ], [ 8.989559, 44.449469 ], [ 8.989383, 44.449595 ], [ 8.988855, 44.449595 ], [ 8.988591, 44.449784 ], [ 8.988415, 44.449784 ], [ 8.988327, 44.449721 ], [ 8.987887, 44.449721 ], [ 8.987799, 44.449658 ], [ 8.987623, 44.449658 ], [ 8.987535, 44.449721 ], [ 8.987535, 44.449847 ], [ 8.987623, 44.44991 ], [ 8.987711, 44.44991 ], [ 8.987676, 44.449928 ] ] } },
{ "type": "Feature", "properties": { "torre_id": "329", "tramo": "327-999-MOLA", "ancho_m": 3.5, "longitud_m": 405.3, "via_osm_id": 1255349810, "via_tipo": "cycleway", "via_superficie": "asphalt", "estado": "PRELIMINAR_REVISAR" }, "geometry": { "type": "LineString", "coordinates": [ [ 8.980408, 44.452619 ], [ 8.98032, 44.452178 ], [ 8.980408, 44.452115 ], [ 8.980408, 44.451926 ], [ 8.980496, 44.451863 ], [ 8.980497, 44.451674 ], [ 8.980585, 44.451611 ], [ 8.980585, 44.451422 ], [ 8.980673, 44.451359 ], [ 8.980673, 44.451106 ], [ 8.980761, 44.451043 ], [ 8.980761, 44.450854 ], [ 8.981025, 44.450665 ], [ 8.981025, 44.450476 ], [ 8.981201, 44.45035 ], [ 8.981641, 44.45035 ], [ 8.981729, 44.450287 ], [ 8.982081, 44.450287 ], [ 8.982169, 44.450224 ], [ 8.982169, 44.450035 ], [ 8.982257, 44.449972 ], [ 8.982382, 44.449987 ] ] } },
{ "type": "Feature", "properties": { "torre_id": "330", "tramo": "327-999-MOLA", "ancho_m": 3.5, "longitud_m": 296.9, "via_osm_id": 8067132, "via_tipo": "primary", "via_superficie": "asphalt", "estado": "PRELIMINAR_REVISAR" }, "geometry": { "type": "LineString", "coordinates": [ [ 8.977241, 44.451736 ], [ 8.977769, 44.451358 ], [ 8.977945, 44.451358 ], [ 8.977945, 44.451169 ], [ 8.978121, 44.451043 ], [ 8.978121, 44.450917 ], [ 8.978297, 44.450791 ], [ 8.978297, 44.450728 ], [ 8.978737, 44.450413 ], [ 8.979001, 44.450413 ], [ 8.979089, 44.45035 ], [ 8.979265, 44.45035 ], [ 8.979353, 44.450287 ], [ 8.979353, 44.450161 ], [ 8.979529, 44.450035 ], [ 8.979486, 44.45002 ] ] } },
{ "type": "Feature", "properties": { "torre_id": "331", "tramo": "327-999-MOLA", "ancho_m": 3.5, "longitud_m": 154.1, "via_osm_id": 8067132, "via_tipo": "primary", "via_superficie": "asphalt", "estado": "PRELIMINAR_REVISAR" }, "geometry": { "type": "LineString", "coordinates": [ [ 8.97601, 44.451043 ], [ 8.976098, 44.45098 ], [ 8.976098, 44.450917 ], [ 8.97689, 44.45035 ], [ 8.976538, 44.450097 ], [ 8.976624, 44.450051 ] ] } },
{ "type": "Feature", "properties": { "torre_id": "999-MOLA", "tramo": "327-999-MOLA", "ancho_m": 3.5, "longitud_m": 40.9, "via_osm_id": 8067132, "via_tipo": "primary", "via_superficie": "asphalt", "estado": "PRELIMINAR_REVISAR" }, "geometry": { "type": "LineString", "coordinates": [ [ 8.975658, 44.45079 ], [ 8.975922, 44.450601 ], [ 8.975922, 44.450538 ], [ 8.97589, 44.450569 ] ] } }
]
}
