{
"type": "FeatureCollection",
"name": "superficies_maquinaria_20x20",
"xy_coordinate_resolution": 1e-06,
"features": [
{ "type": "Feature", "properties": { "tirada_id": 1, "tirada": "225-243", "rol": "INICIO", "torre_id": "225", "torre_nombre": "225", "altura_m": 23.8, "distancia_m": 47.6, "lado": "menores", "dimensiones": "20x20 m", "estado": "PRELIMINAR_REVISAR" }, "geometry": { "type": "Polygon", "coordinates": [ [ [ 9.219739, 44.418006 ], [ 9.219539, 44.418115 ], [ 9.219387, 44.417972 ], [ 9.219587, 44.417863 ], [ 9.219739, 44.418006 ] ] ] } },
{ "type": "Feature", "properties": { "tirada_id": 1, "tirada": "225-243", "rol": "FIN", "torre_id": "243", "torre_nombre": "243", "altura_m": 22.4, "distancia_m": 44.8, "lado": "mayores", "dimensiones": "20x20 m", "estado": "PRELIMINAR_REVISAR" }, "geometry": { "type": "Polygon", "coordinates": [ [ [ 9.184745, 44.431882 ], [ 9.184978, 44.431815 ], [ 9.185072, 44.431982 ], [ 9.184839, 44.432049 ], [ 9.184745, 44.431882 ] ] ] } },
{ "type": "Feature", "properties": { "tirada_id": 2, "tirada": "243-257", "rol": "INICIO", "torre_id": "243", "torre_nombre": "243", "altura_m": 22.4, "distancia_m": 44.8, "lado": "menores", "dimensiones": "20x20 m", "estado": "PRELIMINAR_REVISAR" }, "geometry": { "type": "Polygon", "coordinates": [ [ [ 9.186116, 44.43168 ], [ 9.185883, 44.431747 ], [ 9.185789, 44.43158 ], [ 9.186022, 44.431513 ], [ 9.186116, 44.43168 ] ] ] } },
{ "type": "Feature", "properties": { "tirada_id": 2, "tirada": "243-257", "rol": "FIN", "torre_id": "257", "torre_nombre": "257", "altura_m": 28.0, "distancia_m": 56.0, "lado": "mayores", "dimensiones": "20x20 m", "estado": "PRELIMINAR_REVISAR" }, "geometry": { "type": "Polygon", "coordinates": [ [ [ 9.150541, 44.43628 ], [ 9.150791, 44.436268 ], [ 9.150808, 44.436448 ], [ 9.150557, 44.43646 ], [ 9.150541, 44.43628 ] ] ] } },
{ "type": "Feature", "properties": { "tirada_id": 3, "tirada": "257-267", "rol": "INICIO", "torre_id": "257", "torre_nombre": "257", "altura_m": 28.0, "distancia_m": 56.0, "lado": "menores", "dimensiones": "20x20 m", "estado": "PRELIMINAR_REVISAR" }, "geometry": { "type": "Polygon", "coordinates": [ [ [ 9.152167, 44.436131 ], [ 9.151945, 44.436215 ], [ 9.151827, 44.436057 ], [ 9.152048, 44.435972 ], [ 9.152167, 44.436131 ] ] ] } },
{ "type": "Feature", "properties": { "tirada_id": 3, "tirada": "257-267", "rol": "FIN", "torre_id": "267", "torre_nombre": "267", "altura_m": 35.5, "distancia_m": 71.0, "lado": "mayores", "dimensiones": "20x20 m", "estado": "PRELIMINAR_REVISAR" }, "geometry": { "type": "Polygon", "coordinates": [ [ [ 9.12561, 44.437963 ], [ 9.12586, 44.437981 ], [ 9.125835, 44.43816 ], [ 9.125585, 44.438142 ], [ 9.12561, 44.437963 ] ] ] } },
{ "type": "Feature", "properties": { "tirada_id": 4, "tirada": "267-284", "rol": "INICIO", "torre_id": "267", "torre_nombre": "267", "altura_m": 35.5, "distancia_m": 71.0, "lado": "menores", "dimensiones": "20x20 m", "estado": "PRELIMINAR_REVISAR" }, "geometry": { "type": "Polygon", "coordinates": [ [ [ 9.127478, 44.437733 ], [ 9.127283, 44.437847 ], [ 9.127124, 44.437708 ], [ 9.127318, 44.437594 ], [ 9.127478, 44.437733 ] ] ] } },
{ "type": "Feature", "properties": { "tirada_id": 4, "tirada": "267-284", "rol": "FIN", "torre_id": "284", "torre_nombre": "284", "altura_m": 25.9, "distancia_m": 51.8, "lado": "mayores", "dimensiones": "20x20 m", "estado": "PRELIMINAR_REVISAR" }, "geometry": { "type": "Polygon", "coordinates": [ [ [ 9.085916, 44.441414 ], [ 9.086161, 44.441376 ], [ 9.086214, 44.441553 ], [ 9.085968, 44.44159 ], [ 9.085916, 44.441414 ] ] ] } },
{ "type": "Feature", "properties": { "tirada_id": 5, "tirada": "284-304", "rol": "INICIO", "torre_id": "284", "torre_nombre": "284", "altura_m": 25.9, "distancia_m": 51.8, "lado": "menores", "dimensiones": "20x20 m", "estado": "PRELIMINAR_REVISAR" }, "geometry": { "type": "Polygon", "coordinates": [ [ [ 9.087487, 44.441358 ], [ 9.087241, 44.441395 ], [ 9.087189, 44.441219 ], [ 9.087434, 44.441182 ], [ 9.087487, 44.441358 ] ] ] } },
{ "type": "Feature", "properties": { "tirada_id": 5, "tirada": "284-304", "rol": "FIN", "torre_id": "304", "torre_nombre": "304", "altura_m": 22.8, "distancia_m": 45.6, "lado": "mayores", "dimensiones": "20x20 m", "estado": "PRELIMINAR_REVISAR" }, "geometry": { "type": "Polygon", "coordinates": [ [ [ 9.037503, 44.452716 ], [ 9.037741, 44.45266 ], [ 9.03782, 44.452831 ], [ 9.037582, 44.452887 ], [ 9.037503, 44.452716 ] ] ] } },
{ "type": "Feature", "properties": { "tirada_id": 6, "tirada": "304-322", "rol": "INICIO", "torre_id": "304", "torre_nombre": "304", "altura_m": 22.8, "distancia_m": 45.6, "lado": "menores", "dimensiones": "20x20 m", "estado": "PRELIMINAR_REVISAR" }, "geometry": { "type": "Polygon", "coordinates": [ [ [ 9.038908, 44.452572 ], [ 9.03867, 44.452629 ], [ 9.038591, 44.452458 ], [ 9.038829, 44.452401 ], [ 9.038908, 44.452572 ] ] ] } },
{ "type": "Feature", "properties": { "tirada_id": 6, "tirada": "304-322", "rol": "FIN", "torre_id": "322", "torre_nombre": "322", "altura_m": 35.7, "distancia_m": 71.4, "lado": "mayores", "dimensiones": "20x20 m", "estado": "PRELIMINAR_REVISAR" }, "geometry": { "type": "Polygon", "coordinates": [ [ [ 9.000241, 44.4578 ], [ 9.00043, 44.457918 ], [ 9.000265, 44.458054 ], [ 9.000076, 44.457935 ], [ 9.000241, 44.4578 ] ] ] } },
{ "type": "Feature", "properties": { "tirada_id": 7, "tirada": "322-Springs", "rol": "INICIO", "torre_id": "322", "torre_nombre": "322", "altura_m": 35.7, "distancia_m": 71.4, "lado": "menores", "dimensiones": "20x20 m", "estado": "PRELIMINAR_REVISAR" }, "geometry": { "type": "Polygon", "coordinates": [ [ [ 9.001937, 44.458193 ], [ 9.0017, 44.458253 ], [ 9.001617, 44.458083 ], [ 9.001854, 44.458023 ], [ 9.001937, 44.458193 ] ] ] } },
{ "type": "Feature", "properties": { "tirada_id": 7, "tirada": "322-Springs", "rol": "FIN", "torre_id": "999-MOLA", "torre_nombre": "Springs", "altura_m": 17.6, "distancia_m": 35.2, "lado": "mayores", "dimensiones": "20x20 m", "estado": "PRELIMINAR_REVISAR" }, "geometry": { "type": "Polygon", "coordinates": [ [ [ 8.975398, 44.450791 ], [ 8.975577, 44.450664 ], [ 8.975753, 44.450793 ], [ 8.975574, 44.450919 ], [ 8.975398, 44.450791 ] ] ] } }
]
}
