{
"type": "FeatureCollection",
"name": "caminos_temporales_3_5m",
"xy_coordinate_resolution": 1e-06,
"features": [
{ "type": "Feature", "properties": { "torre_id": "000-QUAR", "tramo": "000-QUAR-274", "ancho_m": 3.5, "longitud_m": 120.8, "via_osm_id": 193290144, "via_tipo": "primary", "via_superficie": "asphalt", "estado": "PRELIMINAR_REVISAR" }, "geometry": { "type": "Polygon", "coordinates": [ [ [ 9.218008, 44.416286 ], [ 9.218439, 44.416286 ], [ 9.218439, 44.416317 ], [ 9.21799, 44.416318 ], [ 9.217902, 44.416255 ], [ 9.217726, 44.416255 ], [ 9.217638, 44.416193 ], [ 9.21755, 44.416193 ], [ 9.217267, 44.415991 ], [ 9.217373, 44.415862 ], [ 9.21741, 44.415878 ], [ 9.217322, 44.415986 ], [ 9.217568, 44.416161 ], [ 9.217656, 44.416161 ], [ 9.217744, 44.416224 ], [ 9.21792, 44.416224 ], [ 9.218008, 44.416286 ] ] ] } },
{ "type": "Feature", "properties": { "torre_id": "102", "tramo": "000-QUAR-274", "ancho_m": 3.5, "longitud_m": 6.9, "via_osm_id": 83480066, "via_tipo": "unclassified", "via_superficie": "asphalt", "estado": "PRELIMINAR_REVISAR" }, "geometry": { "type": "Polygon", "coordinates": [ [ [ 9.219761, 44.415454 ], [ 9.219846, 44.415464 ], [ 9.219839, 44.415495 ], [ 9.219754, 44.415485 ], [ 9.219761, 44.415454 ] ] ] } },
{ "type": "Feature", "properties": { "torre_id": "101", "tramo": "000-QUAR-274", "ancho_m": 3.5, "longitud_m": 54.4, "via_osm_id": 83480066, "via_tipo": "unclassified", "via_superficie": "asphalt", "estado": "PRELIMINAR_REVISAR" }, "geometry": { "type": "Polygon", "coordinates": [ [ [ 9.220646, 44.41625 ], [ 9.220565, 44.416308 ], [ 9.220534, 44.416286 ], [ 9.220628, 44.416218 ], [ 9.22091, 44.416218 ], [ 9.221075, 44.416336 ], [ 9.221089, 44.416323 ], [ 9.221123, 44.416343 ], [ 9.221079, 44.416383 ], [ 9.220892, 44.416249 ], [ 9.220646, 44.41625 ] ] ] } },
{ "type": "Feature", "properties": { "torre_id": "224", "tramo": "000-QUAR-274", "ancho_m": 3.5, "longitud_m": 69.4, "via_osm_id": 83480066, "via_tipo": "unclassified", "via_superficie": "asphalt", "estado": "PRELIMINAR_REVISAR" }, "geometry": { "type": "Polygon", "coordinates": [ [ [ 9.221176, 44.416942 ], [ 9.221095, 44.417001 ], [ 9.221064, 44.416978 ], [ 9.221158, 44.416911 ], [ 9.221422, 44.41691 ], [ 9.22169, 44.416717 ], [ 9.221802, 44.416759 ], [ 9.221781, 44.416787 ], [ 9.221698, 44.416756 ], [ 9.22144, 44.416942 ], [ 9.221176, 44.416942 ] ] ] } },
{ "type": "Feature", "properties": { "torre_id": "225", "tramo": "000-QUAR-274", "ancho_m": 3.5, "longitud_m": 117.3, "via_osm_id": 34283808, "via_tipo": "primary", "via_superficie": "asphalt", "estado": "PRELIMINAR_REVISAR" }, "geometry": { "type": "Polygon", "coordinates": [ [ [ 9.218345, 44.417828 ], [ 9.217989, 44.417574 ], [ 9.21802, 44.417551 ], [ 9.218369, 44.4178 ], [ 9.218633, 44.417863 ], [ 9.219104, 44.418238 ], [ 9.219071, 44.418259 ], [ 9.218608, 44.41789 ], [ 9.218345, 44.417828 ] ] ] } },
{ "type": "Feature", "properties": { "torre_id": "226", "tramo": "000-QUAR-274", "ancho_m": 3.5, "longitud_m": 15.5, "via_osm_id": 83479743, "via_tipo": "unclassified", "via_superficie": "asphalt", "estado": "PRELIMINAR_REVISAR" }, "geometry": { "type": "Polygon", "coordinates": [ [ [ 9.217329, 44.419248 ], [ 9.217329, 44.419328 ], [ 9.217285, 44.419329 ], [ 9.217285, 44.419283 ], [ 9.217204, 44.419291 ], [ 9.217198, 44.41926 ], [ 9.217329, 44.419248 ] ] ] } },
{ "type": "Feature", "properties": { "torre_id": "227", "tramo": "000-QUAR-274", "ancho_m": 3.5, "longitud_m": 18.3, "via_osm_id": 1442612416, "via_tipo": "residential", "via_superficie": "", "estado": "PRELIMINAR_REVISAR" }, "geometry": { "type": "Polygon", "coordinates": [ [ [ 9.215354, 44.420199 ], [ 9.215464, 44.420199 ], [ 9.215464, 44.42023 ], [ 9.215398, 44.42023 ], [ 9.215398, 44.42024 ], [ 9.215429, 44.42026 ], [ 9.215354, 44.420318 ], [ 9.215354, 44.420199 ] ] ] } },
{ "type": "Feature", "properties": { "torre_id": "228", "tramo": "000-QUAR-274", "ancho_m": 3.5, "longitud_m": 76.4, "via_osm_id": 1442612416, "via_tipo": "residential", "via_superficie": "", "estado": "PRELIMINAR_REVISAR" }, "geometry": { "type": "Polygon", "coordinates": [ [ [ 9.21474, 44.42065 ], [ 9.214738, 44.420153 ], [ 9.214782, 44.420153 ], [ 9.214784, 44.420663 ], [ 9.214684, 44.420735 ], [ 9.214543, 44.420738 ], [ 9.214542, 44.420707 ], [ 9.214665, 44.420704 ], [ 9.21474, 44.42065 ] ] ] } },
{ "type": "Feature", "properties": { "torre_id": "229", "tramo": "000-QUAR-274", "ancho_m": 3.5, "longitud_m": 33.6, "via_osm_id": 193290142, "via_tipo": "unclassified", "via_superficie": "asphalt", "estado": "PRELIMINAR_REVISAR" }, "geometry": { "type": "Polygon", "coordinates": [ [ [ 9.212906, 44.421557 ], [ 9.212724, 44.421363 ], [ 9.21276, 44.421345 ], [ 9.212932, 44.421528 ], [ 9.213026, 44.421538 ], [ 9.213019, 44.421569 ], [ 9.212906, 44.421557 ] ] ] } },
{ "type": "Feature", "properties": { "torre_id": "230", "tramo": "000-QUAR-274", "ancho_m": 3.5, "longitud_m": 179.0, "via_osm_id": 193290142, "via_tipo": "unclassified", "via_superficie": "asphalt", "estado": "PRELIMINAR_REVISAR" }, "geometry": { "type": "Polygon", "coordinates": [ [ [ 9.212209, 44.42241 ], [ 9.21257, 44.42241 ], [ 9.21257, 44.422441 ], [ 9.212228, 44.422442 ], [ 9.211964, 44.422631 ], [ 9.211787, 44.422632 ], [ 9.211348, 44.422885 ], [ 9.210892, 44.422885 ], [ 9.210813, 44.422829 ], [ 9.210733, 44.422887 ], [ 9.210627, 44.422876 ], [ 9.210633, 44.422845 ], [ 9.210717, 44.422853 ], [ 9.210813, 44.422784 ], [ 9.21091, 44.422854 ], [ 9.211333, 44.422853 ], [ 9.211772, 44.4226 ], [ 9.211946, 44.4226 ], [ 9.212209, 44.42241 ] ] ] } },
{ "type": "Feature", "properties": { "torre_id": "231", "tramo": "000-QUAR-274", "ancho_m": 3.5, "longitud_m": 234.8, "via_osm_id": 181229503, "via_tipo": "unclassified", "via_superficie": "asphalt", "estado": "PRELIMINAR_REVISAR" }, "geometry": { "type": "Polygon", "coordinates": [ [ [ 9.207375, 44.422955 ], [ 9.207032, 44.422955 ], [ 9.207032, 44.422924 ], [ 9.207393, 44.422923 ], [ 9.207481, 44.422986 ], [ 9.208183, 44.422985 ], [ 9.208535, 44.423173 ], [ 9.208625, 44.423173 ], [ 9.208814, 44.423308 ], [ 9.208815, 44.423636 ], [ 9.20864, 44.423763 ], [ 9.20864, 44.423922 ], [ 9.208648, 44.42392 ], [ 9.208665, 44.423949 ], [ 9.208597, 44.423969 ], [ 9.208596, 44.42375 ], [ 9.208771, 44.423623 ], [ 9.20877, 44.423321 ], [ 9.208607, 44.423205 ], [ 9.208521, 44.423205 ], [ 9.208168, 44.423016 ], [ 9.207463, 44.423018 ], [ 9.207375, 44.422955 ] ] ] } },
{ "type": "Feature", "properties": { "torre_id": "232", "tramo": "000-QUAR-274", "ancho_m": 3.5, "longitud_m": 68.7, "via_osm_id": 223170684, "via_tipo": "unclassified", "via_superficie": "asphalt", "estado": "PRELIMINAR_REVISAR" }, "geometry": { "type": "Polygon", "coordinates": [ [ [ 9.206942, 44.424531 ], [ 9.206584, 44.42434 ], [ 9.20661, 44.424314 ], [ 9.206957, 44.4245 ], [ 9.207048, 44.424499 ], [ 9.207268, 44.424691 ], [ 9.207234, 44.424711 ], [ 9.207027, 44.424531 ], [ 9.206942, 44.424531 ] ] ] } },
{ "type": "Feature", "properties": { "torre_id": "233", "tramo": "000-QUAR-274", "ancho_m": 3.5, "longitud_m": 6.4, "via_osm_id": 223170684, "via_tipo": "unclassified", "via_superficie": "asphalt", "estado": "PRELIMINAR_REVISAR" }, "geometry": { "type": "Polygon", "coordinates": [ [ [ 9.205541, 44.425275 ], [ 9.205463, 44.42529 ], [ 9.205452, 44.425259 ], [ 9.20553, 44.425244 ], [ 9.205541, 44.425275 ] ] ] } },
{ "type": "Feature", "properties": { "torre_id": "234", "tramo": "000-QUAR-274", "ancho_m": 3.5, "longitud_m": 135.0, "via_osm_id": 223170684, "via_tipo": "unclassified", "via_superficie": "asphalt", "estado": "PRELIMINAR_REVISAR" }, "geometry": { "type": "Polygon", "coordinates": [ [ [ 9.202232, 44.427177 ], [ 9.202138, 44.427245 ], [ 9.202107, 44.427223 ], [ 9.202188, 44.427164 ], [ 9.202188, 44.427038 ], [ 9.202535, 44.426788 ], [ 9.202453, 44.426612 ], [ 9.202274, 44.426484 ], [ 9.202273, 44.426409 ], [ 9.202461, 44.426249 ], [ 9.202495, 44.426269 ], [ 9.202317, 44.42642 ], [ 9.202318, 44.426471 ], [ 9.202491, 44.426595 ], [ 9.202586, 44.426796 ], [ 9.202232, 44.427051 ], [ 9.202232, 44.427177 ] ] ] } },
{ "type": "Feature", "properties": { "torre_id": "235", "tramo": "000-QUAR-274", "ancho_m": 3.5, "longitud_m": 76.2, "via_osm_id": 223170684, "via_tipo": "unclassified", "via_superficie": "asphalt", "estado": "PRELIMINAR_REVISAR" }, "geometry": { "type": "Polygon", "coordinates": [ [ [ 9.201439, 44.42685 ], [ 9.201441, 44.427235 ], [ 9.201397, 44.427235 ], [ 9.201395, 44.426864 ], [ 9.201307, 44.426801 ], [ 9.201307, 44.426725 ], [ 9.201395, 44.426661 ], [ 9.2014, 44.426601 ], [ 9.201444, 44.426602 ], [ 9.201438, 44.426675 ], [ 9.201351, 44.426738 ], [ 9.201351, 44.426788 ], [ 9.201439, 44.42685 ] ] ] } },
{ "type": "Feature", "properties": { "torre_id": "236", "tramo": "000-QUAR-274", "ancho_m": 3.5, "longitud_m": 244.1, "via_osm_id": 223170684, "via_tipo": "unclassified", "via_superficie": "asphalt", "estado": "PRELIMINAR_REVISAR" }, "geometry": { "type": "Polygon", "coordinates": [ [ [ 9.200445, 44.427914 ], [ 9.200981, 44.427913 ], [ 9.200981, 44.427945 ], [ 9.200463, 44.427946 ], [ 9.200287, 44.428072 ], [ 9.200181, 44.428072 ], [ 9.200005, 44.427947 ], [ 9.199847, 44.427947 ], [ 9.19976, 44.42801 ], [ 9.199214, 44.428011 ], [ 9.199037, 44.427885 ], [ 9.198686, 44.427886 ], [ 9.198286, 44.427634 ], [ 9.198315, 44.42761 ], [ 9.198703, 44.427854 ], [ 9.199055, 44.427854 ], [ 9.199232, 44.427979 ], [ 9.199741, 44.427979 ], [ 9.199829, 44.427915 ], [ 9.200023, 44.427915 ], [ 9.200199, 44.428041 ], [ 9.200269, 44.428041 ], [ 9.200445, 44.427914 ] ] ] } },
{ "type": "Feature", "properties": { "torre_id": "237", "tramo": "000-QUAR-274", "ancho_m": 3.5, "longitud_m": 99.5, "via_osm_id": 1442612428, "via_tipo": "residential", "via_superficie": "", "estado": "PRELIMINAR_REVISAR" }, "geometry": { "type": "Polygon", "coordinates": [ [ [ 9.195291, 44.429143 ], [ 9.195021, 44.429337 ], [ 9.19499, 44.429315 ], [ 9.195247, 44.42913 ], [ 9.195247, 44.429006 ], [ 9.195422, 44.428816 ], [ 9.195436, 44.428545 ], [ 9.19548, 44.428546 ], [ 9.195466, 44.428826 ], [ 9.195291, 44.429015 ], [ 9.195291, 44.429143 ] ] ] } },
{ "type": "Feature", "properties": { "torre_id": "238", "tramo": "000-QUAR-274", "ancho_m": 3.5, "longitud_m": 100.2, "via_osm_id": 1442612428, "via_tipo": "residential", "via_superficie": "", "estado": "PRELIMINAR_REVISAR" }, "geometry": { "type": "Polygon", "coordinates": [ [ [ 9.194751, 44.429185 ], [ 9.194845, 44.429252 ], [ 9.194814, 44.429274 ], [ 9.194733, 44.429216 ], [ 9.193765, 44.429218 ], [ 9.193654, 44.429139 ], [ 9.193702, 44.429106 ], [ 9.193732, 44.429129 ], [ 9.193718, 44.429139 ], [ 9.193783, 44.429186 ], [ 9.194751, 44.429185 ] ] ] } },
{ "type": "Feature", "properties": { "torre_id": "239", "tramo": "000-QUAR-274", "ancho_m": 3.5, "longitud_m": 78.2, "via_osm_id": 1442612434, "via_tipo": "residential", "via_superficie": "", "estado": "PRELIMINAR_REVISAR" }, "geometry": { "type": "Polygon", "coordinates": [ [ [ 9.192554, 44.429944 ], [ 9.192649, 44.430012 ], [ 9.192618, 44.430034 ], [ 9.192536, 44.429976 ], [ 9.192448, 44.429976 ], [ 9.19236, 44.429913 ], [ 9.192184, 44.429914 ], [ 9.192083, 44.429842 ], [ 9.192083, 44.429779 ], [ 9.191985, 44.429709 ], [ 9.192098, 44.429631 ], [ 9.192129, 44.429654 ], [ 9.192048, 44.429709 ], [ 9.192127, 44.429765 ], [ 9.192127, 44.429828 ], [ 9.192202, 44.429882 ], [ 9.192378, 44.429882 ], [ 9.192467, 44.429945 ], [ 9.192554, 44.429944 ] ] ] } },
{ "type": "Feature", "properties": { "torre_id": "240", "tramo": "000-QUAR-274", "ancho_m": 3.5, "longitud_m": 70.6, "via_osm_id": 182761952, "via_tipo": "residential", "via_superficie": "", "estado": "PRELIMINAR_REVISAR" }, "geometry": { "type": "Polygon", "coordinates": [ [ [ 9.190325, 44.429971 ], [ 9.190324, 44.429586 ], [ 9.190367, 44.429586 ], [ 9.190369, 44.429957 ], [ 9.190457, 44.43002 ], [ 9.190457, 44.430082 ], [ 9.190569, 44.430136 ], [ 9.190544, 44.430162 ], [ 9.190413, 44.430098 ], [ 9.190413, 44.430033 ], [ 9.190325, 44.429971 ] ] ] } },
{ "type": "Feature", "properties": { "torre_id": "241", "tramo": "000-QUAR-274", "ancho_m": 3.5, "longitud_m": 122.1, "via_osm_id": 182761952, "via_tipo": "residential", "via_superficie": "", "estado": "PRELIMINAR_REVISAR" }, "geometry": { "type": "Polygon", "coordinates": [ [ [ 9.188741, 44.429847 ], [ 9.188741, 44.429778 ], [ 9.188785, 44.429777 ], [ 9.188785, 44.429834 ], [ 9.189213, 44.430139 ], [ 9.189301, 44.430139 ], [ 9.189402, 44.430211 ], [ 9.189403, 44.430539 ], [ 9.189297, 44.430616 ], [ 9.189241, 44.430591 ], [ 9.189264, 44.430564 ], [ 9.18929, 44.430576 ], [ 9.189359, 44.430526 ], [ 9.189358, 44.430224 ], [ 9.189283, 44.430171 ], [ 9.189195, 44.430171 ], [ 9.188741, 44.429847 ] ] ] } },
{ "type": "Feature", "properties": { "torre_id": "242", "tramo": "000-QUAR-274", "ancho_m": 3.5, "longitud_m": 178.8, "via_osm_id": 964846583, "via_tipo": "secondary", "via_superficie": "", "estado": "PRELIMINAR_REVISAR" }, "geometry": { "type": "Polygon", "coordinates": [ [ [ 9.186491, 44.432192 ], [ 9.186044, 44.432192 ], [ 9.186044, 44.432161 ], [ 9.186477, 44.43216 ], [ 9.18672, 44.432044 ], [ 9.186551, 44.431743 ], [ 9.186284, 44.431488 ], [ 9.186284, 44.431414 ], [ 9.186486, 44.431268 ], [ 9.186616, 44.431436 ], [ 9.186578, 44.431452 ], [ 9.186476, 44.43132 ], [ 9.186328, 44.431427 ], [ 9.186328, 44.431478 ], [ 9.18659, 44.431727 ], [ 9.186775, 44.432056 ], [ 9.186491, 44.432192 ] ] ] } },
{ "type": "Feature", "properties": { "torre_id": "243", "tramo": "000-QUAR-274", "ancho_m": 3.5, "longitud_m": 9.1, "via_osm_id": 964846583, "via_tipo": "secondary", "via_superficie": "", "estado": "PRELIMINAR_REVISAR" }, "geometry": { "type": "Polygon", "coordinates": [ [ [ 9.185452, 44.431781 ], [ 9.18545, 44.431863 ], [ 9.185406, 44.431862 ], [ 9.185408, 44.431781 ], [ 9.185452, 44.431781 ] ] ] } },
{ "type": "Feature", "properties": { "torre_id": "244", "tramo": "000-QUAR-274", "ancho_m": 3.5, "longitud_m": 367.6, "via_osm_id": 183633823, "via_tipo": "residential", "via_superficie": "", "estado": "PRELIMINAR_REVISAR" }, "geometry": { "type": "Polygon", "coordinates": [ [ [ 9.181535, 44.431436 ], [ 9.18128, 44.431315 ], [ 9.181304, 44.431289 ], [ 9.181578, 44.431419 ], [ 9.181579, 44.431673 ], [ 9.181667, 44.431736 ], [ 9.181668, 44.431938 ], [ 9.18148, 44.432074 ], [ 9.181286, 44.432074 ], [ 9.181197, 44.432011 ], [ 9.180952, 44.432012 ], [ 9.180864, 44.432075 ], [ 9.180688, 44.432075 ], [ 9.180525, 44.432192 ], [ 9.180526, 44.432318 ], [ 9.180438, 44.432381 ], [ 9.180439, 44.43262 ], [ 9.180514, 44.432674 ], [ 9.180672, 44.432674 ], [ 9.180759, 44.432611 ], [ 9.180866, 44.43261 ], [ 9.180967, 44.432683 ], [ 9.180967, 44.432759 ], [ 9.180791, 44.432885 ], [ 9.180792, 44.432935 ], [ 9.180867, 44.432988 ], [ 9.181219, 44.432985 ], [ 9.181219, 44.433017 ], [ 9.180849, 44.43302 ], [ 9.180748, 44.432948 ], [ 9.180747, 44.432872 ], [ 9.180923, 44.432746 ], [ 9.180923, 44.432696 ], [ 9.180848, 44.432642 ], [ 9.180778, 44.432642 ], [ 9.18069, 44.432705 ], [ 9.180496, 44.432706 ], [ 9.180395, 44.432633 ], [ 9.180394, 44.432368 ], [ 9.180482, 44.432305 ], [ 9.180481, 44.432179 ], [ 9.18067, 44.432044 ], [ 9.180846, 44.432043 ], [ 9.180933, 44.43198 ], [ 9.181216, 44.43198 ], [ 9.181304, 44.432043 ], [ 9.181461, 44.432042 ], [ 9.181624, 44.431925 ], [ 9.181623, 44.431749 ], [ 9.181535, 44.431686 ], [ 9.181535, 44.431436 ] ] ] } },
{ "type": "Feature", "properties": { "torre_id": "245", "tramo": "000-QUAR-274", "ancho_m": 3.5, "longitud_m": 212.2, "via_osm_id": 25659188, "via_tipo": "primary", "via_superficie": "asphalt", "estado": "PRELIMINAR_REVISAR" }, "geometry": { "type": "Polygon", "coordinates": [ [ [ 9.179087, 44.432141 ], [ 9.179008, 44.432141 ], [ 9.179008, 44.432109 ], [ 9.179105, 44.432109 ], [ 9.179294, 44.432244 ], [ 9.179295, 44.432433 ], [ 9.179912, 44.432873 ], [ 9.179912, 44.432938 ], [ 9.180089, 44.433127 ], [ 9.180089, 44.433242 ], [ 9.180498, 44.433241 ], [ 9.180565, 44.433193 ], [ 9.180546, 44.433176 ], [ 9.18058, 44.433156 ], [ 9.180624, 44.433195 ], [ 9.180516, 44.433273 ], [ 9.180045, 44.433273 ], [ 9.180045, 44.433136 ], [ 9.179868, 44.432948 ], [ 9.179868, 44.432886 ], [ 9.179251, 44.432446 ], [ 9.17925, 44.432257 ], [ 9.179087, 44.432141 ] ] ] } },
{ "type": "Feature", "properties": { "torre_id": "246", "tramo": "000-QUAR-274", "ancho_m": 3.5, "longitud_m": 9.4, "via_osm_id": 183633821, "via_tipo": "residential", "via_superficie": "", "estado": "PRELIMINAR_REVISAR" }, "geometry": { "type": "Polygon", "coordinates": [ [ [ 9.178015, 44.433815 ], [ 9.177979, 44.433896 ], [ 9.177937, 44.433886 ], [ 9.177973, 44.433805 ], [ 9.178015, 44.433815 ] ] ] } },
{ "type": "Feature", "properties": { "torre_id": "247", "tramo": "000-QUAR-274", "ancho_m": 3.5, "longitud_m": 25.0, "via_osm_id": 183631776, "via_tipo": "residential", "via_superficie": "asphalt", "estado": "PRELIMINAR_REVISAR" }, "geometry": { "type": "Polygon", "coordinates": [ [ [ 9.175084, 44.434649 ], [ 9.175161, 44.434704 ], [ 9.17513, 44.434726 ], [ 9.175031, 44.434655 ], [ 9.175119, 44.434522 ], [ 9.175159, 44.434535 ], [ 9.175084, 44.434649 ] ] ] } },
{ "type": "Feature", "properties": { "torre_id": "248", "tramo": "000-QUAR-274", "ancho_m": 3.5, "longitud_m": 151.8, "via_osm_id": 183631776, "via_tipo": "residential", "via_superficie": "asphalt", "estado": "PRELIMINAR_REVISAR" }, "geometry": { "type": "Polygon", "coordinates": [ [ [ 9.172959, 44.435522 ], [ 9.173829, 44.43552 ], [ 9.173829, 44.435552 ], [ 9.17294, 44.435553 ], [ 9.172852, 44.43549 ], [ 9.172413, 44.435491 ], [ 9.172223, 44.435356 ], [ 9.172223, 44.4352 ], [ 9.172289, 44.435219 ], [ 9.172273, 44.435248 ], [ 9.172267, 44.435247 ], [ 9.172267, 44.435343 ], [ 9.172431, 44.435459 ], [ 9.17287, 44.435459 ], [ 9.172959, 44.435522 ] ] ] } },
{ "type": "Feature", "properties": { "torre_id": "249", "tramo": "000-QUAR-274", "ancho_m": 3.5, "longitud_m": 7.7, "via_osm_id": 1442562240, "via_tipo": "residential", "via_superficie": "", "estado": "PRELIMINAR_REVISAR" }, "geometry": { "type": "Polygon", "coordinates": [ [ [ 9.170309, 44.435723 ], [ 9.170333, 44.435789 ], [ 9.17029, 44.435797 ], [ 9.170266, 44.435731 ], [ 9.170309, 44.435723 ] ] ] } },
{ "type": "Feature", "properties": { "torre_id": "250", "tramo": "000-QUAR-274", "ancho_m": 3.5, "longitud_m": 120.7, "via_osm_id": 1442562240, "via_tipo": "residential", "via_superficie": "", "estado": "PRELIMINAR_REVISAR" }, "geometry": { "type": "Polygon", "coordinates": [ [ [ 9.168706, 44.435789 ], [ 9.169064, 44.435532 ], [ 9.169095, 44.435554 ], [ 9.16875, 44.435802 ], [ 9.168751, 44.435865 ], [ 9.168663, 44.435928 ], [ 9.168663, 44.436158 ], [ 9.168739, 44.436158 ], [ 9.168818, 44.436214 ], [ 9.168881, 44.436169 ], [ 9.168859, 44.436094 ], [ 9.168902, 44.436087 ], [ 9.168929, 44.436179 ], [ 9.168818, 44.436259 ], [ 9.16872, 44.43619 ], [ 9.16862, 44.43619 ], [ 9.168619, 44.435915 ], [ 9.168707, 44.435852 ], [ 9.168706, 44.435789 ] ] ] } },
{ "type": "Feature", "properties": { "torre_id": "251", "tramo": "000-QUAR-274", "ancho_m": 3.5, "longitud_m": 316.8, "via_osm_id": 1442562240, "via_tipo": "residential", "via_superficie": "", "estado": "PRELIMINAR_REVISAR" }, "geometry": { "type": "Polygon", "coordinates": [ [ [ 9.168542, 44.435465 ], [ 9.169079, 44.435464 ], [ 9.169079, 44.435496 ], [ 9.168561, 44.435497 ], [ 9.168473, 44.43556 ], [ 9.168298, 44.43556 ], [ 9.167608, 44.436118 ], [ 9.167608, 44.436244 ], [ 9.167334, 44.436507 ], [ 9.166453, 44.436508 ], [ 9.166299, 44.436619 ], [ 9.166378, 44.436675 ], [ 9.166378, 44.436729 ], [ 9.166396, 44.436729 ], [ 9.166429, 44.436708 ], [ 9.166493, 44.43676 ], [ 9.166334, 44.43676 ], [ 9.166334, 44.436688 ], [ 9.166237, 44.436619 ], [ 9.166434, 44.436477 ], [ 9.167312, 44.436475 ], [ 9.167564, 44.436233 ], [ 9.167564, 44.436107 ], [ 9.168278, 44.435529 ], [ 9.168455, 44.435528 ], [ 9.168542, 44.435465 ] ] ] } },
{ "type": "Feature", "properties": { "torre_id": "252", "tramo": "000-QUAR-274", "ancho_m": 3.5, "longitud_m": 59.1, "via_osm_id": 25678628, "via_tipo": "primary", "via_superficie": "asphalt", "estado": "PRELIMINAR_REVISAR" }, "geometry": { "type": "Polygon", "coordinates": [ [ [ 9.16398, 44.436619 ], [ 9.163437, 44.436256 ], [ 9.163467, 44.436233 ], [ 9.16401, 44.436596 ], [ 9.16398, 44.436619 ] ] ] } },
{ "type": "Feature", "properties": { "torre_id": "253", "tramo": "000-QUAR-274", "ancho_m": 3.5, "longitud_m": 77.5, "via_osm_id": 25678628, "via_tipo": "primary", "via_superficie": "asphalt", "estado": "PRELIMINAR_REVISAR" }, "geometry": { "type": "Polygon", "coordinates": [ [ [ 9.160925, 44.436746 ], [ 9.160925, 44.436878 ], [ 9.160881, 44.436878 ], [ 9.160881, 44.436759 ], [ 9.160806, 44.436705 ], [ 9.16063, 44.436705 ], [ 9.160529, 44.436633 ], [ 9.160528, 44.436456 ], [ 9.160444, 44.436463 ], [ 9.160438, 44.436432 ], [ 9.160572, 44.43642 ], [ 9.160573, 44.43662 ], [ 9.160648, 44.436674 ], [ 9.160824, 44.436674 ], [ 9.160925, 44.436746 ] ] ] } },
{ "type": "Feature", "properties": { "torre_id": "254", "tramo": "000-QUAR-274", "ancho_m": 3.5, "longitud_m": 174.9, "via_osm_id": 25678628, "via_tipo": "primary", "via_superficie": "asphalt", "estado": "PRELIMINAR_REVISAR" }, "geometry": { "type": "Polygon", "coordinates": [ [ [ 9.160134, 44.436999 ], [ 9.160304, 44.43712 ], [ 9.160273, 44.437142 ], [ 9.16009, 44.437012 ], [ 9.16009, 44.436886 ], [ 9.159825, 44.436697 ], [ 9.159824, 44.43613 ], [ 9.159749, 44.436076 ], [ 9.159516, 44.436077 ], [ 9.159516, 44.436161 ], [ 9.159523, 44.436159 ], [ 9.159543, 44.436187 ], [ 9.159472, 44.436213 ], [ 9.159472, 44.436045 ], [ 9.159767, 44.436045 ], [ 9.159868, 44.436117 ], [ 9.159869, 44.436684 ], [ 9.160134, 44.436873 ], [ 9.160134, 44.436999 ] ] ] } },
{ "type": "Feature", "properties": { "torre_id": "255", "tramo": "000-QUAR-274", "ancho_m": 3.5, "longitud_m": 128.2, "via_osm_id": 25678628, "via_tipo": "primary", "via_superficie": "asphalt", "estado": "PRELIMINAR_REVISAR" }, "geometry": { "type": "Polygon", "coordinates": [ [ [ 9.157141, 44.436197 ], [ 9.156784, 44.436454 ], [ 9.156752, 44.436432 ], [ 9.157097, 44.436184 ], [ 9.157097, 44.436121 ], [ 9.157185, 44.436058 ], [ 9.157184, 44.435932 ], [ 9.157637, 44.435607 ], [ 9.157749, 44.435609 ], [ 9.157748, 44.43564 ], [ 9.157654, 44.435638 ], [ 9.157229, 44.435945 ], [ 9.157229, 44.436071 ], [ 9.157141, 44.436134 ], [ 9.157141, 44.436197 ] ] ] } },
{ "type": "Feature", "properties": { "torre_id": "256", "tramo": "000-QUAR-274", "ancho_m": 3.5, "longitud_m": 234.7, "via_osm_id": 25678628, "via_tipo": "primary", "via_superficie": "asphalt", "estado": "PRELIMINAR_REVISAR" }, "geometry": { "type": "Polygon", "coordinates": [ [ [ 9.156349, 44.435996 ], [ 9.15635, 44.436444 ], [ 9.156306, 44.436444 ], [ 9.156305, 44.436009 ], [ 9.155877, 44.435704 ], [ 9.155689, 44.435704 ], [ 9.155688, 44.435569 ], [ 9.1556, 44.435506 ], [ 9.1556, 44.43543 ], [ 9.155776, 44.435303 ], [ 9.155775, 44.435254 ], [ 9.155687, 44.435191 ], [ 9.155687, 44.435128 ], [ 9.155236, 44.434859 ], [ 9.155264, 44.434835 ], [ 9.155731, 44.435114 ], [ 9.155731, 44.435177 ], [ 9.155819, 44.43524 ], [ 9.15582, 44.435316 ], [ 9.155644, 44.435443 ], [ 9.155644, 44.435493 ], [ 9.155732, 44.435556 ], [ 9.155733, 44.435672 ], [ 9.155896, 44.435672 ], [ 9.156349, 44.435996 ] ] ] } },
{ "type": "Feature", "properties": { "torre_id": "257", "tramo": "000-QUAR-274", "ancho_m": 3.5, "longitud_m": 6.5, "via_osm_id": 21848440, "via_tipo": "secondary", "via_superficie": "asphalt", "estado": "PRELIMINAR_REVISAR" }, "geometry": { "type": "Polygon", "coordinates": [ [ [ 9.151397, 44.436326 ], [ 9.151423, 44.436382 ], [ 9.151382, 44.436392 ], [ 9.151356, 44.436336 ], [ 9.151397, 44.436326 ] ] ] } },
{ "type": "Feature", "properties": { "torre_id": "258", "tramo": "000-QUAR-274", "ancho_m": 3.5, "longitud_m": 74.3, "via_osm_id": 21848440, "via_tipo": "secondary", "via_superficie": "asphalt", "estado": "PRELIMINAR_REVISAR" }, "geometry": { "type": "Polygon", "coordinates": [ [ [ 9.149633, 44.435996 ], [ 9.149818, 44.435995 ], [ 9.149818, 44.436027 ], [ 9.149652, 44.436027 ], [ 9.149489, 44.436144 ], [ 9.149489, 44.436194 ], [ 9.149674, 44.436326 ], [ 9.149544, 44.436428 ], [ 9.149511, 44.436407 ], [ 9.149613, 44.436327 ], [ 9.149445, 44.436207 ], [ 9.149445, 44.436131 ], [ 9.149633, 44.435996 ] ] ] } },
{ "type": "Feature", "properties": { "torre_id": "259", "tramo": "000-QUAR-274", "ancho_m": 3.5, "longitud_m": 71.6, "via_osm_id": 529686383, "via_tipo": "residential", "via_superficie": "", "estado": "PRELIMINAR_REVISAR" }, "geometry": { "type": "Polygon", "coordinates": [ [ [ 9.14663, 44.436085 ], [ 9.14663, 44.435952 ], [ 9.146674, 44.435952 ], [ 9.146674, 44.436072 ], [ 9.146762, 44.436135 ], [ 9.146763, 44.436274 ], [ 9.146675, 44.436337 ], [ 9.14669, 44.436544 ], [ 9.146646, 44.436545 ], [ 9.14663, 44.436324 ], [ 9.146718, 44.436261 ], [ 9.146718, 44.436148 ], [ 9.14663, 44.436085 ] ] ] } },
{ "type": "Feature", "properties": { "torre_id": "260", "tramo": "000-QUAR-274", "ancho_m": 3.5, "longitud_m": 77.8, "via_osm_id": 529686383, "via_tipo": "residential", "via_superficie": "", "estado": "PRELIMINAR_REVISAR" }, "geometry": { "type": "Polygon", "coordinates": [ [ [ 9.14452, 44.43639 ], [ 9.144614, 44.436322 ], [ 9.144645, 44.436344 ], [ 9.144564, 44.436403 ], [ 9.144564, 44.436592 ], [ 9.144455, 44.436671 ], [ 9.144357, 44.436601 ], [ 9.144198, 44.436601 ], [ 9.144072, 44.43667 ], [ 9.144046, 44.436645 ], [ 9.144183, 44.43657 ], [ 9.144376, 44.43657 ], [ 9.144454, 44.436626 ], [ 9.14452, 44.436579 ], [ 9.14452, 44.43639 ] ] ] } },
{ "type": "Feature", "properties": { "torre_id": "261", "tramo": "000-QUAR-274", "ancho_m": 3.5, "longitud_m": 511.0, "via_osm_id": 529686383, "via_tipo": "residential", "via_superficie": "", "estado": "PRELIMINAR_REVISAR" }, "geometry": { "type": "Polygon", "coordinates": [ [ [ 9.14452, 44.43639 ], [ 9.144614, 44.436322 ], [ 9.144645, 44.436344 ], [ 9.144564, 44.436403 ], [ 9.144565, 44.436655 ], [ 9.144477, 44.436718 ], [ 9.144477, 44.436781 ], [ 9.144113, 44.437043 ], [ 9.143849, 44.437043 ], [ 9.143761, 44.437106 ], [ 9.143039, 44.437107 ], [ 9.142863, 44.436981 ], [ 9.142778, 44.436981 ], [ 9.142513, 44.436856 ], [ 9.142088, 44.436856 ], [ 9.141751, 44.437038 ], [ 9.141751, 44.437225 ], [ 9.141563, 44.437361 ], [ 9.141299, 44.437361 ], [ 9.141211, 44.437424 ], [ 9.140927, 44.437425 ], [ 9.140652, 44.437162 ], [ 9.140651, 44.437101 ], [ 9.140488, 44.436984 ], [ 9.140418, 44.436984 ], [ 9.140322, 44.437054 ], [ 9.140123, 44.436912 ], [ 9.140123, 44.43683 ], [ 9.140256, 44.436808 ], [ 9.140266, 44.436838 ], [ 9.140167, 44.436855 ], [ 9.140167, 44.436899 ], [ 9.140321, 44.437009 ], [ 9.1404, 44.436953 ], [ 9.140506, 44.436953 ], [ 9.140695, 44.437088 ], [ 9.140696, 44.437152 ], [ 9.140949, 44.437393 ], [ 9.141193, 44.437393 ], [ 9.141281, 44.43733 ], [ 9.141544, 44.437329 ], [ 9.141707, 44.437212 ], [ 9.141707, 44.437022 ], [ 9.142073, 44.436825 ], [ 9.142527, 44.436824 ], [ 9.142791, 44.43695 ], [ 9.142881, 44.43695 ], [ 9.143057, 44.437075 ], [ 9.143743, 44.437075 ], [ 9.143831, 44.437011 ], [ 9.144095, 44.437011 ], [ 9.144433, 44.436768 ], [ 9.144433, 44.436705 ], [ 9.144521, 44.436642 ], [ 9.14452, 44.43639 ] ] ] } },
{ "type": "Feature", "properties": { "torre_id": "262", "tramo": "000-QUAR-274", "ancho_m": 3.5, "longitud_m": 757.2, "via_osm_id": 529686383, "via_tipo": "residential", "via_superficie": "", "estado": "PRELIMINAR_REVISAR" }, "geometry": { "type": "Polygon", "coordinates": [ [ [ 9.14452, 44.43639 ], [ 9.144614, 44.436322 ], [ 9.144645, 44.436344 ], [ 9.144564, 44.436403 ], [ 9.144565, 44.436655 ], [ 9.144477, 44.436718 ], [ 9.144477, 44.436781 ], [ 9.144113, 44.437043 ], [ 9.143849, 44.437043 ], [ 9.143761, 44.437106 ], [ 9.143039, 44.437107 ], [ 9.142863, 44.436981 ], [ 9.142778, 44.436981 ], [ 9.142513, 44.436856 ], [ 9.142089, 44.436856 ], [ 9.142002, 44.436919 ], [ 9.141914, 44.436919 ], [ 9.141751, 44.437036 ], [ 9.141751, 44.437225 ], [ 9.141563, 44.437361 ], [ 9.141299, 44.437361 ], [ 9.141211, 44.437424 ], [ 9.141035, 44.437425 ], [ 9.140785, 44.437605 ], [ 9.140786, 44.438046 ], [ 9.140422, 44.438308 ], [ 9.139964, 44.438308 ], [ 9.139875, 44.438245 ], [ 9.1397, 44.438245 ], [ 9.139611, 44.438183 ], [ 9.139523, 44.438183 ], [ 9.13907, 44.437859 ], [ 9.139069, 44.437607 ], [ 9.138893, 44.437481 ], [ 9.138893, 44.437355 ], [ 9.138805, 44.437292 ], [ 9.138804, 44.437153 ], [ 9.138979, 44.437028 ], [ 9.138946, 44.436882 ], [ 9.138989, 44.436877 ], [ 9.139026, 44.437039 ], [ 9.138848, 44.437166 ], [ 9.138849, 44.437279 ], [ 9.138937, 44.437342 ], [ 9.138937, 44.437468 ], [ 9.139113, 44.437594 ], [ 9.139114, 44.437846 ], [ 9.139542, 44.438151 ], [ 9.13963, 44.438151 ], [ 9.139718, 44.438214 ], [ 9.139894, 44.438214 ], [ 9.139982, 44.438277 ], [ 9.140403, 44.438276 ], [ 9.140742, 44.438033 ], [ 9.140741, 44.437592 ], [ 9.141017, 44.437393 ], [ 9.141193, 44.437393 ], [ 9.141281, 44.43733 ], [ 9.141544, 44.437329 ], [ 9.141707, 44.437212 ], [ 9.141707, 44.437023 ], [ 9.141895, 44.436888 ], [ 9.141983, 44.436888 ], [ 9.142071, 44.436825 ], [ 9.142527, 44.436824 ], [ 9.142791, 44.43695 ], [ 9.142881, 44.43695 ], [ 9.143057, 44.437075 ], [ 9.143743, 44.437075 ], [ 9.143831, 44.437011 ], [ 9.144095, 44.437011 ], [ 9.144433, 44.436768 ], [ 9.144433, 44.436705 ], [ 9.144521, 44.436642 ], [ 9.14452, 44.43639 ] ] ] } },
{ "type": "Feature", "properties": { "torre_id": "263", "tramo": "000-QUAR-274", "ancho_m": 3.5, "longitud_m": 555.5, "via_osm_id": 183582425, "via_tipo": "residential", "via_superficie": "", "estado": "PRELIMINAR_REVISAR" }, "geometry": { "type": "Polygon", "coordinates": [ [ [ 9.135731, 44.433807 ], [ 9.1359, 44.433686 ], [ 9.135931, 44.433708 ], [ 9.135749, 44.433839 ], [ 9.135659, 44.433839 ], [ 9.135395, 44.433965 ], [ 9.135222, 44.433965 ], [ 9.135147, 44.434019 ], [ 9.135147, 44.434082 ], [ 9.135059, 44.434146 ], [ 9.13506, 44.434269 ], [ 9.134796, 44.434585 ], [ 9.134797, 44.434763 ], [ 9.13496, 44.43488 ], [ 9.135046, 44.434879 ], [ 9.135325, 44.435013 ], [ 9.135327, 44.435721 ], [ 9.135239, 44.435784 ], [ 9.135239, 44.435834 ], [ 9.135579, 44.436076 ], [ 9.135667, 44.436076 ], [ 9.135843, 44.436202 ], [ 9.136283, 44.436201 ], [ 9.136918, 44.436655 ], [ 9.13664, 44.436988 ], [ 9.136261, 44.437013 ], [ 9.136257, 44.436982 ], [ 9.136614, 44.436958 ], [ 9.136863, 44.43666 ], [ 9.136264, 44.436233 ], [ 9.135825, 44.436233 ], [ 9.135648, 44.436108 ], [ 9.13556, 44.436108 ], [ 9.135195, 44.435847 ], [ 9.135195, 44.435771 ], [ 9.135283, 44.435708 ], [ 9.135281, 44.435029 ], [ 9.135032, 44.434911 ], [ 9.134942, 44.434911 ], [ 9.134753, 44.434776 ], [ 9.134752, 44.434576 ], [ 9.135016, 44.434261 ], [ 9.135015, 44.434133 ], [ 9.135103, 44.434069 ], [ 9.135103, 44.434006 ], [ 9.135204, 44.433934 ], [ 9.135382, 44.433934 ], [ 9.135646, 44.433807 ], [ 9.135731, 44.433807 ] ] ] } },
{ "type": "Feature", "properties": { "torre_id": "264", "tramo": "000-QUAR-274", "ancho_m": 3.5, "longitud_m": 371.3, "via_osm_id": 1484324686, "via_tipo": "trunk", "via_superficie": "asphalt", "estado": "PRELIMINAR_REVISAR" }, "geometry": { "type": "Polygon", "coordinates": [ [ [ 9.132597, 44.438758 ], [ 9.132428, 44.43894 ], [ 9.132391, 44.438923 ], [ 9.132573, 44.438727 ], [ 9.132752, 44.438726 ], [ 9.132927, 44.4386 ], [ 9.133365, 44.4386 ], [ 9.133618, 44.438358 ], [ 9.133618, 44.438294 ], [ 9.13432, 44.437726 ], [ 9.134319, 44.437347 ], [ 9.134407, 44.437284 ], [ 9.134407, 44.437234 ], [ 9.134319, 44.437171 ], [ 9.134318, 44.437045 ], [ 9.134243, 44.436992 ], [ 9.133979, 44.436992 ], [ 9.1339, 44.436936 ], [ 9.133748, 44.437045 ], [ 9.133762, 44.437104 ], [ 9.133719, 44.437109 ], [ 9.133701, 44.437034 ], [ 9.1339, 44.436891 ], [ 9.133997, 44.43696 ], [ 9.134261, 44.43696 ], [ 9.134362, 44.437032 ], [ 9.134363, 44.437158 ], [ 9.134451, 44.437221 ], [ 9.134451, 44.437297 ], [ 9.134363, 44.43736 ], [ 9.134364, 44.437738 ], [ 9.133662, 44.438306 ], [ 9.133662, 44.438368 ], [ 9.133387, 44.438631 ], [ 9.132946, 44.438632 ], [ 9.13277, 44.438758 ], [ 9.132597, 44.438758 ] ] ] } },
{ "type": "Feature", "properties": { "torre_id": "265", "tramo": "000-QUAR-274", "ancho_m": 3.5, "longitud_m": 133.9, "via_osm_id": 1484324686, "via_tipo": "trunk", "via_superficie": "asphalt", "estado": "PRELIMINAR_REVISAR" }, "geometry": { "type": "Polygon", "coordinates": [ [ [ 9.13067, 44.438058 ], [ 9.130671, 44.43824 ], [ 9.130627, 44.43824 ], [ 9.130626, 44.438045 ], [ 9.130978, 44.437792 ], [ 9.130977, 44.437731 ], [ 9.131153, 44.437542 ], [ 9.131153, 44.437416 ], [ 9.131329, 44.437203 ], [ 9.131367, 44.437219 ], [ 9.131197, 44.437425 ], [ 9.131197, 44.437551 ], [ 9.131021, 44.437741 ], [ 9.131022, 44.437805 ], [ 9.13067, 44.438058 ] ] ] } },
{ "type": "Feature", "properties": { "torre_id": "266", "tramo": "000-QUAR-274", "ancho_m": 3.5, "longitud_m": 66.1, "via_osm_id": 1484324686, "via_tipo": "trunk", "via_superficie": "asphalt", "estado": "PRELIMINAR_REVISAR" }, "geometry": { "type": "Polygon", "coordinates": [ [ [ 9.127927, 44.43744 ], [ 9.127669, 44.437564 ], [ 9.127644, 44.437537 ], [ 9.127914, 44.437408 ], [ 9.128087, 44.437408 ], [ 9.128153, 44.437361 ], [ 9.128071, 44.437302 ], [ 9.128103, 44.437233 ], [ 9.128145, 44.437243 ], [ 9.128121, 44.437294 ], [ 9.128215, 44.437361 ], [ 9.128105, 44.43744 ], [ 9.127927, 44.43744 ] ] ] } },
{ "type": "Feature", "properties": { "torre_id": "267", "tramo": "000-QUAR-274", "ancho_m": 3.5, "longitud_m": 44.0, "via_osm_id": 819370863, "via_tipo": "tertiary", "via_superficie": "asphalt", "estado": "PRELIMINAR_REVISAR" }, "geometry": { "type": "Polygon", "coordinates": [ [ [ 9.126712, 44.438175 ], [ 9.126713, 44.438497 ], [ 9.126669, 44.438497 ], [ 9.126668, 44.438188 ], [ 9.126595, 44.438136 ], [ 9.126626, 44.438114 ], [ 9.126712, 44.438175 ] ] ] } },
{ "type": "Feature", "properties": { "torre_id": "268", "tramo": "000-QUAR-274", "ancho_m": 3.5, "longitud_m": 27.0, "via_osm_id": 1247675001, "via_tipo": "tertiary", "via_superficie": "asphalt", "estado": "PRELIMINAR_REVISAR" }, "geometry": { "type": "Polygon", "coordinates": [ [ [ 9.123914, 44.437939 ], [ 9.123972, 44.43798 ], [ 9.124139, 44.43798 ], [ 9.124139, 44.438011 ], [ 9.123954, 44.438012 ], [ 9.123824, 44.437918 ], [ 9.123913, 44.437916 ], [ 9.123914, 44.437939 ] ] ] } },
{ "type": "Feature", "properties": { "torre_id": "269", "tramo": "000-QUAR-274", "ancho_m": 3.5, "longitud_m": 70.1, "via_osm_id": 1415200281, "via_tipo": "trunk", "via_superficie": "asphalt", "estado": "PRELIMINAR_REVISAR" }, "geometry": { "type": "Polygon", "coordinates": [ [ [ 9.121829, 44.437298 ], [ 9.121828, 44.437116 ], [ 9.121872, 44.437116 ], [ 9.121873, 44.437311 ], [ 9.121785, 44.437374 ], [ 9.121785, 44.437424 ], [ 9.121948, 44.437541 ], [ 9.122053, 44.437541 ], [ 9.122039, 44.437607 ], [ 9.121995, 44.437602 ], [ 9.122002, 44.437573 ], [ 9.12193, 44.437573 ], [ 9.121741, 44.437438 ], [ 9.121741, 44.437361 ], [ 9.121829, 44.437298 ] ] ] } },
{ "type": "Feature", "properties": { "torre_id": "270", "tramo": "000-QUAR-274", "ancho_m": 3.5, "longitud_m": 166.0, "via_osm_id": 1247674998, "via_tipo": "tertiary", "via_superficie": "asphalt", "estado": "PRELIMINAR_REVISAR" }, "geometry": { "type": "Polygon", "coordinates": [ [ [ 9.118973, 44.438575 ], [ 9.118615, 44.438832 ], [ 9.118584, 44.43881 ], [ 9.118929, 44.438562 ], [ 9.118928, 44.438436 ], [ 9.119114, 44.438302 ], [ 9.119378, 44.438239 ], [ 9.119631, 44.438057 ], [ 9.119631, 44.437944 ], [ 9.119542, 44.43788 ], [ 9.119564, 44.437722 ], [ 9.119608, 44.437725 ], [ 9.119588, 44.437869 ], [ 9.119675, 44.437931 ], [ 9.119675, 44.43807 ], [ 9.119402, 44.438266 ], [ 9.119138, 44.43833 ], [ 9.118972, 44.438449 ], [ 9.118973, 44.438575 ] ] ] } },
{ "type": "Feature", "properties": { "torre_id": "271", "tramo": "000-QUAR-274", "ancho_m": 3.5, "longitud_m": 9.8, "via_osm_id": 1247674997, "via_tipo": "tertiary", "via_superficie": "asphalt", "estado": "PRELIMINAR_REVISAR" }, "geometry": { "type": "Polygon", "coordinates": [ [ [ 9.116606, 44.437854 ], [ 9.116596, 44.437942 ], [ 9.116553, 44.437939 ], [ 9.116563, 44.437852 ], [ 9.116606, 44.437854 ] ] ] } },
{ "type": "Feature", "properties": { "torre_id": "272", "tramo": "000-QUAR-274", "ancho_m": 3.5, "longitud_m": 58.1, "via_osm_id": 1247674997, "via_tipo": "tertiary", "via_superficie": "asphalt", "estado": "PRELIMINAR_REVISAR" }, "geometry": { "type": "Polygon", "coordinates": [ [ [ 9.115553, 44.437896 ], [ 9.115584, 44.437374 ], [ 9.115628, 44.437375 ], [ 9.115597, 44.437897 ], [ 9.115553, 44.437896 ] ] ] } },
{ "type": "Feature", "properties": { "torre_id": "273", "tramo": "000-QUAR-274", "ancho_m": 3.5, "longitud_m": 127.5, "via_osm_id": 1456375149, "via_tipo": "tertiary", "via_superficie": "asphalt", "estado": "PRELIMINAR_REVISAR" }, "geometry": { "type": "Polygon", "coordinates": [ [ [ 9.111265, 44.437505 ], [ 9.111456, 44.437367 ], [ 9.111487, 44.43739 ], [ 9.111327, 44.437505 ], [ 9.111393, 44.437552 ], [ 9.111745, 44.437551 ], [ 9.111853, 44.437629 ], [ 9.111583, 44.437888 ], [ 9.111583, 44.438001 ], [ 9.111685, 44.438054 ], [ 9.111659, 44.43808 ], [ 9.111539, 44.438017 ], [ 9.111539, 44.437877 ], [ 9.111795, 44.437632 ], [ 9.111727, 44.437583 ], [ 9.111375, 44.437583 ], [ 9.111265, 44.437505 ] ] ] } },
{ "type": "Feature", "properties": { "torre_id": "274", "tramo": "000-QUAR-274", "ancho_m": 3.5, "longitud_m": 138.8, "via_osm_id": 9218637, "via_tipo": "trunk", "via_superficie": "asphalt", "estado": "PRELIMINAR_REVISAR" }, "geometry": { "type": "Polygon", "coordinates": [ [ [ 9.107755, 44.437326 ], [ 9.107674, 44.437267 ], [ 9.107705, 44.437245 ], [ 9.107799, 44.437312 ], [ 9.1078, 44.437438 ], [ 9.107888, 44.437501 ], [ 9.107888, 44.43769 ], [ 9.107976, 44.437753 ], [ 9.107977, 44.438195 ], [ 9.108065, 44.438257 ], [ 9.108076, 44.4384 ], [ 9.108032, 44.438401 ], [ 9.108022, 44.438271 ], [ 9.107933, 44.438208 ], [ 9.107932, 44.437767 ], [ 9.107844, 44.437704 ], [ 9.107844, 44.437515 ], [ 9.107756, 44.437452 ], [ 9.107755, 44.437326 ] ] ] } },
{ "type": "Feature", "properties": { "torre_id": "275", "tramo": "274-327", "ancho_m": 3.5, "longitud_m": 53.7, "via_osm_id": 52448090, "via_tipo": "unclassified", "via_superficie": "asphalt", "estado": "PRELIMINAR_REVISAR" }, "geometry": { "type": "Polygon", "coordinates": [ [ [ 9.107186, 44.438776 ], [ 9.107187, 44.438895 ], [ 9.107143, 44.438895 ], [ 9.107142, 44.438763 ], [ 9.10723, 44.438699 ], [ 9.10723, 44.438649 ], [ 9.107041, 44.438504 ], [ 9.107073, 44.438482 ], [ 9.107274, 44.438637 ], [ 9.107274, 44.438712 ], [ 9.107186, 44.438776 ] ] ] } },
{ "type": "Feature", "properties": { "torre_id": "276", "tramo": "274-327", "ancho_m": 3.5, "longitud_m": 14.4, "via_osm_id": 819361057, "via_tipo": "tertiary", "via_superficie": "asphalt", "estado": "PRELIMINAR_REVISAR" }, "geometry": { "type": "Polygon", "coordinates": [ [ [ 9.105587, 44.438641 ], [ 9.105408, 44.43866 ], [ 9.105402, 44.438629 ], [ 9.105581, 44.43861 ], [ 9.105587, 44.438641 ] ] ] } },
{ "type": "Feature", "properties": { "torre_id": "277", "tramo": "274-327", "ancho_m": 3.5, "longitud_m": 27.2, "via_osm_id": 9218637, "via_tipo": "trunk", "via_superficie": "asphalt", "estado": "PRELIMINAR_REVISAR" }, "geometry": { "type": "Polygon", "coordinates": [ [ [ 9.103184, 44.438779 ], [ 9.103184, 44.43871 ], [ 9.103228, 44.43871 ], [ 9.103228, 44.438766 ], [ 9.103302, 44.438819 ], [ 9.103421, 44.43881 ], [ 9.103426, 44.438842 ], [ 9.103286, 44.438852 ], [ 9.103184, 44.438779 ] ] ] } },
{ "type": "Feature", "properties": { "torre_id": "278", "tramo": "274-327", "ancho_m": 3.5, "longitud_m": 27.4, "via_osm_id": 9218637, "via_tipo": "trunk", "via_superficie": "asphalt", "estado": "PRELIMINAR_REVISAR" }, "geometry": { "type": "Polygon", "coordinates": [ [ [ 9.100863, 44.439342 ], [ 9.100936, 44.439394 ], [ 9.100905, 44.439416 ], [ 9.100801, 44.439342 ], [ 9.100897, 44.439273 ], [ 9.100891, 44.439212 ], [ 9.100935, 44.43921 ], [ 9.100943, 44.439285 ], [ 9.100863, 44.439342 ] ] ] } },
{ "type": "Feature", "properties": { "torre_id": "279", "tramo": "274-327", "ancho_m": 3.5, "longitud_m": 73.7, "via_osm_id": 9218637, "via_tipo": "trunk", "via_superficie": "asphalt", "estado": "PRELIMINAR_REVISAR" }, "geometry": { "type": "Polygon", "coordinates": [ [ [ 9.09936, 44.439778 ], [ 9.09936, 44.43991 ], [ 9.099316, 44.43991 ], [ 9.099316, 44.439791 ], [ 9.098954, 44.439533 ], [ 9.099064, 44.439454 ], [ 9.099202, 44.439457 ], [ 9.099201, 44.439488 ], [ 9.099082, 44.439486 ], [ 9.099016, 44.439533 ], [ 9.09936, 44.439778 ] ] ] } },
{ "type": "Feature", "properties": { "torre_id": "280", "tramo": "274-327", "ancho_m": 3.5, "longitud_m": 176.0, "via_osm_id": 9218637, "via_tipo": "trunk", "via_superficie": "asphalt", "estado": "PRELIMINAR_REVISAR" }, "geometry": { "type": "Polygon", "coordinates": [ [ [ 9.094485, 44.440193 ], [ 9.094259, 44.440301 ], [ 9.094259, 44.440414 ], [ 9.094435, 44.440603 ], [ 9.094435, 44.440664 ], [ 9.094787, 44.440916 ], [ 9.094788, 44.441055 ], [ 9.0947, 44.441118 ], [ 9.0947, 44.441357 ], [ 9.094782, 44.441416 ], [ 9.094751, 44.441438 ], [ 9.094656, 44.44137 ], [ 9.094656, 44.441105 ], [ 9.094744, 44.441042 ], [ 9.094743, 44.440929 ], [ 9.094391, 44.440677 ], [ 9.094391, 44.440613 ], [ 9.094215, 44.440424 ], [ 9.094215, 44.440284 ], [ 9.09453, 44.440134 ], [ 9.094516, 44.440197 ], [ 9.094485, 44.440193 ] ] ] } },
{ "type": "Feature", "properties": { "torre_id": "281", "tramo": "274-327", "ancho_m": 3.5, "longitud_m": 200.0, "via_osm_id": 9218637, "via_tipo": "trunk", "via_superficie": "asphalt", "estado": "PRELIMINAR_REVISAR" }, "geometry": { "type": "Polygon", "coordinates": [ [ [ 9.093997, 44.441421 ], [ 9.093997, 44.44168 ], [ 9.093953, 44.44168 ], [ 9.093953, 44.441434 ], [ 9.093349, 44.441003 ], [ 9.093258, 44.441003 ], [ 9.093082, 44.440814 ], [ 9.092997, 44.440814 ], [ 9.09272, 44.440616 ], [ 9.092719, 44.440402 ], [ 9.092903, 44.440421 ], [ 9.092897, 44.440452 ], [ 9.092763, 44.440438 ], [ 9.092764, 44.440603 ], [ 9.093015, 44.440782 ], [ 9.093106, 44.440782 ], [ 9.093282, 44.440971 ], [ 9.093367, 44.440971 ], [ 9.093997, 44.441421 ] ] ] } },
{ "type": "Feature", "properties": { "torre_id": "282", "tramo": "274-327", "ancho_m": 3.5, "longitud_m": 207.4, "via_osm_id": 307286338, "via_tipo": "primary", "via_superficie": "asphalt", "estado": "PRELIMINAR_REVISAR" }, "geometry": { "type": "Polygon", "coordinates": [ [ [ 9.09058, 44.440784 ], [ 9.09064, 44.440784 ], [ 9.091005, 44.441045 ], [ 9.091005, 44.441184 ], [ 9.090917, 44.441247 ], [ 9.090918, 44.44131 ], [ 9.090654, 44.4415 ], [ 9.090654, 44.441626 ], [ 9.090566, 44.441689 ], [ 9.090567, 44.441865 ], [ 9.090655, 44.441928 ], [ 9.090655, 44.442312 ], [ 9.090611, 44.442312 ], [ 9.090611, 44.441941 ], [ 9.090523, 44.441878 ], [ 9.090522, 44.441676 ], [ 9.09061, 44.441613 ], [ 9.09061, 44.441487 ], [ 9.090874, 44.441297 ], [ 9.090873, 44.441234 ], [ 9.090961, 44.441171 ], [ 9.090961, 44.441058 ], [ 9.090622, 44.440816 ], [ 9.09044, 44.440816 ], [ 9.090573, 44.440773 ], [ 9.09058, 44.440784 ] ] ] } },
{ "type": "Feature", "properties": { "torre_id": "283", "tramo": "274-327", "ancho_m": 3.5, "longitud_m": 89.7, "via_osm_id": 307286338, "via_tipo": "primary", "via_superficie": "asphalt", "estado": "PRELIMINAR_REVISAR" }, "geometry": { "type": "Polygon", "coordinates": [ [ [ 9.088192, 44.44188 ], [ 9.088097, 44.441947 ], [ 9.088066, 44.441925 ], [ 9.088148, 44.441867 ], [ 9.088147, 44.441311 ], [ 9.088037, 44.441187 ], [ 9.088075, 44.44117 ], [ 9.088191, 44.441301 ], [ 9.088192, 44.44188 ] ] ] } },
{ "type": "Feature", "properties": { "torre_id": "284", "tramo": "274-327", "ancho_m": 3.5, "longitud_m": 20.3, "via_osm_id": 307286338, "via_tipo": "primary", "via_superficie": "asphalt", "estado": "PRELIMINAR_REVISAR" }, "geometry": { "type": "Polygon", "coordinates": [ [ [ 9.086715, 44.441399 ], [ 9.086511, 44.441509 ], [ 9.086484, 44.441484 ], [ 9.086688, 44.441374 ], [ 9.086715, 44.441399 ] ] ] } },
{ "type": "Feature", "properties": { "torre_id": "285", "tramo": "274-327", "ancho_m": 3.5, "longitud_m": 43.1, "via_osm_id": 587738312, "via_tipo": "primary", "via_superficie": "asphalt", "estado": "PRELIMINAR_REVISAR" }, "geometry": { "type": "Polygon", "coordinates": [ [ [ 9.085686, 44.441528 ], [ 9.086041, 44.441234 ], [ 9.086074, 44.441255 ], [ 9.08572, 44.441549 ], [ 9.085686, 44.441528 ] ] ] } },
{ "type": "Feature", "properties": { "torre_id": "286", "tramo": "274-327", "ancho_m": 3.5, "longitud_m": 203.2, "via_osm_id": 1447244000, "via_tipo": "secondary", "via_superficie": "asphalt", "estado": "PRELIMINAR_REVISAR" }, "geometry": { "type": "Polygon", "coordinates": [ [ [ 9.079648, 44.443471 ], [ 9.079551, 44.443471 ], [ 9.079551, 44.443439 ], [ 9.07963, 44.443439 ], [ 9.079793, 44.443322 ], [ 9.079793, 44.443257 ], [ 9.08006, 44.443129 ], [ 9.080147, 44.442942 ], [ 9.081224, 44.442169 ], [ 9.081262, 44.442209 ], [ 9.081225, 44.442227 ], [ 9.081217, 44.442218 ], [ 9.080185, 44.442959 ], [ 9.080097, 44.44315 ], [ 9.079837, 44.443274 ], [ 9.079837, 44.443335 ], [ 9.079648, 44.443471 ] ] ] } },
{ "type": "Feature", "properties": { "torre_id": "287", "tramo": "274-327", "ancho_m": 3.5, "longitud_m": 83.6, "via_osm_id": 1447244000, "via_tipo": "secondary", "via_superficie": "asphalt", "estado": "PRELIMINAR_REVISAR" }, "geometry": { "type": "Polygon", "coordinates": [ [ [ 9.079133, 44.442945 ], [ 9.079133, 44.443203 ], [ 9.079089, 44.443203 ], [ 9.079089, 44.442958 ], [ 9.078819, 44.442765 ], [ 9.078992, 44.442553 ], [ 9.07903, 44.442569 ], [ 9.078874, 44.44276 ], [ 9.079133, 44.442945 ] ] ] } },
{ "type": "Feature", "properties": { "torre_id": "288", "tramo": "274-327", "ancho_m": 3.5, "longitud_m": 100.0, "via_osm_id": 1447243999, "via_tipo": "secondary", "via_superficie": "asphalt", "estado": "PRELIMINAR_REVISAR" }, "geometry": { "type": "Polygon", "coordinates": [ [ [ 9.075088, 44.444082 ], [ 9.075088, 44.444277 ], [ 9.075044, 44.444277 ], [ 9.075044, 44.444095 ], [ 9.074955, 44.444032 ], [ 9.074955, 44.443717 ], [ 9.074867, 44.443654 ], [ 9.074865, 44.44343 ], [ 9.074909, 44.44343 ], [ 9.074911, 44.443641 ], [ 9.074999, 44.443704 ], [ 9.074999, 44.444019 ], [ 9.075088, 44.444082 ] ] ] } },
{ "type": "Feature", "properties": { "torre_id": "289", "tramo": "274-327", "ancho_m": 3.5, "longitud_m": 100.5, "via_osm_id": 1447243999, "via_tipo": "secondary", "via_superficie": "asphalt", "estado": "PRELIMINAR_REVISAR" }, "geometry": { "type": "Polygon", "coordinates": [ [ [ 9.072185, 44.444463 ], [ 9.072445, 44.444711 ], [ 9.07241, 44.44473 ], [ 9.072141, 44.444474 ], [ 9.072141, 44.444336 ], [ 9.072229, 44.444273 ], [ 9.072229, 44.444084 ], [ 9.072316, 44.44402 ], [ 9.072316, 44.443987 ], [ 9.072303, 44.44399 ], [ 9.072287, 44.443961 ], [ 9.07236, 44.443941 ], [ 9.07236, 44.444034 ], [ 9.072273, 44.444097 ], [ 9.072273, 44.444286 ], [ 9.072185, 44.444349 ], [ 9.072185, 44.444463 ] ] ] } },
{ "type": "Feature", "properties": { "torre_id": "290", "tramo": "274-327", "ancho_m": 3.5, "longitud_m": 181.0, "via_osm_id": 1447243999, "via_tipo": "secondary", "via_superficie": "asphalt", "estado": "PRELIMINAR_REVISAR" }, "geometry": { "type": "Polygon", "coordinates": [ [ [ 9.07069, 44.444967 ], [ 9.07069, 44.445162 ], [ 9.070646, 44.445162 ], [ 9.070646, 44.44498 ], [ 9.070571, 44.444926 ], [ 9.069885, 44.444927 ], [ 9.069611, 44.445124 ], [ 9.069238, 44.44479 ], [ 9.069263, 44.444608 ], [ 9.069307, 44.444611 ], [ 9.069283, 44.44478 ], [ 9.069614, 44.445076 ], [ 9.069867, 44.444895 ], [ 9.070589, 44.444895 ], [ 9.07069, 44.444967 ] ] ] } },
{ "type": "Feature", "properties": { "torre_id": "291", "tramo": "274-327", "ancho_m": 3.5, "longitud_m": 244.3, "via_osm_id": 1447243999, "via_tipo": "secondary", "via_superficie": "asphalt", "estado": "PRELIMINAR_REVISAR" }, "geometry": { "type": "Polygon", "coordinates": [ [ [ 9.07069, 44.444967 ], [ 9.07069, 44.445162 ], [ 9.070646, 44.445162 ], [ 9.070646, 44.44498 ], [ 9.070571, 44.444926 ], [ 9.069885, 44.444927 ], [ 9.069613, 44.445122 ], [ 9.069415, 44.444981 ], [ 9.069415, 44.444919 ], [ 9.069077, 44.444738 ], [ 9.06837, 44.444738 ], [ 9.068285, 44.444664 ], [ 9.068319, 44.444644 ], [ 9.068391, 44.444707 ], [ 9.069092, 44.444706 ], [ 9.069458, 44.444903 ], [ 9.069459, 44.444968 ], [ 9.069613, 44.445078 ], [ 9.069867, 44.444895 ], [ 9.070589, 44.444895 ], [ 9.07069, 44.444967 ] ] ] } },
{ "type": "Feature", "properties": { "torre_id": "292", "tramo": "274-327", "ancho_m": 3.5, "longitud_m": 103.0, "via_osm_id": 1447243998, "via_tipo": "secondary", "via_superficie": "asphalt", "estado": "PRELIMINAR_REVISAR" }, "geometry": { "type": "Polygon", "coordinates": [ [ [ 9.064181, 44.445551 ], [ 9.064181, 44.44567 ], [ 9.064137, 44.44567 ], [ 9.064137, 44.445538 ], [ 9.064313, 44.445412 ], [ 9.064313, 44.445223 ], [ 9.064401, 44.44516 ], [ 9.064401, 44.444821 ], [ 9.064445, 44.444821 ], [ 9.064444, 44.445173 ], [ 9.064357, 44.445236 ], [ 9.064357, 44.445425 ], [ 9.064181, 44.445551 ] ] ] } },
{ "type": "Feature", "properties": { "torre_id": "293", "tramo": "274-327", "ancho_m": 3.5, "longitud_m": 29.4, "via_osm_id": 1447243998, "via_tipo": "secondary", "via_superficie": "asphalt", "estado": "PRELIMINAR_REVISAR" }, "geometry": { "type": "Polygon", "coordinates": [ [ [ 9.061516, 44.444966 ], [ 9.061541, 44.44523 ], [ 9.061498, 44.445232 ], [ 9.061472, 44.444968 ], [ 9.061516, 44.444966 ] ] ] } },
{ "type": "Feature", "properties": { "torre_id": "294", "tramo": "274-327", "ancho_m": 3.5, "longitud_m": 51.0, "via_osm_id": 1447243998, "via_tipo": "secondary", "via_superficie": "asphalt", "estado": "PRELIMINAR_REVISAR" }, "geometry": { "type": "Polygon", "coordinates": [ [ [ 9.059607, 44.445729 ], [ 9.059688, 44.445788 ], [ 9.059657, 44.44581 ], [ 9.059563, 44.445742 ], [ 9.059563, 44.445616 ], [ 9.059349, 44.445433 ], [ 9.059383, 44.445413 ], [ 9.059607, 44.445604 ], [ 9.059607, 44.445729 ] ] ] } },
{ "type": "Feature", "properties": { "torre_id": "295", "tramo": "274-327", "ancho_m": 3.5, "longitud_m": 128.4, "via_osm_id": 1447243998, "via_tipo": "secondary", "via_superficie": "asphalt", "estado": "PRELIMINAR_REVISAR" }, "geometry": { "type": "Polygon", "coordinates": [ [ [ 9.057514, 44.445879 ], [ 9.057514, 44.44588 ], [ 9.057363, 44.445875 ], [ 9.057364, 44.445847 ], [ 9.057746, 44.445847 ], [ 9.058721, 44.446481 ], [ 9.058691, 44.446504 ], [ 9.057729, 44.445879 ], [ 9.057514, 44.445879 ] ] ] } },
{ "type": "Feature", "properties": { "torre_id": "296", "tramo": "274-327", "ancho_m": 3.5, "longitud_m": 36.5, "via_osm_id": 1499686368, "via_tipo": "secondary", "via_superficie": "asphalt", "estado": "PRELIMINAR_REVISAR" }, "geometry": { "type": "Polygon", "coordinates": [ [ [ 9.054823, 44.446481 ], [ 9.054995, 44.446357 ], [ 9.055026, 44.44638 ], [ 9.054847, 44.446508 ], [ 9.054648, 44.446565 ], [ 9.054632, 44.446536 ], [ 9.054823, 44.446481 ] ] ] } },
{ "type": "Feature", "properties": { "torre_id": "297", "tramo": "274-327", "ancho_m": 3.5, "longitud_m": 746.3, "via_osm_id": 79634617, "via_tipo": "secondary", "via_superficie": "asphalt", "estado": "PRELIMINAR_REVISAR" }, "geometry": { "type": "Polygon", "coordinates": [ [ [ 9.048126, 44.444665 ], [ 9.048305, 44.444472 ], [ 9.048342, 44.44449 ], [ 9.04817, 44.444675 ], [ 9.04817, 44.444929 ], [ 9.048069, 44.445001 ], [ 9.047963, 44.445001 ], [ 9.047875, 44.444938 ], [ 9.047277, 44.444938 ], [ 9.047189, 44.445001 ], [ 9.047083, 44.445001 ], [ 9.046995, 44.444938 ], [ 9.046837, 44.444938 ], [ 9.046586, 44.445118 ], [ 9.046587, 44.445357 ], [ 9.046675, 44.44542 ], [ 9.046675, 44.445548 ], [ 9.046939, 44.4458 ], [ 9.046939, 44.445926 ], [ 9.047115, 44.446115 ], [ 9.047115, 44.446302 ], [ 9.04719, 44.446356 ], [ 9.047368, 44.446356 ], [ 9.047643, 44.446619 ], [ 9.047643, 44.44668 ], [ 9.047731, 44.446743 ], [ 9.047731, 44.446871 ], [ 9.047908, 44.44706 ], [ 9.047908, 44.447184 ], [ 9.048159, 44.447364 ], [ 9.048245, 44.447364 ], [ 9.048597, 44.447553 ], [ 9.049284, 44.447553 ], [ 9.049374, 44.447488 ], [ 9.049814, 44.447551 ], [ 9.0499, 44.447489 ], [ 9.050604, 44.447489 ], [ 9.050691, 44.447427 ], [ 9.050968, 44.447408 ], [ 9.050972, 44.44744 ], [ 9.050711, 44.447457 ], [ 9.050622, 44.447521 ], [ 9.049918, 44.447521 ], [ 9.049829, 44.447585 ], [ 9.049389, 44.447522 ], [ 9.049303, 44.447584 ], [ 9.048582, 44.447584 ], [ 9.04823, 44.447396 ], [ 9.048141, 44.447396 ], [ 9.047864, 44.447197 ], [ 9.047864, 44.44707 ], [ 9.047688, 44.446881 ], [ 9.047687, 44.446756 ], [ 9.047599, 44.446693 ], [ 9.047599, 44.446629 ], [ 9.047346, 44.446388 ], [ 9.047172, 44.446388 ], [ 9.047071, 44.446315 ], [ 9.047071, 44.446125 ], [ 9.046895, 44.445936 ], [ 9.046895, 44.44581 ], [ 9.046631, 44.445558 ], [ 9.046631, 44.445433 ], [ 9.046543, 44.44537 ], [ 9.046542, 44.445105 ], [ 9.046819, 44.444907 ], [ 9.047013, 44.444907 ], [ 9.047101, 44.44497 ], [ 9.047171, 44.44497 ], [ 9.047259, 44.444907 ], [ 9.047893, 44.444906 ], [ 9.047981, 44.444969 ], [ 9.048051, 44.444969 ], [ 9.048126, 44.444916 ], [ 9.048126, 44.444665 ] ] ] } },
{ "type": "Feature", "properties": { "torre_id": "298", "tramo": "274-327", "ancho_m": 3.5, "longitud_m": 632.9, "via_osm_id": 79634617, "via_tipo": "secondary", "via_superficie": "asphalt", "estado": "PRELIMINAR_REVISAR" }, "geometry": { "type": "Polygon", "coordinates": [ [ [ 9.048126, 44.444665 ], [ 9.048305, 44.444472 ], [ 9.048342, 44.44449 ], [ 9.04817, 44.444675 ], [ 9.04817, 44.444929 ], [ 9.048069, 44.445001 ], [ 9.047963, 44.445001 ], [ 9.047875, 44.444938 ], [ 9.047277, 44.444938 ], [ 9.047189, 44.445001 ], [ 9.047083, 44.445001 ], [ 9.046995, 44.444938 ], [ 9.046837, 44.444938 ], [ 9.046586, 44.445118 ], [ 9.046587, 44.445357 ], [ 9.046675, 44.44542 ], [ 9.046675, 44.445548 ], [ 9.046939, 44.4458 ], [ 9.046939, 44.445926 ], [ 9.047115, 44.446115 ], [ 9.047115, 44.446302 ], [ 9.04719, 44.446356 ], [ 9.047368, 44.446356 ], [ 9.047643, 44.446619 ], [ 9.047643, 44.44668 ], [ 9.047731, 44.446743 ], [ 9.047731, 44.446871 ], [ 9.047908, 44.44706 ], [ 9.047908, 44.447184 ], [ 9.048159, 44.447364 ], [ 9.048245, 44.447364 ], [ 9.048597, 44.447553 ], [ 9.049318, 44.447553 ], [ 9.049283, 44.447834 ], [ 9.049239, 44.447832 ], [ 9.04927, 44.447584 ], [ 9.048582, 44.447584 ], [ 9.04823, 44.447396 ], [ 9.048141, 44.447396 ], [ 9.047864, 44.447197 ], [ 9.047864, 44.44707 ], [ 9.047688, 44.446881 ], [ 9.047687, 44.446756 ], [ 9.047599, 44.446693 ], [ 9.047599, 44.446629 ], [ 9.047346, 44.446388 ], [ 9.047172, 44.446388 ], [ 9.047071, 44.446315 ], [ 9.047071, 44.446125 ], [ 9.046895, 44.445936 ], [ 9.046895, 44.44581 ], [ 9.046631, 44.445558 ], [ 9.046631, 44.445433 ], [ 9.046543, 44.44537 ], [ 9.046542, 44.445105 ], [ 9.046819, 44.444907 ], [ 9.047013, 44.444907 ], [ 9.047101, 44.44497 ], [ 9.047171, 44.44497 ], [ 9.047259, 44.444907 ], [ 9.047893, 44.444906 ], [ 9.047981, 44.444969 ], [ 9.048051, 44.444969 ], [ 9.048126, 44.444916 ], [ 9.048126, 44.444665 ] ] ] } },
{ "type": "Feature", "properties": { "torre_id": "299", "tramo": "274-327", "ancho_m": 3.5, "longitud_m": 628.3, "via_osm_id": 79634617, "via_tipo": "secondary", "via_superficie": "asphalt", "estado": "PRELIMINAR_REVISAR" }, "geometry": { "type": "Polygon", "coordinates": [ [ [ 9.048126, 44.444665 ], [ 9.048305, 44.444472 ], [ 9.048342, 44.44449 ], [ 9.04817, 44.444675 ], [ 9.04817, 44.444929 ], [ 9.048069, 44.445001 ], [ 9.047963, 44.445001 ], [ 9.047875, 44.444938 ], [ 9.047277, 44.444938 ], [ 9.047189, 44.445001 ], [ 9.047083, 44.445001 ], [ 9.046995, 44.444938 ], [ 9.046837, 44.444938 ], [ 9.046586, 44.445118 ], [ 9.046587, 44.445357 ], [ 9.046675, 44.44542 ], [ 9.046675, 44.445548 ], [ 9.046939, 44.4458 ], [ 9.046939, 44.445926 ], [ 9.047115, 44.446115 ], [ 9.047115, 44.446302 ], [ 9.04719, 44.446356 ], [ 9.047368, 44.446356 ], [ 9.047643, 44.446619 ], [ 9.047643, 44.44668 ], [ 9.047731, 44.446743 ], [ 9.047731, 44.446871 ], [ 9.047908, 44.44706 ], [ 9.047908, 44.447184 ], [ 9.048159, 44.447364 ], [ 9.048245, 44.447364 ], [ 9.048612, 44.447561 ], [ 9.048612, 44.44789 ], [ 9.048436, 44.448016 ], [ 9.048436, 44.448187 ], [ 9.048482, 44.448196 ], [ 9.048471, 44.448226 ], [ 9.048392, 44.448211 ], [ 9.048392, 44.448003 ], [ 9.048568, 44.447877 ], [ 9.048568, 44.447577 ], [ 9.04823, 44.447396 ], [ 9.048141, 44.447396 ], [ 9.047864, 44.447197 ], [ 9.047864, 44.44707 ], [ 9.047688, 44.446881 ], [ 9.047687, 44.446756 ], [ 9.047599, 44.446693 ], [ 9.047599, 44.446629 ], [ 9.047346, 44.446388 ], [ 9.047172, 44.446388 ], [ 9.047071, 44.446315 ], [ 9.047071, 44.446125 ], [ 9.046895, 44.445936 ], [ 9.046895, 44.44581 ], [ 9.046631, 44.445558 ], [ 9.046631, 44.445433 ], [ 9.046543, 44.44537 ], [ 9.046542, 44.445105 ], [ 9.046819, 44.444907 ], [ 9.047013, 44.444907 ], [ 9.047101, 44.44497 ], [ 9.047171, 44.44497 ], [ 9.047259, 44.444907 ], [ 9.047893, 44.444906 ], [ 9.047981, 44.444969 ], [ 9.048051, 44.444969 ], [ 9.048126, 44.444916 ], [ 9.048126, 44.444665 ] ] ] } },
{ "type": "Feature", "properties": { "torre_id": "300", "tramo": "274-327", "ancho_m": 3.5, "longitud_m": 325.9, "via_osm_id": 1523963816, "via_tipo": "residential", "via_superficie": "", "estado": "PRELIMINAR_REVISAR" }, "geometry": { "type": "Polygon", "coordinates": [ [ [ 9.043952, 44.451295 ], [ 9.043858, 44.451363 ], [ 9.043826, 44.451341 ], [ 9.043908, 44.451282 ], [ 9.043908, 44.450854 ], [ 9.04382, 44.450791 ], [ 9.04382, 44.450715 ], [ 9.045061, 44.449888 ], [ 9.045325, 44.449825 ], [ 9.045588, 44.449636 ], [ 9.045852, 44.449573 ], [ 9.046018, 44.449454 ], [ 9.046018, 44.449389 ], [ 9.046189, 44.449305 ], [ 9.046214, 44.449331 ], [ 9.046062, 44.449406 ], [ 9.046062, 44.449467 ], [ 9.045876, 44.4496 ], [ 9.045612, 44.449663 ], [ 9.045348, 44.449852 ], [ 9.045084, 44.449916 ], [ 9.043864, 44.450728 ], [ 9.043864, 44.450778 ], [ 9.043952, 44.450841 ], [ 9.043952, 44.451295 ] ] ] } },
{ "type": "Feature", "properties": { "torre_id": "301", "tramo": "274-327", "ancho_m": 3.5, "longitud_m": 110.0, "via_osm_id": 1523963816, "via_tipo": "residential", "via_superficie": "", "estado": "PRELIMINAR_REVISAR" }, "geometry": { "type": "Polygon", "coordinates": [ [ [ 9.043703, 44.450517 ], [ 9.043775, 44.450517 ], [ 9.043775, 44.450589 ], [ 9.043864, 44.450652 ], [ 9.043864, 44.450778 ], [ 9.043952, 44.450841 ], [ 9.043952, 44.451295 ], [ 9.043858, 44.451363 ], [ 9.043826, 44.451341 ], [ 9.043908, 44.451282 ], [ 9.043908, 44.450854 ], [ 9.04382, 44.450791 ], [ 9.04382, 44.450665 ], [ 9.043732, 44.450602 ], [ 9.043731, 44.450548 ], [ 9.043557, 44.450548 ], [ 9.043555, 44.450536 ], [ 9.043701, 44.45051 ], [ 9.043703, 44.450517 ] ] ] } },
{ "type": "Feature", "properties": { "torre_id": "302", "tramo": "274-327", "ancho_m": 3.5, "longitud_m": 14.0, "via_osm_id": 503849278, "via_tipo": "secondary", "via_superficie": "asphalt", "estado": "PRELIMINAR_REVISAR" }, "geometry": { "type": "Polygon", "coordinates": [ [ [ 9.040408, 44.452138 ], [ 9.040233, 44.452125 ], [ 9.040238, 44.452094 ], [ 9.040413, 44.452107 ], [ 9.040408, 44.452138 ] ] ] } },
{ "type": "Feature", "properties": { "torre_id": "303", "tramo": "274-327", "ancho_m": 3.5, "longitud_m": 49.5, "via_osm_id": 503849278, "via_tipo": "secondary", "via_superficie": "asphalt", "estado": "PRELIMINAR_REVISAR" }, "geometry": { "type": "Polygon", "coordinates": [ [ [ 9.039438, 44.452336 ], [ 9.04006, 44.452346 ], [ 9.040059, 44.452377 ], [ 9.039437, 44.452368 ], [ 9.039438, 44.452336 ] ] ] } },
{ "type": "Feature", "properties": { "torre_id": "304", "tramo": "274-327", "ancho_m": 3.5, "longitud_m": 3.4, "via_osm_id": 503849277, "via_tipo": "secondary", "via_superficie": "asphalt", "estado": "PRELIMINAR_REVISAR" }, "geometry": { "type": "Polygon", "coordinates": [ [ [ 9.038234, 44.452617 ], [ 9.038227, 44.452647 ], [ 9.038184, 44.452642 ], [ 9.03819, 44.452612 ], [ 9.038234, 44.452617 ] ] ] } },
{ "type": "Feature", "properties": { "torre_id": "305", "tramo": "274-327", "ancho_m": 3.5, "longitud_m": 185.9, "via_osm_id": 1029577167, "via_tipo": "footway", "via_superficie": "paved", "estado": "PRELIMINAR_REVISAR" }, "geometry": { "type": "Polygon", "coordinates": [ [ [ 9.033087, 44.452496 ], [ 9.032918, 44.452375 ], [ 9.032949, 44.452353 ], [ 9.033131, 44.452483 ], [ 9.033131, 44.452546 ], [ 9.033219, 44.452609 ], [ 9.033219, 44.452735 ], [ 9.033395, 44.452861 ], [ 9.033395, 44.452924 ], [ 9.033823, 44.45323 ], [ 9.033911, 44.45323 ], [ 9.034011, 44.453302 ], [ 9.034012, 44.453608 ], [ 9.034077, 44.453606 ], [ 9.034078, 44.453638 ], [ 9.033968, 44.45364 ], [ 9.033967, 44.453315 ], [ 9.033892, 44.453262 ], [ 9.033804, 44.453262 ], [ 9.033351, 44.452937 ], [ 9.033351, 44.452874 ], [ 9.033175, 44.452748 ], [ 9.033175, 44.452622 ], [ 9.033087, 44.452559 ], [ 9.033087, 44.452496 ] ] ] } },
{ "type": "Feature", "properties": { "torre_id": "306", "tramo": "274-327", "ancho_m": 3.5, "longitud_m": 208.6, "via_osm_id": 1029577167, "via_tipo": "footway", "via_superficie": "paved", "estado": "PRELIMINAR_REVISAR" }, "geometry": { "type": "Polygon", "coordinates": [ [ [ 9.033087, 44.452496 ], [ 9.032918, 44.452375 ], [ 9.032949, 44.452353 ], [ 9.033131, 44.452483 ], [ 9.033131, 44.452546 ], [ 9.033219, 44.452609 ], [ 9.033219, 44.452735 ], [ 9.033395, 44.452861 ], [ 9.033395, 44.453063 ], [ 9.03322, 44.453189 ], [ 9.03322, 44.453566 ], [ 9.032963, 44.453812 ], [ 9.033031, 44.45386 ], [ 9.033074, 44.45386 ], [ 9.033071, 44.453856 ], [ 9.03311, 44.453842 ], [ 9.033146, 44.453892 ], [ 9.033013, 44.453892 ], [ 9.032905, 44.453815 ], [ 9.033176, 44.453556 ], [ 9.033176, 44.453176 ], [ 9.033351, 44.45305 ], [ 9.033351, 44.452874 ], [ 9.033175, 44.452748 ], [ 9.033175, 44.452622 ], [ 9.033087, 44.452559 ], [ 9.033087, 44.452496 ] ] ] } },
{ "type": "Feature", "properties": { "torre_id": "307", "tramo": "274-327", "ancho_m": 3.5, "longitud_m": 263.4, "via_osm_id": 188059899, "via_tipo": "residential", "via_superficie": "", "estado": "PRELIMINAR_REVISAR" }, "geometry": { "type": "Polygon", "coordinates": [ [ [ 9.028544, 44.454775 ], [ 9.028463, 44.454834 ], [ 9.028432, 44.454812 ], [ 9.028526, 44.454744 ], [ 9.028811, 44.454744 ], [ 9.028987, 44.454933 ], [ 9.029054, 44.454933 ], [ 9.029129, 44.454879 ], [ 9.029129, 44.454753 ], [ 9.029217, 44.45469 ], [ 9.029217, 44.454564 ], [ 9.029305, 44.454501 ], [ 9.029305, 44.454312 ], [ 9.029481, 44.454186 ], [ 9.029481, 44.454073 ], [ 9.029384, 44.454003 ], [ 9.029494, 44.453924 ], [ 9.029861, 44.453924 ], [ 9.030126, 44.45405 ], [ 9.030304, 44.454054 ], [ 9.030303, 44.454085 ], [ 9.030112, 44.454082 ], [ 9.029848, 44.453956 ], [ 9.029512, 44.453956 ], [ 9.029446, 44.454003 ], [ 9.029525, 44.45406 ], [ 9.029525, 44.454199 ], [ 9.029349, 44.454325 ], [ 9.029349, 44.454514 ], [ 9.029261, 44.454577 ], [ 9.029261, 44.454703 ], [ 9.029173, 44.454766 ], [ 9.029173, 44.454892 ], [ 9.029072, 44.454964 ], [ 9.028963, 44.454964 ], [ 9.028787, 44.454775 ], [ 9.028544, 44.454775 ] ] ] } },
{ "type": "Feature", "properties": { "torre_id": "308", "tramo": "274-327", "ancho_m": 3.5, "longitud_m": 168.7, "via_osm_id": 188059899, "via_tipo": "residential", "via_superficie": "", "estado": "PRELIMINAR_REVISAR" }, "geometry": { "type": "Polygon", "coordinates": [ [ [ 9.028544, 44.454775 ], [ 9.028463, 44.454834 ], [ 9.028432, 44.454812 ], [ 9.028526, 44.454744 ], [ 9.028808, 44.454744 ], [ 9.028909, 44.454816 ], [ 9.028909, 44.454879 ], [ 9.028984, 44.454933 ], [ 9.029054, 44.454933 ], [ 9.029129, 44.454879 ], [ 9.029129, 44.454753 ], [ 9.029217, 44.45469 ], [ 9.029217, 44.454564 ], [ 9.029305, 44.454501 ], [ 9.029305, 44.454312 ], [ 9.029477, 44.454189 ], [ 9.029455, 44.454153 ], [ 9.029495, 44.454141 ], [ 9.029529, 44.454196 ], [ 9.029349, 44.454325 ], [ 9.029349, 44.454514 ], [ 9.029261, 44.454577 ], [ 9.029261, 44.454703 ], [ 9.029173, 44.454766 ], [ 9.029173, 44.454892 ], [ 9.029072, 44.454964 ], [ 9.028966, 44.454964 ], [ 9.028865, 44.454892 ], [ 9.028865, 44.454829 ], [ 9.02879, 44.454775 ], [ 9.028544, 44.454775 ] ] ] } },
{ "type": "Feature", "properties": { "torre_id": "309", "tramo": "274-327", "ancho_m": 3.5, "longitud_m": 69.4, "via_osm_id": 188059899, "via_tipo": "residential", "via_superficie": "", "estado": "PRELIMINAR_REVISAR" }, "geometry": { "type": "Polygon", "coordinates": [ [ [ 9.027696, 44.454936 ], [ 9.027703, 44.454957 ], [ 9.027602, 44.454974 ], [ 9.027908, 44.454681 ], [ 9.028192, 44.454681 ], [ 9.028287, 44.454749 ], [ 9.028256, 44.454771 ], [ 9.028174, 44.454713 ], [ 9.02793, 44.454713 ], [ 9.027696, 44.454936 ] ] ] } },
{ "type": "Feature", "properties": { "torre_id": "310", "tramo": "274-327", "ancho_m": 3.5, "longitud_m": 6.5, "via_osm_id": 188059897, "via_tipo": "residential", "via_superficie": "", "estado": "PRELIMINAR_REVISAR" }, "geometry": { "type": "Polygon", "coordinates": [ [ [ 9.025998, 44.455675 ], [ 9.026078, 44.45569 ], [ 9.026067, 44.455721 ], [ 9.025987, 44.455706 ], [ 9.025998, 44.455675 ] ] ] } },
{ "type": "Feature", "properties": { "torre_id": "311", "tramo": "274-327", "ancho_m": 3.5, "longitud_m": 3.1, "via_osm_id": 1007176524, "via_tipo": "unclassified", "via_superficie": "asphalt", "estado": "PRELIMINAR_REVISAR" }, "geometry": { "type": "Polygon", "coordinates": [ [ [ 9.023524, 44.456762 ], [ 9.023563, 44.456766 ], [ 9.023556, 44.456797 ], [ 9.023518, 44.456793 ], [ 9.023524, 44.456762 ] ] ] } },
{ "type": "Feature", "properties": { "torre_id": "312", "tramo": "274-327", "ancho_m": 3.5, "longitud_m": 61.6, "via_osm_id": 193956314, "via_tipo": "residential", "via_superficie": "", "estado": "PRELIMINAR_REVISAR" }, "geometry": { "type": "Polygon", "coordinates": [ [ [ 9.020785, 44.458149 ], [ 9.020954, 44.458027 ], [ 9.020985, 44.458049 ], [ 9.020803, 44.45818 ], [ 9.020609, 44.45818 ], [ 9.020529, 44.458123 ], [ 9.020372, 44.458217 ], [ 9.020343, 44.458193 ], [ 9.020531, 44.45808 ], [ 9.020627, 44.458149 ], [ 9.020785, 44.458149 ] ] ] } },
{ "type": "Feature", "properties": { "torre_id": "313", "tramo": "274-327", "ancho_m": 3.5, "longitud_m": 81.5, "via_osm_id": 193956952, "via_tipo": "residential", "via_superficie": "", "estado": "PRELIMINAR_REVISAR" }, "geometry": { "type": "Polygon", "coordinates": [ [ [ 9.019452, 44.458045 ], [ 9.019452, 44.457913 ], [ 9.019496, 44.457913 ], [ 9.019496, 44.458032 ], [ 9.019672, 44.458158 ], [ 9.019672, 44.45836 ], [ 9.019583, 44.458424 ], [ 9.019568, 44.458569 ], [ 9.019524, 44.458566 ], [ 9.019541, 44.45841 ], [ 9.019628, 44.458347 ], [ 9.019628, 44.458171 ], [ 9.019452, 44.458045 ] ] ] } },
{ "type": "Feature", "properties": { "torre_id": "314", "tramo": "274-327", "ancho_m": 3.5, "longitud_m": 105.6, "via_osm_id": 193956952, "via_tipo": "residential", "via_superficie": "", "estado": "PRELIMINAR_REVISAR" }, "geometry": { "type": "Polygon", "coordinates": [ [ [ 9.018891, 44.458559 ], [ 9.018888, 44.458566 ], [ 9.018748, 44.458536 ], [ 9.01875, 44.458527 ], [ 9.018937, 44.458527 ], [ 9.0191, 44.45841 ], [ 9.0191, 44.458149 ], [ 9.019289, 44.458149 ], [ 9.019452, 44.458032 ], [ 9.019452, 44.457913 ], [ 9.019496, 44.457913 ], [ 9.019496, 44.458045 ], [ 9.019307, 44.45818 ], [ 9.019144, 44.45818 ], [ 9.019144, 44.458423 ], [ 9.018955, 44.458559 ], [ 9.018891, 44.458559 ] ] ] } },
{ "type": "Feature", "properties": { "torre_id": "315", "tramo": "274-327", "ancho_m": 3.5, "longitud_m": 305.2, "via_osm_id": 285465176, "via_tipo": "residential", "via_superficie": "", "estado": "PRELIMINAR_REVISAR" }, "geometry": { "type": "Polygon", "coordinates": [ [ [ 9.016988, 44.457465 ], [ 9.01805, 44.456704 ], [ 9.018081, 44.456727 ], [ 9.017032, 44.457478 ], [ 9.017032, 44.457528 ], [ 9.017129, 44.457598 ], [ 9.016755, 44.457866 ], [ 9.016667, 44.457866 ], [ 9.016491, 44.457992 ], [ 9.016403, 44.457992 ], [ 9.015963, 44.458307 ], [ 9.0157, 44.458307 ], [ 9.015537, 44.458423 ], [ 9.015541, 44.458469 ], [ 9.015497, 44.458471 ], [ 9.015492, 44.458411 ], [ 9.015681, 44.458276 ], [ 9.015945, 44.458275 ], [ 9.016385, 44.45796 ], [ 9.016473, 44.45796 ], [ 9.016649, 44.457834 ], [ 9.016737, 44.457834 ], [ 9.017067, 44.457598 ], [ 9.016988, 44.457541 ], [ 9.016988, 44.457465 ] ] ] } },
{ "type": "Feature", "properties": { "torre_id": "316", "tramo": "274-327", "ancho_m": 3.5, "longitud_m": 241.8, "via_osm_id": 9944551, "via_tipo": "secondary", "via_superficie": "asphalt", "estado": "PRELIMINAR_REVISAR" }, "geometry": { "type": "Polygon", "coordinates": [ [ [ 9.012885, 44.45919 ], [ 9.012011, 44.459878 ], [ 9.011979, 44.459857 ], [ 9.012865, 44.459158 ], [ 9.01313, 44.459158 ], [ 9.013293, 44.459041 ], [ 9.013293, 44.458915 ], [ 9.013909, 44.458536 ], [ 9.013909, 44.458489 ], [ 9.013797, 44.45844 ], [ 9.01382, 44.458413 ], [ 9.013953, 44.458472 ], [ 9.013953, 44.458551 ], [ 9.013337, 44.458929 ], [ 9.013337, 44.459054 ], [ 9.013148, 44.45919 ], [ 9.012885, 44.45919 ] ] ] } },
{ "type": "Feature", "properties": { "torre_id": "317", "tramo": "274-327", "ancho_m": 3.5, "longitud_m": 9.8, "via_osm_id": 9944551, "via_tipo": "secondary", "via_superficie": "asphalt", "estado": "PRELIMINAR_REVISAR" }, "geometry": { "type": "Polygon", "coordinates": [ [ [ 9.010224, 44.458347 ], [ 9.010167, 44.458425 ], [ 9.010128, 44.458411 ], [ 9.010185, 44.458332 ], [ 9.010224, 44.458347 ] ] ] } },
{ "type": "Feature", "properties": { "torre_id": "318", "tramo": "274-327", "ancho_m": 3.5, "longitud_m": 121.9, "via_osm_id": 9944551, "via_tipo": "secondary", "via_superficie": "asphalt", "estado": "PRELIMINAR_REVISAR" }, "geometry": { "type": "Polygon", "coordinates": [ [ [ 9.00926, 44.45752 ], [ 9.009355, 44.45752 ], [ 9.009355, 44.457551 ], [ 9.009274, 44.457551 ], [ 9.009025, 44.45767 ], [ 9.009025, 44.457731 ], [ 9.008408, 44.458173 ], [ 9.008392, 44.458287 ], [ 9.008348, 44.458284 ], [ 9.008366, 44.458159 ], [ 9.008981, 44.457718 ], [ 9.008981, 44.457653 ], [ 9.00926, 44.45752 ] ] ] } },
{ "type": "Feature", "properties": { "torre_id": "319", "tramo": "274-327", "ancho_m": 3.5, "longitud_m": 191.4, "via_osm_id": 9944551, "via_tipo": "secondary", "via_superficie": "asphalt", "estado": "PRELIMINAR_REVISAR" }, "geometry": { "type": "Polygon", "coordinates": [ [ [ 9.006957, 44.456836 ], [ 9.007052, 44.456769 ], [ 9.007083, 44.456791 ], [ 9.007001, 44.456849 ], [ 9.007001, 44.457227 ], [ 9.006913, 44.45729 ], [ 9.006913, 44.457479 ], [ 9.006825, 44.457542 ], [ 9.006825, 44.457856 ], [ 9.006639, 44.458056 ], [ 9.006473, 44.458056 ], [ 9.006473, 44.458171 ], [ 9.006391, 44.458251 ], [ 9.006356, 44.458233 ], [ 9.006429, 44.458161 ], [ 9.006429, 44.458024 ], [ 9.006616, 44.458024 ], [ 9.006781, 44.457846 ], [ 9.006781, 44.457529 ], [ 9.006869, 44.457466 ], [ 9.006869, 44.457277 ], [ 9.006957, 44.457214 ], [ 9.006957, 44.456836 ] ] ] } },
{ "type": "Feature", "properties": { "torre_id": "320", "tramo": "274-327", "ancho_m": 3.5, "longitud_m": 343.5, "via_osm_id": 9944551, "via_tipo": "secondary", "via_superficie": "asphalt", "estado": "PRELIMINAR_REVISAR" }, "geometry": { "type": "Polygon", "coordinates": [ [ [ 9.005285, 44.456773 ], [ 9.006172, 44.456138 ], [ 9.006203, 44.456161 ], [ 9.005329, 44.456786 ], [ 9.005329, 44.456849 ], [ 9.005153, 44.456975 ], [ 9.005153, 44.457101 ], [ 9.005065, 44.457164 ], [ 9.005066, 44.457277 ], [ 9.005163, 44.457347 ], [ 9.005053, 44.457426 ], [ 9.004858, 44.457426 ], [ 9.00477, 44.457363 ], [ 9.004701, 44.457363 ], [ 9.004626, 44.457416 ], [ 9.004626, 44.457669 ], [ 9.004525, 44.457741 ], [ 9.004349, 44.457741 ], [ 9.00401, 44.457984 ], [ 9.00401, 44.458046 ], [ 9.003838, 44.458194 ], [ 9.003805, 44.458174 ], [ 9.003966, 44.458035 ], [ 9.003966, 44.457971 ], [ 9.004331, 44.457709 ], [ 9.004506, 44.457709 ], [ 9.004582, 44.457656 ], [ 9.004582, 44.457403 ], [ 9.004682, 44.457331 ], [ 9.004789, 44.457331 ], [ 9.004877, 44.457394 ], [ 9.005034, 44.457394 ], [ 9.0051, 44.457347 ], [ 9.005022, 44.45729 ], [ 9.005022, 44.457151 ], [ 9.005109, 44.457088 ], [ 9.005109, 44.456962 ], [ 9.005285, 44.456836 ], [ 9.005285, 44.456773 ] ] ] } },
{ "type": "Feature", "properties": { "torre_id": "321", "tramo": "274-327", "ancho_m": 3.5, "longitud_m": 541.1, "via_osm_id": 1137085133, "via_tipo": "secondary", "via_superficie": "asphalt", "estado": "PRELIMINAR_REVISAR" }, "geometry": { "type": "Polygon", "coordinates": [ [ [ 9.004418, 44.454936 ], [ 9.0045, 44.454878 ], [ 9.004531, 44.4549 ], [ 9.004437, 44.454968 ], [ 9.004085, 44.454968 ], [ 9.003909, 44.455094 ], [ 9.003645, 44.455094 ], [ 9.003306, 44.455337 ], [ 9.003306, 44.455639 ], [ 9.003394, 44.455702 ], [ 9.003394, 44.455954 ], [ 9.003482, 44.456017 ], [ 9.003482, 44.45608 ], [ 9.003843, 44.456339 ], [ 9.003746, 44.456408 ], [ 9.003746, 44.456471 ], [ 9.002866, 44.457164 ], [ 9.002866, 44.457227 ], [ 9.002074, 44.457795 ], [ 9.002074, 44.458173 ], [ 9.001973, 44.458245 ], [ 9.001766, 44.458245 ], [ 9.001766, 44.458135 ], [ 9.00181, 44.458135 ], [ 9.00181, 44.458214 ], [ 9.001955, 44.458214 ], [ 9.00203, 44.45816 ], [ 9.00203, 44.457782 ], [ 9.002822, 44.457214 ], [ 9.002822, 44.457152 ], [ 9.003702, 44.456459 ], [ 9.003702, 44.456395 ], [ 9.00378, 44.456339 ], [ 9.003438, 44.456093 ], [ 9.003438, 44.45603 ], [ 9.00335, 44.455967 ], [ 9.00335, 44.455715 ], [ 9.003262, 44.455652 ], [ 9.003262, 44.455324 ], [ 9.003626, 44.455063 ], [ 9.00389, 44.455063 ], [ 9.004066, 44.454936 ], [ 9.004418, 44.454936 ] ] ] } },
{ "type": "Feature", "properties": { "torre_id": "322", "tramo": "274-327", "ancho_m": 3.5, "longitud_m": 1451.9, "via_osm_id": 282712084, "via_tipo": "residential", "via_superficie": "", "estado": "PRELIMINAR_REVISAR" }, "geometry": { "type": "Polygon", "coordinates": [ [ [ 8.996135, 44.454707 ], [ 8.996135, 44.454322 ], [ 8.996179, 44.454322 ], [ 8.996179, 44.454694 ], [ 8.996528, 44.454944 ], [ 8.996622, 44.455146 ], [ 8.996531, 44.455211 ], [ 8.996531, 44.455274 ], [ 8.996091, 44.455589 ], [ 8.996091, 44.455652 ], [ 8.996003, 44.455715 ], [ 8.996003, 44.455839 ], [ 8.995738, 44.456155 ], [ 8.99565, 44.456598 ], [ 8.995559, 44.456663 ], [ 8.995119, 44.457356 ], [ 8.994673, 44.457676 ], [ 8.994409, 44.457739 ], [ 8.993803, 44.458173 ], [ 8.993803, 44.458223 ], [ 8.993878, 44.458276 ], [ 8.994124, 44.458276 ], [ 8.994212, 44.458213 ], [ 8.994406, 44.458213 ], [ 8.994507, 44.458286 ], [ 8.994507, 44.458347 ], [ 8.994771, 44.458473 ], [ 8.994771, 44.458551 ], [ 8.994507, 44.45874 ], [ 8.994507, 44.458916 ], [ 8.994582, 44.45897 ], [ 8.99474, 44.45897 ], [ 8.994828, 44.458907 ], [ 8.99511, 44.458907 ], [ 8.995211, 44.458979 ], [ 8.995211, 44.459042 ], [ 8.995552, 44.459287 ], [ 8.995816, 44.45935 ], [ 8.99643, 44.459789 ], [ 8.996782, 44.459789 ], [ 8.996882, 44.459861 ], [ 8.996882, 44.459924 ], [ 8.997046, 44.460041 ], [ 8.997115, 44.460041 ], [ 8.997202, 44.459979 ], [ 8.997642, 44.459916 ], [ 8.997819, 44.459789 ], [ 8.998171, 44.459789 ], [ 8.998246, 44.459735 ], [ 8.998246, 44.459672 ], [ 8.998334, 44.459609 ], [ 8.998334, 44.459483 ], [ 8.998422, 44.45942 ], [ 8.998422, 44.459168 ], [ 8.998699, 44.45897 ], [ 8.998805, 44.45897 ], [ 8.998893, 44.459033 ], [ 8.999333, 44.459033 ], [ 8.999421, 44.459096 ], [ 8.999597, 44.459096 ], [ 8.999773, 44.459222 ], [ 8.999859, 44.459222 ], [ 9.000123, 44.459348 ], [ 9.000371, 44.459348 ], [ 9.000446, 44.459294 ], [ 9.000446, 44.459105 ], [ 9.000534, 44.459042 ], [ 9.000534, 44.458538 ], [ 9.000723, 44.458403 ], [ 9.00089, 44.458403 ], [ 9.000908, 44.458346 ], [ 9.000951, 44.458353 ], [ 9.000926, 44.458434 ], [ 9.000741, 44.458434 ], [ 9.000578, 44.458551 ], [ 9.000578, 44.459055 ], [ 9.00049, 44.459118 ], [ 9.00049, 44.459307 ], [ 9.000389, 44.459379 ], [ 9.000109, 44.459379 ], [ 8.999846, 44.459253 ], [ 8.999755, 44.459253 ], [ 8.999579, 44.459127 ], [ 8.999403, 44.459127 ], [ 8.999315, 44.459064 ], [ 8.998875, 44.459064 ], [ 8.998787, 44.459001 ], [ 8.998717, 44.459001 ], [ 8.998466, 44.459181 ], [ 8.998466, 44.459433 ], [ 8.998378, 44.459496 ], [ 8.998378, 44.459622 ], [ 8.99829, 44.459685 ], [ 8.99829, 44.459748 ], [ 8.998189, 44.459821 ], [ 8.997837, 44.459821 ], [ 8.997663, 44.459945 ], [ 8.997223, 44.460008 ], [ 8.997134, 44.460073 ], [ 8.997027, 44.460073 ], [ 8.996838, 44.459937 ], [ 8.996838, 44.459874 ], [ 8.996763, 44.459821 ], [ 8.996411, 44.459821 ], [ 8.995793, 44.459377 ], [ 8.995529, 44.459314 ], [ 8.995167, 44.459055 ], [ 8.995167, 44.458992 ], [ 8.995092, 44.458938 ], [ 8.994846, 44.458938 ], [ 8.994758, 44.459001 ], [ 8.994564, 44.459001 ], [ 8.994463, 44.458929 ], [ 8.994463, 44.458727 ], [ 8.994727, 44.458538 ], [ 8.994727, 44.45849 ], [ 8.994463, 44.458364 ], [ 8.994463, 44.458299 ], [ 8.994388, 44.458245 ], [ 8.99423, 44.458245 ], [ 8.994142, 44.458308 ], [ 8.99386, 44.458308 ], [ 8.993759, 44.458236 ], [ 8.993759, 44.45816 ], [ 8.994385, 44.457711 ], [ 8.994649, 44.457648 ], [ 8.995082, 44.457338 ], [ 8.995522, 44.456645 ], [ 8.995608, 44.456583 ], [ 8.995696, 44.456144 ], [ 8.995959, 44.45583 ], [ 8.995959, 44.455702 ], [ 8.996047, 44.455639 ], [ 8.996047, 44.455576 ], [ 8.996487, 44.455261 ], [ 8.996487, 44.455198 ], [ 8.996572, 44.455137 ], [ 8.99649, 44.454961 ], [ 8.996135, 44.454707 ] ] ] } },
{ "type": "Feature", "properties": { "torre_id": "323", "tramo": "274-327", "ancho_m": 3.5, "longitud_m": 426.9, "via_osm_id": 282712084, "via_tipo": "residential", "via_superficie": "", "estado": "PRELIMINAR_REVISAR" }, "geometry": { "type": "Polygon", "coordinates": [ [ [ 8.996135, 44.454707 ], [ 8.996135, 44.454322 ], [ 8.996179, 44.454322 ], [ 8.996179, 44.454694 ], [ 8.996528, 44.454944 ], [ 8.996622, 44.455146 ], [ 8.996531, 44.455211 ], [ 8.996531, 44.455274 ], [ 8.996091, 44.455589 ], [ 8.996091, 44.455702 ], [ 8.99643, 44.455945 ], [ 8.996516, 44.455945 ], [ 8.996871, 44.456135 ], [ 8.997136, 44.456199 ], [ 8.997323, 44.456332 ], [ 8.997323, 44.456394 ], [ 8.997925, 44.456764 ], [ 8.998278, 44.456764 ], [ 8.998362, 44.456825 ], [ 8.998466, 44.456799 ], [ 8.99848, 44.456829 ], [ 8.998351, 44.456861 ], [ 8.998259, 44.456796 ], [ 8.997908, 44.456796 ], [ 8.997279, 44.456409 ], [ 8.997279, 44.456345 ], [ 8.997113, 44.456226 ], [ 8.99685, 44.456164 ], [ 8.996501, 44.455976 ], [ 8.996412, 44.455976 ], [ 8.996047, 44.455715 ], [ 8.996047, 44.455576 ], [ 8.996487, 44.455261 ], [ 8.996487, 44.455198 ], [ 8.996572, 44.455137 ], [ 8.99649, 44.454961 ], [ 8.996135, 44.454707 ] ] ] } },
{ "type": "Feature", "properties": { "torre_id": "324", "tramo": "274-327", "ancho_m": 3.5, "longitud_m": 281.9, "via_osm_id": 282712084, "via_tipo": "residential", "via_superficie": "", "estado": "PRELIMINAR_REVISAR" }, "geometry": { "type": "Polygon", "coordinates": [ [ [ 8.996135, 44.454707 ], [ 8.996135, 44.454322 ], [ 8.996179, 44.454322 ], [ 8.996179, 44.454694 ], [ 8.996528, 44.454943 ], [ 8.996703, 44.455259 ], [ 8.996782, 44.455315 ], [ 8.997134, 44.455315 ], [ 8.997411, 44.455513 ], [ 8.997411, 44.456017 ], [ 8.997672, 44.456205 ], [ 8.997702, 44.45629 ], [ 8.997659, 44.456298 ], [ 8.997633, 44.456221 ], [ 8.997367, 44.45603 ], [ 8.997367, 44.455526 ], [ 8.997116, 44.455346 ], [ 8.996764, 44.455346 ], [ 8.996666, 44.455276 ], [ 8.99649, 44.454961 ], [ 8.996135, 44.454707 ] ] ] } },
{ "type": "Feature", "properties": { "torre_id": "325", "tramo": "274-327", "ancho_m": 3.5, "longitud_m": 19.4, "via_osm_id": 285106377, "via_tipo": "pedestrian", "via_superficie": "paving_stones", "estado": "PRELIMINAR_REVISAR" }, "geometry": { "type": "Polygon", "coordinates": [ [ [ 8.993803, 44.453765 ], [ 8.993803, 44.453881 ], [ 8.993759, 44.453881 ], [ 8.993759, 44.453744 ], [ 8.993836, 44.453722 ], [ 8.993852, 44.453752 ], [ 8.993803, 44.453765 ] ] ] } },
{ "type": "Feature", "properties": { "torre_id": "326", "tramo": "274-327", "ancho_m": 3.5, "longitud_m": 13.4, "via_osm_id": 1152984113, "via_tipo": "residential", "via_superficie": "asphalt", "estado": "PRELIMINAR_REVISAR" }, "geometry": { "type": "Polygon", "coordinates": [ [ [ 8.99253, 44.452731 ], [ 8.992638, 44.452731 ], [ 8.992638, 44.452762 ], [ 8.992569, 44.452762 ], [ 8.992562, 44.452805 ], [ 8.992519, 44.452801 ], [ 8.99253, 44.452731 ] ] ] } },
{ "type": "Feature", "properties": { "torre_id": "327", "tramo": "274-327", "ancho_m": 3.5, "longitud_m": 61.5, "via_osm_id": 203377323, "via_tipo": "primary", "via_superficie": "asphalt", "estado": "PRELIMINAR_REVISAR" }, "geometry": { "type": "Polygon", "coordinates": [ [ [ 8.991151, 44.451092 ], [ 8.991406, 44.451092 ], [ 8.991406, 44.451124 ], [ 8.991133, 44.451124 ], [ 8.991032, 44.451051 ], [ 8.991032, 44.450988 ], [ 8.990878, 44.450878 ], [ 8.990859, 44.450891 ], [ 8.990829, 44.450868 ], [ 8.990879, 44.450834 ], [ 8.991076, 44.450975 ], [ 8.991076, 44.451038 ], [ 8.991151, 44.451092 ] ] ] } },
{ "type": "Feature", "properties": { "torre_id": "328", "tramo": "327-999-MOLA", "ancho_m": 3.5, "longitud_m": 458.4, "via_osm_id": 203377323, "via_tipo": "primary", "via_superficie": "asphalt", "estado": "PRELIMINAR_REVISAR" }, "geometry": { "type": "Polygon", "coordinates": [ [ [ 8.987674, 44.449926 ], [ 8.987614, 44.449926 ], [ 8.987513, 44.449854 ], [ 8.987513, 44.449714 ], [ 8.987614, 44.449642 ], [ 8.987808, 44.449642 ], [ 8.987896, 44.449705 ], [ 8.988336, 44.449705 ], [ 8.988424, 44.449768 ], [ 8.988582, 44.449768 ], [ 8.988846, 44.449579 ], [ 8.989374, 44.449579 ], [ 8.98955, 44.449453 ], [ 8.989726, 44.449453 ], [ 8.989812, 44.449391 ], [ 8.990428, 44.449328 ], [ 8.990518, 44.449264 ], [ 8.990802, 44.449264 ], [ 8.990987, 44.449463 ], [ 8.991075, 44.449777 ], [ 8.991164, 44.449841 ], [ 8.991164, 44.45003 ], [ 8.991415, 44.45021 ], [ 8.991582, 44.45021 ], [ 8.991582, 44.450241 ], [ 8.991397, 44.450241 ], [ 8.99112, 44.450043 ], [ 8.99112, 44.449854 ], [ 8.991034, 44.449792 ], [ 8.990946, 44.449475 ], [ 8.990779, 44.449296 ], [ 8.990536, 44.449296 ], [ 8.990449, 44.449358 ], [ 8.989833, 44.449421 ], [ 8.989744, 44.449485 ], [ 8.989568, 44.449485 ], [ 8.989392, 44.449611 ], [ 8.988864, 44.449611 ], [ 8.9886, 44.4498 ], [ 8.988406, 44.4498 ], [ 8.988318, 44.449737 ], [ 8.987878, 44.449737 ], [ 8.98779, 44.449674 ], [ 8.987632, 44.449674 ], [ 8.987557, 44.449728 ], [ 8.987557, 44.449841 ], [ 8.987632, 44.449894 ], [ 8.987782, 44.449894 ], [ 8.987688, 44.449941 ], [ 8.987674, 44.449926 ] ] ] } },
{ "type": "Feature", "properties": { "torre_id": "329", "tramo": "327-999-MOLA", "ancho_m": 3.5, "longitud_m": 405.3, "via_osm_id": 1255349810, "via_tipo": "cycleway", "via_superficie": "asphalt", "estado": "PRELIMINAR_REVISAR" }, "geometry": { "type": "Polygon", "coordinates": [ [ [ 8.980344, 44.452183 ], [ 8.98043, 44.452617 ], [ 8.980386, 44.452621 ], [ 8.980297, 44.452172 ], [ 8.980386, 44.452108 ], [ 8.980387, 44.451919 ], [ 8.980475, 44.451856 ], [ 8.980475, 44.451667 ], [ 8.980563, 44.451604 ], [ 8.980563, 44.451415 ], [ 8.980651, 44.451352 ], [ 8.980651, 44.4511 ], [ 8.980739, 44.451037 ], [ 8.980739, 44.450848 ], [ 8.981003, 44.450659 ], [ 8.981003, 44.45047 ], [ 8.981192, 44.450335 ], [ 8.981632, 44.450335 ], [ 8.98172, 44.450272 ], [ 8.982072, 44.450272 ], [ 8.982147, 44.450218 ], [ 8.982147, 44.450029 ], [ 8.982249, 44.449956 ], [ 8.982386, 44.449972 ], [ 8.982379, 44.450003 ], [ 8.982264, 44.449989 ], [ 8.982191, 44.450042 ], [ 8.982191, 44.450231 ], [ 8.98209, 44.450303 ], [ 8.981738, 44.450303 ], [ 8.98165, 44.450366 ], [ 8.98121, 44.450366 ], [ 8.981047, 44.450483 ], [ 8.981047, 44.450672 ], [ 8.980783, 44.450861 ], [ 8.980783, 44.45105 ], [ 8.980695, 44.451113 ], [ 8.980695, 44.451365 ], [ 8.980607, 44.451428 ], [ 8.980607, 44.451617 ], [ 8.980519, 44.45168 ], [ 8.980518, 44.451869 ], [ 8.98043, 44.451932 ], [ 8.98043, 44.452121 ], [ 8.980344, 44.452183 ] ] ] } },
{ "type": "Feature", "properties": { "torre_id": "330", "tramo": "327-999-MOLA", "ancho_m": 3.5, "longitud_m": 296.9, "via_osm_id": 8067132, "via_tipo": "primary", "via_superficie": "asphalt", "estado": "PRELIMINAR_REVISAR" }, "geometry": { "type": "Polygon", "coordinates": [ [ [ 8.977778, 44.451374 ], [ 8.977257, 44.451747 ], [ 8.977226, 44.451725 ], [ 8.97776, 44.451342 ], [ 8.977923, 44.451342 ], [ 8.977923, 44.451162 ], [ 8.978099, 44.451036 ], [ 8.978099, 44.45091 ], [ 8.978275, 44.450784 ], [ 8.978275, 44.450721 ], [ 8.978728, 44.450397 ], [ 8.978992, 44.450397 ], [ 8.97908, 44.450334 ], [ 8.979256, 44.450334 ], [ 8.979331, 44.45028 ], [ 8.979331, 44.450154 ], [ 8.979492, 44.45004 ], [ 8.979477, 44.450035 ], [ 8.979496, 44.450006 ], [ 8.979567, 44.45003 ], [ 8.979375, 44.450167 ], [ 8.979375, 44.450294 ], [ 8.979274, 44.450366 ], [ 8.979098, 44.450366 ], [ 8.97901, 44.450429 ], [ 8.978747, 44.450429 ], [ 8.978319, 44.450734 ], [ 8.978319, 44.450797 ], [ 8.978143, 44.450923 ], [ 8.978143, 44.45105 ], [ 8.977967, 44.451176 ], [ 8.977967, 44.451374 ], [ 8.977778, 44.451374 ] ] ] } },
{ "type": "Feature", "properties": { "torre_id": "331", "tramo": "327-999-MOLA", "ancho_m": 3.5, "longitud_m": 154.1, "via_osm_id": 8067132, "via_tipo": "primary", "via_superficie": "asphalt", "estado": "PRELIMINAR_REVISAR" }, "geometry": { "type": "Polygon", "coordinates": [ [ [ 8.97612, 44.450986 ], [ 8.976025, 44.451054 ], [ 8.975994, 44.451031 ], [ 8.976076, 44.450973 ], [ 8.976076, 44.45091 ], [ 8.976859, 44.45035 ], [ 8.976505, 44.450096 ], [ 8.976611, 44.450039 ], [ 8.976637, 44.450064 ], [ 8.976572, 44.450099 ], [ 8.976921, 44.45035 ], [ 8.97612, 44.450923 ], [ 8.97612, 44.450986 ] ] ] } },
{ "type": "Feature", "properties": { "torre_id": "999-MOLA", "tramo": "327-999-MOLA", "ancho_m": 3.5, "longitud_m": 40.9, "via_osm_id": 8067132, "via_tipo": "primary", "via_superficie": "asphalt", "estado": "PRELIMINAR_REVISAR" }, "geometry": { "type": "Polygon", "coordinates": [ [ [ 8.9759, 44.450574 ], [ 8.975873, 44.45056 ], [ 8.975944, 44.45049 ], [ 8.975944, 44.450608 ], [ 8.975674, 44.450802 ], [ 8.975642, 44.450779 ], [ 8.9759, 44.450595 ], [ 8.9759, 44.450574 ] ] ] } }
]
}
