{
"type": "FeatureCollection",
"name": "apoyos",
"xy_coordinate_resolution": 1e-06,
"features": [
{ "type": "Feature", "properties": { "torre_id": "000-QUAR", "tipo": "AMARRO", "tramo": "000-QUAR-274", "orden": 1, "utm_norte": 4918087.26, "utm_este": 517306.97, "cota_z": 124.62, "altura_m": 18.6, "prog_linea": "", "prog_tramo": "" }, "geometry": { "type": "Point", "coordinates": [ 9.217392, 44.41587 ] } },
{ "type": "Feature", "properties": { "torre_id": "102", "tipo": "AMARRO", "tramo": "000-QUAR-274", "orden": 2, "utm_norte": 4918043.25, "utm_este": 517495.47, "cota_z": 140.04, "altura_m": 28.7, "prog_linea": "193.56944516111093", "prog_tramo": "55.086915638636754" }, "geometry": { "type": "Point", "coordinates": [ 9.219758, 44.415469 ] } },
{ "type": "Feature", "properties": { "torre_id": "101", "tipo": "SOSPENSIONE", "tramo": "000-QUAR-274", "orden": 3, "utm_norte": 4918139.48, "utm_este": 517602.55, "cota_z": 181.15, "altura_m": 33.8, "prog_linea": "337.5358971563224", "prog_tramo": "0.07862405731209356" }, "geometry": { "type": "Point", "coordinates": [ 9.221106, 44.416333 ] } },
{ "type": "Feature", "properties": { "torre_id": "224", "tipo": "AMARRO", "tramo": "000-QUAR-274", "orden": 4, "utm_norte": 4918188.53, "utm_este": 517656.98, "cota_z": 197.59, "altura_m": 33.4, "prog_linea": "410.8061325864134", "prog_tramo": "100.85045464912496" }, "geometry": { "type": "Point", "coordinates": [ 9.221791, 44.416773 ] } },
{ "type": "Feature", "properties": { "torre_id": "225", "tipo": "AMARRO", "tramo": "000-QUAR-274", "orden": 5, "utm_norte": 4918351.83, "utm_este": 517441.26, "cota_z": 130.55, "altura_m": 23.8, "prog_linea": "681.364829360195", "prog_tramo": "0.052856875511495635" }, "geometry": { "type": "Point", "coordinates": [ 9.219087, 44.418249 ] } },
{ "type": "Feature", "properties": { "torre_id": "226", "tipo": "AMARRO", "tramo": "000-QUAR-274", "orden": 6, "utm_norte": 4918465.51, "utm_este": 517290.8, "cota_z": 141.55, "altura_m": 22.6, "prog_linea": "869.9420124973353", "prog_tramo": "0.0068303335136347485" }, "geometry": { "type": "Point", "coordinates": [ 9.217201, 44.419276 ] } },
{ "type": "Feature", "properties": { "torre_id": "227", "tipo": "AMARRO", "tramo": "000-QUAR-274", "orden": 7, "utm_norte": 4918573.27, "utm_este": 517148.14, "cota_z": 182.63, "altura_m": 22.6, "prog_linea": "1048.7270599703959", "prog_tramo": "0.002416856309437374" }, "geometry": { "type": "Point", "coordinates": [ 9.215413, 44.420249 ] } },
{ "type": "Feature", "properties": { "torre_id": "228", "tipo": "SOSPENSIONE", "tramo": "000-QUAR-274", "orden": 8, "utm_norte": 4918625.68, "utm_este": 517078.75, "cota_z": 204.04, "altura_m": 29.8, "prog_linea": "1135.6855569676277", "prog_tramo": "0.1149937789618637" }, "geometry": { "type": "Point", "coordinates": [ 9.214543, 44.420723 ] } },
{ "type": "Feature", "properties": { "torre_id": "229", "tipo": "AMARRO", "tramo": "000-QUAR-274", "orden": 9, "utm_norte": 4918717.65, "utm_este": 516957.49, "cota_z": 179.03, "altura_m": 25.3, "prog_linea": "1287.877766032762", "prog_tramo": "0.01342212876426637" }, "geometry": { "type": "Point", "coordinates": [ 9.213022, 44.421553 ] } },
{ "type": "Feature", "properties": { "torre_id": "230", "tipo": "AMARRO", "tramo": "000-QUAR-274", "orden": 10, "utm_norte": 4918862.3, "utm_este": 516766.68, "cota_z": 222.42, "altura_m": 25.8, "prog_linea": "1527.3189458658005", "prog_tramo": "0.10359268722069293" }, "geometry": { "type": "Point", "coordinates": [ 9.21063, 44.42286 ] } },
{ "type": "Feature", "properties": { "torre_id": "231", "tipo": "SOSPENSIONE", "tramo": "000-QUAR-274", "orden": 11, "utm_norte": 4918981.19, "utm_este": 516609.26, "cota_z": 230.44, "altura_m": 25.6, "prog_linea": "1724.5900499336203", "prog_tramo": "0.07564727880435373" }, "geometry": { "type": "Point", "coordinates": [ 9.208656, 44.423934 ] } },
{ "type": "Feature", "properties": { "torre_id": "232", "tipo": "AMARRO", "tramo": "000-QUAR-274", "orden": 12, "utm_norte": 4919066.07, "utm_este": 516497.18, "cota_z": 220.24, "altura_m": 22.6, "prog_linea": "1865.1835803679355", "prog_tramo": "12.841559996513451" }, "geometry": { "type": "Point", "coordinates": [ 9.207251, 44.424701 ] } },
{ "type": "Feature", "properties": { "torre_id": "233", "tipo": "SOSPENSIONE", "tramo": "000-QUAR-274", "orden": 13, "utm_norte": 4919127.78, "utm_este": 516360.48, "cota_z": 201.37, "altura_m": 22.5, "prog_linea": "2015.166959780451", "prog_tramo": "0.0871313159427642" }, "geometry": { "type": "Point", "coordinates": [ 9.205536, 44.425259 ] } },
{ "type": "Feature", "properties": { "torre_id": "234", "tipo": "SOSPENSIONE", "tramo": "000-QUAR-274", "orden": 14, "utm_norte": 4919238.23, "utm_este": 516116.8, "cota_z": 213.04, "altura_m": 25.0, "prog_linea": "2282.7097505636034", "prog_tramo": "0.2015041450420013" }, "geometry": { "type": "Point", "coordinates": [ 9.202478, 44.426259 ] } },
{ "type": "Feature", "properties": { "torre_id": "235", "tipo": "AMARRO", "tramo": "000-QUAR-274", "orden": 15, "utm_norte": 4919276.02, "utm_este": 516032.64, "cota_z": 227.45, "altura_m": 25.7, "prog_linea": "2374.96477590059", "prog_tramo": "0.20657015260156258" }, "geometry": { "type": "Point", "coordinates": [ 9.201422, 44.426601 ] } },
{ "type": "Feature", "properties": { "torre_id": "236", "tipo": "SOSPENSIONE", "tramo": "000-QUAR-274", "orden": 16, "utm_norte": 4919388.79, "utm_este": 515783.9, "cota_z": 260.79, "altura_m": 22.6, "prog_linea": "2648.0740223572134", "prog_tramo": "0.12584291073787776" }, "geometry": { "type": "Point", "coordinates": [ 9.1983, 44.427622 ] } },
{ "type": "Feature", "properties": { "torre_id": "237", "tipo": "AMARRO", "tramo": "000-QUAR-274", "orden": 17, "utm_norte": 4919490.86, "utm_este": 515557.44, "cota_z": 237.85, "altura_m": 22.1, "prog_linea": "2896.4737335085556", "prog_tramo": "0.2332523386886752" }, "geometry": { "type": "Point", "coordinates": [ 9.195458, 44.428546 ] } },
{ "type": "Feature", "properties": { "torre_id": "238", "tipo": "SOSPENSIONE", "tramo": "000-QUAR-274", "orden": 18, "utm_norte": 4919554.06, "utm_este": 515418.73, "cota_z": 264.61, "altura_m": 22.4, "prog_linea": "3048.90307484385", "prog_tramo": "0.07802316515555824" }, "geometry": { "type": "Point", "coordinates": [ 9.193717, 44.429118 ] } },
{ "type": "Feature", "properties": { "torre_id": "239", "tipo": "SOSPENSIONE", "tramo": "000-QUAR-274", "orden": 19, "utm_norte": 4919612.07, "utm_este": 515290.95, "cota_z": 249.92, "altura_m": 20.3, "prog_linea": "3189.2344273637855", "prog_tramo": "0.1311545093471563" }, "geometry": { "type": "Point", "coordinates": [ 9.192114, 44.429643 ] } },
{ "type": "Feature", "properties": { "torre_id": "240", "tipo": "AMARRO", "tramo": "000-QUAR-274", "orden": 20, "utm_norte": 4919668.04, "utm_este": 515166.91, "cota_z": 233.38, "altura_m": 20.9, "prog_linea": "3325.317352449852", "prog_tramo": "0.216398193855246" }, "geometry": { "type": "Point", "coordinates": [ 9.190557, 44.430149 ] } },
{ "type": "Feature", "properties": { "torre_id": "241", "tipo": "AMARRO", "tramo": "000-QUAR-274", "orden": 21, "utm_norte": 4919715.4, "utm_este": 515063.0, "cota_z": 220.72, "altura_m": 22.1, "prog_linea": "3439.5113001880154", "prog_tramo": "0.15798886169472734" }, "geometry": { "type": "Point", "coordinates": [ 9.189253, 44.430578 ] } },
{ "type": "Feature", "properties": { "torre_id": "242", "tipo": "AMARRO", "tramo": "000-QUAR-274", "orden": 22, "utm_norte": 4919811.13, "utm_este": 514851.42, "cota_z": 258.2, "altura_m": 25.4, "prog_linea": "3671.740345098238", "prog_tramo": "2.529292432455982" }, "geometry": { "type": "Point", "coordinates": [ 9.186597, 44.431444 ] } },
{ "type": "Feature", "properties": { "torre_id": "243", "tipo": "AMARRO", "tramo": "000-QUAR-274", "orden": 23, "utm_norte": 4919848.34, "utm_este": 514758.46, "cota_z": 215.9, "altura_m": 22.4, "prog_linea": "3771.8709882600106", "prog_tramo": "0.07035547048398369" }, "geometry": { "type": "Point", "coordinates": [ 9.18543, 44.431781 ] } },
{ "type": "Feature", "properties": { "torre_id": "244", "tipo": "AMARRO", "tramo": "000-QUAR-274", "orden": 24, "utm_norte": 4919983.1, "utm_este": 514422.99, "cota_z": 253.7, "altura_m": 22.1, "prog_linea": "4133.396061387671", "prog_tramo": "2.6424098071384936" }, "geometry": { "type": "Point", "coordinates": [ 9.181219, 44.433001 ] } },
{ "type": "Feature", "properties": { "torre_id": "245", "tipo": "SOSPENSIONE", "tramo": "000-QUAR-274", "orden": 25, "utm_norte": 4920001.35, "utm_este": 514370.71, "cota_z": 245.73, "altura_m": 22.6, "prog_linea": "4188.769890043425", "prog_tramo": "0.09044954810557485" }, "geometry": { "type": "Point", "coordinates": [ 9.180563, 44.433166 ] } },
{ "type": "Feature", "properties": { "torre_id": "246", "tipo": "AMARRO", "tramo": "000-QUAR-274", "orden": 26, "utm_norte": 4920072.41, "utm_este": 514166.11, "cota_z": 190.39, "altura_m": 25.4, "prog_linea": "4405.358633056741", "prog_tramo": "0.07523681944485067" }, "geometry": { "type": "Point", "coordinates": [ 9.177994, 44.43381 ] } },
{ "type": "Feature", "properties": { "torre_id": "247", "tipo": "SOSPENSIONE", "tramo": "000-QUAR-274", "orden": 27, "utm_norte": 4920151.72, "utm_este": 513938.72, "cota_z": 220.38, "altura_m": 22.4, "prog_linea": "4646.182818303866", "prog_tramo": "0.34939965692796565" }, "geometry": { "type": "Point", "coordinates": [ 9.175139, 44.434528 ] } },
{ "type": "Feature", "properties": { "torre_id": "248", "tipo": "SOSPENSIONE", "tramo": "000-QUAR-274", "orden": 28, "utm_norte": 4920229.56, "utm_este": 513711.09, "cota_z": 216.82, "altura_m": 22.4, "prog_linea": "4886.753977215221", "prog_tramo": "0.0465496338804413" }, "geometry": { "type": "Point", "coordinates": [ 9.172281, 44.435234 ] } },
{ "type": "Feature", "properties": { "torre_id": "249", "tipo": "SOSPENSIONE", "tramo": "000-QUAR-274", "orden": 29, "utm_norte": 4920283.99, "utm_este": 513552.34, "cota_z": 243.96, "altura_m": 22.3, "prog_linea": "5054.575869112759", "prog_tramo": "0.8005913021971305" }, "geometry": { "type": "Point", "coordinates": [ 9.170288, 44.435727 ] } },
{ "type": "Feature", "properties": { "torre_id": "250", "tipo": "SOSPENSIONE", "tramo": "000-QUAR-274", "orden": 30, "utm_norte": 4920324.17, "utm_este": 513440.28, "cota_z": 258.9, "altura_m": 22.4, "prog_linea": "5173.621557820816", "prog_tramo": "0.30502568192119406" }, "geometry": { "type": "Point", "coordinates": [ 9.168881, 44.43609 ] } },
{ "type": "Feature", "properties": { "torre_id": "251", "tipo": "AMARRO", "tramo": "000-QUAR-274", "orden": 31, "utm_norte": 4920393.48, "utm_este": 513243.69, "cota_z": 248.86, "altura_m": 22.3, "prog_linea": "5382.071801764262", "prog_tramo": "23.183925644740654" }, "geometry": { "type": "Point", "coordinates": [ 9.166412, 44.436718 ] } },
{ "type": "Feature", "properties": { "torre_id": "252", "tipo": "AMARRO", "tramo": "000-QUAR-274", "orden": 32, "utm_norte": 4920380.83, "utm_este": 513051.37, "cota_z": 235.02, "altura_m": 28.7, "prog_linea": "5574.807384623297", "prog_tramo": "0.05488212940371772" }, "geometry": { "type": "Point", "coordinates": [ 9.163995, 44.436608 ] } },
{ "type": "Feature", "properties": { "torre_id": "253", "tipo": "AMARRO", "tramo": "000-QUAR-274", "orden": 33, "utm_norte": 4920362.5, "utm_este": 512768.56, "cota_z": 206.6, "altura_m": 21.8, "prog_linea": "5858.210780862653", "prog_tramo": "19.29847258688531" }, "geometry": { "type": "Point", "coordinates": [ 9.160441, 44.436448 ] } },
{ "type": "Feature", "properties": { "torre_id": "254", "tipo": "SOSPENSIONE", "tramo": "000-QUAR-274", "orden": 34, "utm_norte": 4920331.83, "utm_este": 512696.33, "cota_z": 228.91, "altura_m": 22.8, "prog_linea": "5936.682570698191", "prog_tramo": "0.3295331331253762" }, "geometry": { "type": "Point", "coordinates": [ 9.159533, 44.436173 ] } },
{ "type": "Feature", "properties": { "torre_id": "255", "tipo": "AMARRO", "tramo": "000-QUAR-274", "orden": 35, "utm_norte": 4920270.62, "utm_este": 512554.45, "cota_z": 235.83, "altura_m": 26.3, "prog_linea": "6091.203114639755", "prog_tramo": "0.24700313925308476" }, "geometry": { "type": "Point", "coordinates": [ 9.157749, 44.435624 ] } },
{ "type": "Feature", "properties": { "torre_id": "256", "tipo": "AMARRO", "tramo": "000-QUAR-274", "orden": 36, "utm_norte": 4920183.87, "utm_este": 512355.73, "cota_z": 282.42, "altura_m": 23.5, "prog_linea": "6308.033003953964", "prog_tramo": "51.62328238158584" }, "geometry": { "type": "Point", "coordinates": [ 9.15525, 44.434847 ] } },
{ "type": "Feature", "properties": { "torre_id": "257", "tipo": "AMARRO", "tramo": "000-QUAR-274", "orden": 37, "utm_norte": 4920348.21, "utm_este": 512047.17, "cota_z": 280.12, "altura_m": 28.0, "prog_linea": "6657.628354609475", "prog_tramo": "24.435450330869955" }, "geometry": { "type": "Point", "coordinates": [ 9.151376, 44.436331 ] } },
{ "type": "Feature", "properties": { "torre_id": "258", "tipo": "SOSPENSIONE", "tramo": "000-QUAR-274", "orden": 38, "utm_norte": 4920357.48, "utm_este": 511900.01, "cota_z": 332.68, "altura_m": 23.3, "prog_linea": "6805.080036525964", "prog_tramo": "0.15225921646038845" }, "geometry": { "type": "Point", "coordinates": [ 9.149527, 44.436417 ] } },
{ "type": "Feature", "properties": { "torre_id": "259", "tipo": "AMARRO", "tramo": "000-QUAR-274", "orden": 39, "utm_norte": 4920371.21, "utm_este": 511672.41, "cota_z": 329.73, "altura_m": 22.2, "prog_linea": "7033.0937924706495", "prog_tramo": "0.10627375149097866" }, "geometry": { "type": "Point", "coordinates": [ 9.146668, 44.436545 ] } },
{ "type": "Feature", "properties": { "torre_id": "260", "tipo": "SOSPENSIONE", "tramo": "000-QUAR-274", "orden": 40, "utm_norte": 4920383.35, "utm_este": 511464.76, "cota_z": 433.0, "altura_m": 30.4, "prog_linea": "7241.0983647761095", "prog_tramo": "0.037431969194453706" }, "geometry": { "type": "Point", "coordinates": [ 9.144059, 44.436657 ] } },
{ "type": "Feature", "properties": { "torre_id": "261", "tipo": "SOSPENSIONE", "tramo": "000-QUAR-274", "orden": 41, "utm_norte": 4920401.22, "utm_este": 511162.49, "cota_z": 452.94, "altura_m": 22.3, "prog_linea": "7543.896135243488", "prog_tramo": "0.010367040512798863" }, "geometry": { "type": "Point", "coordinates": [ 9.140261, 44.436823 ] } },
{ "type": "Feature", "properties": { "torre_id": "262", "tipo": "SOSPENSIONE", "tramo": "000-QUAR-274", "orden": 42, "utm_norte": 4920407.29, "utm_este": 511059.5, "cota_z": 442.49, "altura_m": 22.3, "prog_linea": "7647.064856278507", "prog_tramo": "0.014354265476270322" }, "geometry": { "type": "Point", "coordinates": [ 9.138967, 44.436879 ] } },
{ "type": "Feature", "properties": { "torre_id": "263", "tipo": "SOSPENSIONE", "tramo": "000-QUAR-274", "orden": 43, "utm_norte": 4920420.05, "utm_este": 510843.92, "cota_z": 386.73, "altura_m": 29.8, "prog_linea": "7863.022152983206", "prog_tramo": "0.023390529401335673" }, "geometry": { "type": "Point", "coordinates": [ 9.136259, 44.436997 ] } },
{ "type": "Feature", "properties": { "torre_id": "264", "tipo": "AMARRO", "tramo": "000-QUAR-274", "orden": 44, "utm_norte": 4920431.83, "utm_este": 510643.51, "cota_z": 353.9, "altura_m": 22.6, "prog_linea": "8063.7780657230205", "prog_tramo": "0.03778585190171671" }, "geometry": { "type": "Point", "coordinates": [ 9.133741, 44.437106 ] } },
{ "type": "Feature", "properties": { "torre_id": "265", "tipo": "SOSPENSIONE", "tramo": "000-QUAR-274", "orden": 45, "utm_norte": 4920443.15, "utm_este": 510453.07, "cota_z": 311.69, "altura_m": 23.1, "prog_linea": "8254.554206788951", "prog_tramo": "2.8233453920849754" }, "geometry": { "type": "Point", "coordinates": [ 9.131348, 44.437211 ] } },
{ "type": "Feature", "properties": { "torre_id": "266", "tipo": "AMARRO", "tramo": "000-QUAR-274", "orden": 46, "utm_norte": 4920445.74, "utm_este": 510196.51, "cota_z": 307.92, "altura_m": 35.5, "prog_linea": "8511.127279616163", "prog_tramo": "38.61313045855848" }, "geometry": { "type": "Point", "coordinates": [ 9.128124, 44.437238 ] } },
{ "type": "Feature", "properties": { "torre_id": "267", "tipo": "AMARRO", "tramo": "000-QUAR-274", "orden": 47, "utm_norte": 4920544.11, "utm_este": 510075.86, "cota_z": 343.34, "altura_m": 35.5, "prog_linea": "8666.797056387466", "prog_tramo": "44.991210321255195" }, "geometry": { "type": "Point", "coordinates": [ 9.12661, 44.438125 ] } },
{ "type": "Feature", "properties": { "torre_id": "268", "tipo": "AMARRO", "tramo": "000-QUAR-274", "orden": 48, "utm_norte": 4920522.32, "utm_este": 509861.33, "cota_z": 368.32, "altura_m": 30.9, "prog_linea": "8882.430831571199", "prog_tramo": "7.823063941451879" }, "geometry": { "type": "Point", "coordinates": [ 9.123914, 44.437932 ] } },
{ "type": "Feature", "properties": { "torre_id": "269", "tipo": "AMARRO", "tramo": "000-QUAR-274", "orden": 49, "utm_norte": 4920485.75, "utm_este": 509710.43, "cota_z": 347.3, "altura_m": 22.6, "prog_linea": "9037.698905881498", "prog_tramo": "17.425627426632857" }, "geometry": { "type": "Point", "coordinates": [ 9.122017, 44.437605 ] } },
{ "type": "Feature", "properties": { "torre_id": "270", "tipo": "SOSPENSIONE", "tramo": "000-QUAR-274", "orden": 50, "utm_norte": 4920498.61, "utm_este": 509516.96, "cota_z": 416.97, "altura_m": 25.4, "prog_linea": "9231.595838554498", "prog_tramo": "0.4300839033336815" }, "geometry": { "type": "Point", "coordinates": [ 9.119586, 44.437723 ] } },
{ "type": "Feature", "properties": { "torre_id": "271", "tipo": "AMARRO", "tramo": "000-QUAR-274", "orden": 51, "utm_norte": 4920512.69, "utm_este": 509278.05, "cota_z": 494.2, "altura_m": 25.2, "prog_linea": "9470.920376577697", "prog_tramo": "0.011654565105994552" }, "geometry": { "type": "Point", "coordinates": [ 9.116585, 44.437853 ] } },
{ "type": "Feature", "properties": { "torre_id": "272", "tipo": "AMARRO", "tramo": "000-QUAR-274", "orden": 52, "utm_norte": 4920517.44, "utm_este": 509197.73, "cota_z": 539.75, "altura_m": 26.2, "prog_linea": "9551.380707797503", "prog_tramo": "0.016073259200072312" }, "geometry": { "type": "Point", "coordinates": [ 9.115575, 44.437897 ] } },
{ "type": "Feature", "properties": { "torre_id": "273", "tipo": "AMARRO", "tramo": "000-QUAR-274", "orden": 53, "utm_norte": 4920535.9, "utm_este": 508887.06, "cota_z": 569.01, "altura_m": 23.9, "prog_linea": "9862.598670807334", "prog_tramo": "3.854246120614303" }, "geometry": { "type": "Point", "coordinates": [ 9.111672, 44.438067 ] } },
{ "type": "Feature", "properties": { "torre_id": "274", "tipo": "AMARRO", "tramo": "000-QUAR-274", "orden": 54, "utm_norte": 4920572.56, "utm_este": 508599.08, "cota_z": 668.83, "altura_m": 29.5, "prog_linea": "10152.902711426703", "prog_tramo": "0.06119627324990555" }, "geometry": { "type": "Point", "coordinates": [ 9.108054, 44.4384 ] } },
{ "type": "Feature", "properties": { "torre_id": "274", "tipo": "AMARRO", "tramo": "274-327", "orden": 1, "utm_norte": 4920572.56, "utm_este": 508599.08, "cota_z": 668.83, "altura_m": 29.5, "prog_linea": "10152.902711426703", "prog_tramo": "0.06119627324990555" }, "geometry": { "type": "Point", "coordinates": [ 9.108054, 44.4384 ] } },
{ "type": "Feature", "properties": { "torre_id": "275", "tipo": "AMARRO", "tramo": "274-327", "orden": 2, "utm_norte": 4920582.75, "utm_este": 508519.71, "cota_z": 720.95, "altura_m": 23.1, "prog_linea": "10232.924164800204", "prog_tramo": "0.23124716489448902" }, "geometry": { "type": "Point", "coordinates": [ 9.107057, 44.438493 ] } },
{ "type": "Feature", "properties": { "torre_id": "276", "tipo": "SOSPENSIONE", "tramo": "274-327", "orden": 3, "utm_norte": 4920597.32, "utm_este": 508402.48, "cota_z": 682.51, "altura_m": 22.5, "prog_linea": "10351.05611560107", "prog_tramo": "0.2157541626415476" }, "geometry": { "type": "Point", "coordinates": [ 9.105584, 44.438626 ] } },
{ "type": "Feature", "properties": { "torre_id": "277", "tipo": "AMARRO", "tramo": "274-327", "orden": 4, "utm_norte": 4920619.35, "utm_este": 508230.52, "cota_z": 626.73, "altura_m": 23.4, "prog_linea": "10524.421517281906", "prog_tramo": "4.705178400557496" }, "geometry": { "type": "Point", "coordinates": [ 9.103423, 44.438826 ] } },
{ "type": "Feature", "properties": { "torre_id": "278", "tipo": "SOSPENSIONE", "tramo": "274-327", "orden": 5, "utm_norte": 4920661.85, "utm_este": 508030.67, "cota_z": 604.9, "altura_m": 24.8, "prog_linea": "10728.740563139148", "prog_tramo": "0.022679467929190823" }, "geometry": { "type": "Point", "coordinates": [ 9.100913, 44.439211 ] } },
{ "type": "Feature", "properties": { "torre_id": "279", "tipo": "AMARRO", "tramo": "274-327", "orden": 6, "utm_norte": 4920690.76, "utm_este": 507894.46, "cota_z": 599.52, "altura_m": 24.8, "prog_linea": "10867.984780972416", "prog_tramo": "0.02509146583709368" }, "geometry": { "type": "Point", "coordinates": [ 9.099202, 44.439473 ] } },
{ "type": "Feature", "properties": { "torre_id": "280", "tipo": "SOSPENSIONE", "tramo": "274-327", "orden": 7, "utm_norte": 4920770.46, "utm_este": 507519.76, "cota_z": 514.28, "altura_m": 22.4, "prog_linea": "11251.067252510906", "prog_tramo": "0.08390644846087635" }, "geometry": { "type": "Point", "coordinates": [ 9.094494, 44.440194 ] } },
{ "type": "Feature", "properties": { "torre_id": "281", "tipo": "SOSPENSIONE", "tramo": "274-327", "orden": 8, "utm_norte": 4920797.26, "utm_este": 507392.85, "cota_z": 480.1, "altura_m": 22.5, "prog_linea": "11380.776111499019", "prog_tramo": "0.05928276912769414" }, "geometry": { "type": "Point", "coordinates": [ 9.0929, 44.440437 ] } },
{ "type": "Feature", "properties": { "torre_id": "282", "tipo": "SOSPENSIONE", "tramo": "274-327", "orden": 9, "utm_norte": 4920836.02, "utm_este": 507208.36, "cota_z": 450.78, "altura_m": 22.4, "prog_linea": "11569.293743830796", "prog_tramo": "0.2608300230191206" }, "geometry": { "type": "Point", "coordinates": [ 9.090582, 44.440787 ] } },
{ "type": "Feature", "properties": { "torre_id": "283", "tipo": "AMARRO", "tramo": "274-327", "orden": 10, "utm_norte": 4920879.22, "utm_este": 507007.29, "cota_z": 420.4, "altura_m": 29.6, "prog_linea": "11774.95216184479", "prog_tramo": "0.09518259661092926" }, "geometry": { "type": "Point", "coordinates": [ 9.088056, 44.441178 ] } },
{ "type": "Feature", "properties": { "torre_id": "284", "tipo": "AMARRO", "tramo": "274-327", "orden": 11, "utm_norte": 4920902.2, "utm_este": 506899.46, "cota_z": 378.7, "altura_m": 25.9, "prog_linea": "11885.20364392105", "prog_tramo": "0.09390027849833275" }, "geometry": { "type": "Point", "coordinates": [ 9.086701, 44.441386 ] } },
{ "type": "Feature", "properties": { "torre_id": "285", "tipo": "AMARRO", "tramo": "274-327", "orden": 12, "utm_norte": 4920919.0, "utm_este": 506819.99, "cota_z": 344.01, "altura_m": 23.5, "prog_linea": "11966.429999865402", "prog_tramo": "0.011665082197802594" }, "geometry": { "type": "Point", "coordinates": [ 9.085703, 44.441538 ] } },
{ "type": "Feature", "properties": { "torre_id": "286", "tipo": "AMARRO", "tramo": "274-327", "orden": 13, "utm_norte": 4920994.11, "utm_este": 506465.05, "cota_z": 350.27, "altura_m": 26.9, "prog_linea": "12329.230104192911", "prog_tramo": "0.11366442896693407" }, "geometry": { "type": "Point", "coordinates": [ 9.081243, 44.442218 ] } },
{ "type": "Feature", "properties": { "torre_id": "287", "tipo": "AMARRO", "tramo": "274-327", "orden": 14, "utm_norte": 4921032.08, "utm_este": 506287.36, "cota_z": 454.85, "altura_m": 27.2, "prog_linea": "12510.931664450332", "prog_tramo": "4.264456883162239" }, "geometry": { "type": "Point", "coordinates": [ 9.079011, 44.442561 ] } },
{ "type": "Feature", "properties": { "torre_id": "288", "tipo": "SOSPENSIONE", "tramo": "274-327", "orden": 15, "utm_norte": 4921128.24, "utm_este": 505959.08, "cota_z": 427.41, "altura_m": 23.4, "prog_linea": "12853.005492738917", "prog_tramo": "0.004175380781687821" }, "geometry": { "type": "Point", "coordinates": [ 9.074887, 44.44343 ] } },
{ "type": "Feature", "properties": { "torre_id": "289", "tipo": "SOSPENSIONE", "tramo": "274-327", "orden": 16, "utm_norte": 4921188.68, "utm_este": 505752.8, "cota_z": 424.77, "altura_m": 26.9, "prog_linea": "13067.957654858652", "prog_tramo": "0.0072912033001393305" }, "geometry": { "type": "Point", "coordinates": [ 9.072295, 44.443975 ] } },
{ "type": "Feature", "properties": { "torre_id": "290", "tipo": "AMARRO", "tramo": "274-327", "orden": 17, "utm_norte": 4921258.91, "utm_este": 505513.22, "cota_z": 427.29, "altura_m": 29.2, "prog_linea": "13317.61908419861", "prog_tramo": "12.804850276734488" }, "geometry": { "type": "Point", "coordinates": [ 9.069285, 44.44461 ] } },
{ "type": "Feature", "properties": { "torre_id": "291", "tipo": "AMARRO", "tramo": "274-327", "orden": 18, "utm_norte": 4921263.74, "utm_este": 505434.99, "cota_z": 402.44, "altura_m": 22.3, "prog_linea": "13395.998046937331", "prog_tramo": "0.12357685903333991" }, "geometry": { "type": "Point", "coordinates": [ 9.068302, 44.444654 ] } },
{ "type": "Feature", "properties": { "torre_id": "292", "tipo": "SOSPENSIONE", "tramo": "274-327", "orden": 19, "utm_norte": 4921282.13, "utm_este": 505126.31, "cota_z": 370.52, "altura_m": 22.3, "prog_linea": "13705.22536542647", "prog_tramo": "0.5170209963037069" }, "geometry": { "type": "Point", "coordinates": [ 9.064423, 44.444821 ] } },
{ "type": "Feature", "properties": { "torre_id": "293", "tipo": "AMARRO", "tramo": "274-327", "orden": 20, "utm_norte": 4921298.13, "utm_este": 504893.2, "cota_z": 418.31, "altura_m": 29.1, "prog_linea": "13938.88381723165", "prog_tramo": "12.680248723413385" }, "geometry": { "type": "Point", "coordinates": [ 9.061494, 44.444967 ] } },
{ "type": "Feature", "properties": { "torre_id": "294", "tipo": "AMARRO", "tramo": "274-327", "orden": 21, "utm_norte": 4921348.64, "utm_este": 504723.84, "cota_z": 406.43, "altura_m": 29.1, "prog_linea": "14115.61544909186", "prog_tramo": "1.7640405703592532" }, "geometry": { "type": "Point", "coordinates": [ 9.059366, 44.445423 ] } },
{ "type": "Feature", "properties": { "torre_id": "295", "tipo": "AMARRO", "tramo": "274-327", "orden": 22, "utm_norte": 4921397.56, "utm_este": 504576.53, "cota_z": 378.76, "altura_m": 29.0, "prog_linea": "14270.835945483257", "prog_tramo": "0.017609717298891988" }, "geometry": { "type": "Point", "coordinates": [ 9.057515, 44.445864 ] } },
{ "type": "Feature", "properties": { "torre_id": "296", "tipo": "AMARRO", "tramo": "274-327", "orden": 23, "utm_norte": 4921473.62, "utm_este": 504347.73, "cota_z": 435.35, "altura_m": 23.5, "prog_linea": "14511.947047674967", "prog_tramo": "0.04879837531771892" }, "geometry": { "type": "Point", "coordinates": [ 9.05464, 44.446551 ] } },
{ "type": "Feature", "properties": { "torre_id": "297", "tipo": "SOSPENSIONE", "tramo": "274-327", "orden": 24, "utm_norte": 4921570.44, "utm_este": 504055.65, "cota_z": 544.39, "altura_m": 26.3, "prog_linea": "14819.656064117504", "prog_tramo": "0.1029706678875728" }, "geometry": { "type": "Point", "coordinates": [ 9.05097, 44.447424 ] } },
{ "type": "Feature", "properties": { "torre_id": "298", "tipo": "AMARRO", "tramo": "274-327", "orden": 25, "utm_norte": 4921615.8, "utm_este": 503919.63, "cota_z": 517.04, "altura_m": 22.3, "prog_linea": "14963.040059040059", "prog_tramo": "15.467165058272244" }, "geometry": { "type": "Point", "coordinates": [ 9.049261, 44.447833 ] } },
{ "type": "Feature", "properties": { "torre_id": "299", "tipo": "SOSPENSIONE", "tramo": "274-327", "orden": 26, "utm_norte": 4921657.78, "utm_este": 503857.18, "cota_z": 499.63, "altura_m": 22.4, "prog_linea": "15038.288466996899", "prog_tramo": "0.23281984288461027" }, "geometry": { "type": "Point", "coordinates": [ 9.048476, 44.448211 ] } },
{ "type": "Feature", "properties": { "torre_id": "300", "tipo": "AMARRO", "tramo": "274-327", "orden": 27, "utm_norte": 4921780.59, "utm_este": 503676.08, "cota_z": 436.5, "altura_m": 24.8, "prog_linea": "15257.102328760478", "prog_tramo": "0.13406770421884276" }, "geometry": { "type": "Point", "coordinates": [ 9.046201, 44.449318 ] } },
{ "type": "Feature", "properties": { "torre_id": "301", "tipo": "AMARRO", "tramo": "274-327", "orden": 28, "utm_norte": 4921914.59, "utm_este": 503477.48, "cota_z": 407.52, "altura_m": 22.3, "prog_linea": "15496.681042339156", "prog_tramo": "0.05053940088228076" }, "geometry": { "type": "Point", "coordinates": [ 9.043706, 44.450525 ] } },
{ "type": "Feature", "properties": { "torre_id": "302", "tipo": "AMARRO", "tramo": "274-327", "orden": 29, "utm_norte": 4922091.9, "utm_este": 503215.19, "cota_z": 332.46, "altura_m": 21.7, "prog_linea": "15813.279968743169", "prog_tramo": "15.890735227852822" }, "geometry": { "type": "Point", "coordinates": [ 9.040411, 44.452123 ] } },
{ "type": "Feature", "properties": { "torre_id": "303", "tipo": "AMARRO", "tramo": "274-327", "orden": 30, "utm_norte": 4922117.32, "utm_este": 503137.73, "cota_z": 307.77, "altura_m": 22.3, "prog_linea": "15894.80436999825", "prog_tramo": "0.15613815669461817" }, "geometry": { "type": "Point", "coordinates": [ 9.039437, 44.452352 ] } },
{ "type": "Feature", "properties": { "torre_id": "304", "tipo": "AMARRO", "tramo": "274-327", "orden": 31, "utm_norte": 4922149.78, "utm_este": 503039.72, "cota_z": 262.1, "altura_m": 22.8, "prog_linea": "15998.049765537226", "prog_tramo": "0.05915645279819648" }, "geometry": { "type": "Point", "coordinates": [ 9.038206, 44.452645 ] } },
{ "type": "Feature", "properties": { "torre_id": "305", "tipo": "AMARRO", "tramo": "274-327", "orden": 32, "utm_norte": 4922258.19, "utm_este": 502711.25, "cota_z": 265.0, "altura_m": 25.1, "prog_linea": "16343.947538007667", "prog_tramo": "0.48670855993306994" }, "geometry": { "type": "Point", "coordinates": [ 9.034078, 44.453622 ] } },
{ "type": "Feature", "properties": { "torre_id": "306", "tipo": "AMARRO", "tramo": "274-327", "orden": 33, "utm_norte": 4922283.39, "utm_este": 502632.66, "cota_z": 296.01, "altura_m": 25.2, "prog_linea": "16426.478914465148", "prog_tramo": "11.49875012762696" }, "geometry": { "type": "Point", "coordinates": [ 9.03309, 44.453849 ] } },
{ "type": "Feature", "properties": { "torre_id": "307", "tipo": "AMARRO", "tramo": "274-327", "orden": 34, "utm_norte": 4922307.79, "utm_este": 502410.93, "cota_z": 342.67, "altura_m": 24.3, "prog_linea": "16649.547408206443", "prog_tramo": "1.1661328422769985" }, "geometry": { "type": "Point", "coordinates": [ 9.030303, 44.454069 ] } },
{ "type": "Feature", "properties": { "torre_id": "308", "tipo": "AMARRO", "tramo": "274-327", "orden": 35, "utm_norte": 4922316.4, "utm_este": 502345.05, "cota_z": 358.52, "altura_m": 26.9, "prog_linea": "16715.987655797842", "prog_tramo": "24.511746782767545" }, "geometry": { "type": "Point", "coordinates": [ 9.029475, 44.454147 ] } },
{ "type": "Feature", "properties": { "torre_id": "309", "tipo": "AMARRO", "tramo": "274-327", "orden": 36, "utm_norte": 4922404.63, "utm_este": 502203.62, "cota_z": 306.13, "altura_m": 24.4, "prog_linea": "16882.681920246", "prog_tramo": "0.4659637168235292" }, "geometry": { "type": "Point", "coordinates": [ 9.027698, 44.454942 ] } },
{ "type": "Feature", "properties": { "torre_id": "310", "tipo": "AMARRO", "tramo": "274-327", "orden": 37, "utm_norte": 4922487.76, "utm_este": 502067.92, "cota_z": 273.56, "altura_m": 26.4, "prog_linea": "17041.820497907058", "prog_tramo": "0.5378926190721477" }, "geometry": { "type": "Point", "coordinates": [ 9.025993, 44.455691 ] } },
{ "type": "Feature", "properties": { "torre_id": "311", "tipo": "AMARRO", "tramo": "274-327", "orden": 38, "utm_norte": 4922608.88, "utm_este": 501874.31, "cota_z": 284.38, "altura_m": 23.2, "prog_linea": "17270.194941529855", "prog_tramo": "0.21075896865186614" }, "geometry": { "type": "Point", "coordinates": [ 9.023559, 44.456782 ] } },
{ "type": "Feature", "properties": { "torre_id": "312", "tipo": "SOSPENSIONE", "tramo": "274-327", "orden": 39, "utm_norte": 4922766.96, "utm_este": 501619.54, "cota_z": 378.85, "altura_m": 24.3, "prog_linea": "17570.023291256883", "prog_tramo": "0.09555473250266758" }, "geometry": { "type": "Point", "coordinates": [ 9.020358, 44.458205 ] } },
{ "type": "Feature", "properties": { "torre_id": "313", "tipo": "AMARRO", "tramo": "274-327", "orden": 40, "utm_norte": 4922807.18, "utm_este": 501554.96, "cota_z": 410.25, "altura_m": 23.4, "prog_linea": "17646.10367506226", "prog_tramo": "34.01380544470619" }, "geometry": { "type": "Point", "coordinates": [ 9.019546, 44.458568 ] } },
{ "type": "Feature", "properties": { "torre_id": "314", "tipo": "SOSPENSIONE", "tramo": "274-327", "orden": 41, "utm_norte": 4922805.28, "utm_este": 501503.13, "cota_z": 389.56, "altura_m": 23.7, "prog_linea": "17697.968488760947", "prog_tramo": "0.16903027634680248" }, "geometry": { "type": "Point", "coordinates": [ 9.018894, 44.458551 ] } },
{ "type": "Feature", "properties": { "torre_id": "315", "tipo": "SOSPENSIONE", "tramo": "274-327", "orden": 42, "utm_norte": 4922796.23, "utm_este": 501234.62, "cota_z": 298.63, "altura_m": 26.8, "prog_linea": "17966.630958413858", "prog_tramo": "0.08122355304147262" }, "geometry": { "type": "Point", "coordinates": [ 9.015519, 44.45847 ] } },
{ "type": "Feature", "properties": { "torre_id": "316", "tipo": "AMARRO", "tramo": "274-327", "orden": 43, "utm_norte": 4922791.45, "utm_este": 501098.53, "cota_z": 204.12, "altura_m": 24.3, "prog_linea": "18102.804878457286", "prog_tramo": "0.06400963969282207" }, "geometry": { "type": "Point", "coordinates": [ 9.013809, 44.458427 ] } },
{ "type": "Feature", "properties": { "torre_id": "317", "tipo": "AMARRO", "tramo": "274-327", "orden": 44, "utm_norte": 4922781.7, "utm_este": 500811.81, "cota_z": 242.06, "altura_m": 32.4, "prog_linea": "18389.690606404874", "prog_tramo": "0.42216857410689745" }, "geometry": { "type": "Point", "coordinates": [ 9.010204, 44.458339 ] } },
{ "type": "Feature", "properties": { "torre_id": "318", "tipo": "AMARRO", "tramo": "274-327", "orden": 45, "utm_norte": 4922775.66, "utm_este": 500665.86, "cota_z": 305.52, "altura_m": 23.4, "prog_linea": "18535.765532726964", "prog_tramo": "0.6277385741269877" }, "geometry": { "type": "Point", "coordinates": [ 9.00837, 44.458285 ] } },
{ "type": "Feature", "properties": { "torre_id": "319", "tipo": "SOSPENSIONE", "tramo": "274-327", "orden": 46, "utm_norte": 4922770.83, "utm_este": 500507.05, "cota_z": 338.97, "altura_m": 32.9, "prog_linea": "18694.648964839944", "prog_tramo": "0.06910331234180363" }, "geometry": { "type": "Point", "coordinates": [ 9.006374, 44.458242 ] } },
{ "type": "Feature", "properties": { "torre_id": "320", "tipo": "AMARRO", "tramo": "274-327", "orden": 47, "utm_norte": 4922764.41, "utm_este": 500304.02, "cota_z": 402.55, "altura_m": 32.3, "prog_linea": "18897.78044270585", "prog_tramo": "0.12230691728231466" }, "geometry": { "type": "Point", "coordinates": [ 9.003822, 44.458184 ] } },
{ "type": "Feature", "properties": { "torre_id": "321", "tipo": "AMARRO", "tramo": "274-327", "orden": 48, "utm_norte": 4922758.95, "utm_este": 500142.28, "cota_z": 450.02, "altura_m": 30.1, "prog_linea": "19059.61257548546", "prog_tramo": "21.131963520217855" }, "geometry": { "type": "Point", "coordinates": [ 9.001788, 44.458135 ] } },
{ "type": "Feature", "properties": { "torre_id": "322", "tipo": "AMARRO", "tramo": "274-327", "orden": 49, "utm_norte": 4922782.75, "utm_este": 500073.93, "cota_z": 463.09, "altura_m": 35.7, "prog_linea": "19131.9877266079", "prog_tramo": "60.30733554106232" }, "geometry": { "type": "Point", "coordinates": [ 9.000929, 44.458349 ] } },
{ "type": "Feature", "properties": { "torre_id": "323", "tipo": "SOSPENSIONE", "tramo": "274-327", "orden": 50, "utm_norte": 4922612.23, "utm_este": 499878.52, "cota_z": 369.67, "altura_m": 39.8, "prog_linea": "19391.337179084356", "prog_tramo": "1.3843399018216598" }, "geometry": { "type": "Point", "coordinates": [ 8.998473, 44.456814 ] } },
{ "type": "Feature", "properties": { "torre_id": "324", "tipo": "SOSPENSIONE", "tramo": "274-327", "orden": 51, "utm_norte": 4922554.46, "utm_este": 499815.46, "cota_z": 350.05, "altura_m": 46.4, "prog_linea": "19476.858734846955", "prog_tramo": "0.44443559662661736" }, "geometry": { "type": "Point", "coordinates": [ 8.99768, 44.456294 ] } },
{ "type": "Feature", "properties": { "torre_id": "325", "tipo": "SOSPENSIONE", "tramo": "274-327", "orden": 52, "utm_norte": 4922270.44, "utm_este": 499510.22, "cota_z": 179.54, "altura_m": 43.9, "prog_linea": "19893.79856024119", "prog_tramo": "2.062402485157886" }, "geometry": { "type": "Point", "coordinates": [ 8.993844, 44.453737 ] } },
{ "type": "Feature", "properties": { "torre_id": "326", "tipo": "AMARRO", "tramo": "274-327", "orden": 53, "utm_norte": 4922166.72, "utm_este": 499406.5, "cota_z": 122.37, "altura_m": 50.3, "prog_linea": "20040.480790930982", "prog_tramo": "12.720220029419014" }, "geometry": { "type": "Point", "coordinates": [ 8.99254, 44.452803 ] } },
{ "type": "Feature", "properties": { "torre_id": "327", "tipo": "AMARRO", "tramo": "274-327", "orden": 54, "utm_norte": 4921953.02, "utm_este": 499271.51, "cota_z": 149.0, "altura_m": 37.0, "prog_linea": "20293.245484074778", "prog_tramo": "34.98071695984182" }, "geometry": { "type": "Point", "coordinates": [ 8.990844, 44.450879 ] } },
{ "type": "Feature", "properties": { "torre_id": "327", "tipo": "AMARRO", "tramo": "327-999-MOLA", "orden": 1, "utm_norte": 4921953.02, "utm_este": 499271.51, "cota_z": 149.0, "altura_m": 37.0, "prog_linea": "20293.245484074778", "prog_tramo": "34.98071695984182" }, "geometry": { "type": "Point", "coordinates": [ 8.990844, 44.450879 ] } },
{ "type": "Feature", "properties": { "torre_id": "328", "tipo": "AMARRO", "tramo": "327-999-MOLA", "orden": 2, "utm_norte": 4921847.36, "utm_este": 499019.41, "cota_z": 299.97, "altura_m": 40.9, "prog_linea": "20566.59223382654", "prog_tramo": "23.64953116301272" }, "geometry": { "type": "Point", "coordinates": [ 8.987676, 44.449928 ] } },
{ "type": "Feature", "properties": { "torre_id": "329", "tipo": "AMARRO", "tramo": "327-999-MOLA", "orden": 3, "utm_norte": 4921854.05, "utm_este": 498598.24, "cota_z": 302.15, "altura_m": 42.8, "prog_linea": "20987.815363533326", "prog_tramo": "0.019830874313987293" }, "geometry": { "type": "Point", "coordinates": [ 8.982382, 44.449987 ] } },
{ "type": "Feature", "properties": { "torre_id": "330", "tipo": "SOSPENSIONE", "tramo": "327-999-MOLA", "orden": 4, "utm_norte": 4921857.79, "utm_este": 498367.81, "cota_z": 233.22, "altura_m": 35.3, "prog_linea": "21218.2757126175", "prog_tramo": "0.046790893405343564" }, "geometry": { "type": "Point", "coordinates": [ 8.979486, 44.45002 ] } },
{ "type": "Feature", "properties": { "torre_id": "331", "tipo": "AMARRO", "tramo": "327-999-MOLA", "orden": 5, "utm_norte": 4921861.3, "utm_este": 498140.09, "cota_z": 121.46, "altura_m": 31.5, "prog_linea": "21446.02276199462", "prog_tramo": "43.70658863557869" }, "geometry": { "type": "Point", "coordinates": [ 8.976624, 44.450051 ] } },
{ "type": "Feature", "properties": { "torre_id": "999-MOLA", "tipo": "AMARRO", "tramo": "327-999-MOLA", "orden": 6, "utm_norte": 4921918.83, "utm_este": 498081.73, "cota_z": 67.71, "altura_m": 17.6, "prog_linea": "21527.971468513", "prog_tramo": "" }, "geometry": { "type": "Point", "coordinates": [ 8.97589, 44.450569 ] } }
]
}
