{
"type": "FeatureCollection",
"name": "buffer_400m",
"xy_coordinate_resolution": 1e-06,
"features": [
{ "type": "Feature", "properties": { "distancia_m": 400, "descripcion": "Corredor de trabajo: 400 m a cada lado del eje" }, "geometry": { "type": "Polygon", "coordinates": [ [ [ 8.978524, 44.453632 ], [ 8.978227, 44.453758 ], [ 8.97778, 44.453906 ], [ 8.977314, 44.454023 ], [ 8.976835, 44.454106 ], [ 8.976346, 44.454155 ], [ 8.975853, 44.45417 ], [ 8.97536, 44.45415 ], [ 8.974873, 44.454096 ], [ 8.974395, 44.454007 ], [ 8.973932, 44.453886 ], [ 8.973487, 44.453732 ], [ 8.973066, 44.453548 ], [ 8.972672, 44.453336 ], [ 8.972309, 44.453096 ], [ 8.97198, 44.452833 ], [ 8.97169, 44.452547 ], [ 8.971439, 44.452243 ], [ 8.971232, 44.451922 ], [ 8.971069, 44.451589 ], [ 8.970953, 44.451245 ], [ 8.970884, 44.450895 ], [ 8.970863, 44.450542 ], [ 8.970891, 44.450189 ], [ 8.970967, 44.44984 ], [ 8.971091, 44.449498 ], [ 8.97126, 44.449166 ], [ 8.971475, 44.448848 ], [ 8.971731, 44.448546 ], [ 8.972028, 44.448264 ], [ 8.972362, 44.448004 ], [ 8.973096, 44.447486 ], [ 8.973453, 44.447257 ], [ 8.973839, 44.447054 ], [ 8.97425, 44.446877 ], [ 8.974683, 44.44673 ], [ 8.975133, 44.446612 ], [ 8.975597, 44.446526 ], [ 8.97607, 44.446472 ], [ 8.976548, 44.446451 ], [ 8.979408, 44.44642 ], [ 8.982304, 44.446386 ], [ 8.987597, 44.446327 ], [ 8.988115, 44.44634 ], [ 8.988628, 44.446392 ], [ 8.989132, 44.446481 ], [ 8.98962, 44.446607 ], [ 8.992788, 44.447558 ], [ 8.992836, 44.447575 ], [ 8.992887, 44.447589 ], [ 8.993059, 44.447651 ], [ 8.993233, 44.447711 ], [ 8.993279, 44.447731 ], [ 8.993327, 44.447748 ], [ 8.99349, 44.447822 ], [ 8.993655, 44.447894 ], [ 8.993698, 44.447917 ], [ 8.993744, 44.447937 ], [ 8.993896, 44.448023 ], [ 8.99405, 44.448105 ], [ 8.99409, 44.448131 ], [ 8.994132, 44.448155 ], [ 8.994272, 44.448251 ], [ 8.994414, 44.448344 ], [ 8.99445, 44.448372 ], [ 8.994489, 44.448399 ], [ 8.994615, 44.448504 ], [ 8.994744, 44.448607 ], [ 8.994776, 44.448638 ], [ 8.994811, 44.448667 ], [ 8.994922, 44.44878 ], [ 8.995036, 44.448891 ], [ 8.995064, 44.448925 ], [ 8.995095, 44.448956 ], [ 8.996492, 44.450541 ], [ 8.997335, 44.451145 ], [ 9.001091, 44.453648 ], [ 9.001825, 44.45413 ], [ 9.002496, 44.454549 ], [ 9.003986, 44.454585 ], [ 9.006529, 44.454643 ], [ 9.008522, 44.454686 ], [ 9.008577, 44.454687 ], [ 9.010393, 44.454741 ], [ 9.013979, 44.454828 ], [ 9.013984, 44.454828 ], [ 9.015691, 44.454871 ], [ 9.01819, 44.454931 ], [ 9.0209, 44.453726 ], [ 9.023325, 44.452638 ], [ 9.023365, 44.452621 ], [ 9.025053, 44.451879 ], [ 9.026813, 44.451092 ], [ 9.027283, 44.450906 ], [ 9.027779, 44.450757 ], [ 9.028294, 44.450647 ], [ 9.028822, 44.450577 ], [ 9.02965, 44.450499 ], [ 9.029751, 44.45049 ], [ 9.032035, 44.450309 ], [ 9.03252, 44.450198 ], [ 9.036625, 44.449226 ], [ 9.037854, 44.448934 ], [ 9.037867, 44.448931 ], [ 9.038174, 44.448859 ], [ 9.040892, 44.447541 ], [ 9.043382, 44.446336 ], [ 9.045653, 44.445232 ], [ 9.04567, 44.445224 ], [ 9.046454, 44.444846 ], [ 9.04684, 44.444677 ], [ 9.047246, 44.444534 ], [ 9.047668, 44.444417 ], [ 9.049377, 44.444008 ], [ 9.049385, 44.444006 ], [ 9.053053, 44.443134 ], [ 9.055927, 44.442448 ], [ 9.057778, 44.442006 ], [ 9.057926, 44.441973 ], [ 9.060053, 44.441517 ], [ 9.060594, 44.441424 ], [ 9.061146, 44.441375 ], [ 9.064075, 44.441229 ], [ 9.06412, 44.441227 ], [ 9.067993, 44.441059 ], [ 9.068408, 44.441041 ], [ 9.070878, 44.44052 ], [ 9.073469, 44.439975 ], [ 9.077593, 44.439106 ], [ 9.077956, 44.43904 ], [ 9.080188, 44.438697 ], [ 9.080198, 44.438695 ], [ 9.084658, 44.438016 ], [ 9.085652, 44.437864 ], [ 9.086999, 44.437658 ], [ 9.089521, 44.437268 ], [ 9.089543, 44.437264 ], [ 9.091858, 44.436914 ], [ 9.093447, 44.436672 ], [ 9.098152, 44.435951 ], [ 9.099862, 44.435689 ], [ 9.102372, 44.435305 ], [ 9.102778, 44.435255 ], [ 9.104939, 44.435054 ], [ 9.104958, 44.435053 ], [ 9.10642, 44.434921 ], [ 9.107407, 44.434829 ], [ 9.10741, 44.434829 ], [ 9.107413, 44.434829 ], [ 9.11103, 44.434495 ], [ 9.111367, 44.434472 ], [ 9.115272, 44.434302 ], [ 9.116282, 44.434258 ], [ 9.119265, 44.434129 ], [ 9.121676, 44.434012 ], [ 9.122186, 44.434006 ], [ 9.122693, 44.434036 ], [ 9.123194, 44.434104 ], [ 9.124756, 44.434373 ], [ 9.125048, 44.434394 ], [ 9.125331, 44.434244 ], [ 9.125745, 44.434066 ], [ 9.126182, 44.433917 ], [ 9.126637, 44.433798 ], [ 9.127105, 44.433712 ], [ 9.127583, 44.433658 ], [ 9.128066, 44.433637 ], [ 9.131165, 44.433611 ], [ 9.133438, 44.433512 ], [ 9.135954, 44.433403 ], [ 9.138663, 44.433285 ], [ 9.139957, 44.433228 ], [ 9.143757, 44.433063 ], [ 9.146361, 44.43295 ], [ 9.149209, 44.432823 ], [ 9.149965, 44.432788 ], [ 9.152879, 44.431671 ], [ 9.153333, 44.431518 ], [ 9.153807, 44.431397 ], [ 9.154296, 44.431311 ], [ 9.154794, 44.43126 ], [ 9.155296, 44.431246 ], [ 9.155798, 44.431267 ], [ 9.156295, 44.431324 ], [ 9.156781, 44.431417 ], [ 9.157252, 44.431544 ], [ 9.159741, 44.432318 ], [ 9.161501, 44.432859 ], [ 9.161609, 44.432892 ], [ 9.164315, 44.433014 ], [ 9.165703, 44.433077 ], [ 9.167187, 44.4327 ], [ 9.168581, 44.432339 ], [ 9.168648, 44.432323 ], [ 9.170645, 44.431829 ], [ 9.173488, 44.431127 ], [ 9.176328, 44.430412 ], [ 9.176335, 44.430411 ], [ 9.1789, 44.429768 ], [ 9.179443, 44.429631 ], [ 9.183546, 44.428442 ], [ 9.183552, 44.428441 ], [ 9.184616, 44.428134 ], [ 9.187164, 44.427302 ], [ 9.188462, 44.426876 ], [ 9.188479, 44.42687 ], [ 9.190031, 44.426366 ], [ 9.191626, 44.425843 ], [ 9.193364, 44.425272 ], [ 9.193382, 44.425266 ], [ 9.196219, 44.424344 ], [ 9.199335, 44.423325 ], [ 9.199352, 44.42332 ], [ 9.2004, 44.42298 ], [ 9.20345, 44.421983 ], [ 9.203457, 44.421981 ], [ 9.204657, 44.42159 ], [ 9.205613, 44.421069 ], [ 9.205618, 44.421066 ], [ 9.207588, 44.419994 ], [ 9.209976, 44.41869 ], [ 9.211496, 44.417859 ], [ 9.211504, 44.417855 ], [ 9.212374, 44.417381 ], [ 9.212724, 44.417191 ], [ 9.212638, 44.417037 ], [ 9.212502, 44.416698 ], [ 9.212412, 44.41635 ], [ 9.21237, 44.415998 ], [ 9.212377, 44.415645 ], [ 9.212432, 44.415294 ], [ 9.212535, 44.414948 ], [ 9.212684, 44.414611 ], [ 9.212879, 44.414287 ], [ 9.213117, 44.413977 ], [ 9.213397, 44.413686 ], [ 9.213714, 44.413416 ], [ 9.214068, 44.413169 ], [ 9.214453, 44.412949 ], [ 9.214867, 44.412757 ], [ 9.215305, 44.412594 ], [ 9.215763, 44.412463 ], [ 9.216236, 44.412365 ], [ 9.218602, 44.411965 ], [ 9.219077, 44.411901 ], [ 9.219558, 44.411871 ], [ 9.220041, 44.411874 ], [ 9.220521, 44.41191 ], [ 9.220994, 44.411979 ], [ 9.221456, 44.41208 ], [ 9.221902, 44.412212 ], [ 9.222328, 44.412375 ], [ 9.222731, 44.412566 ], [ 9.223106, 44.412784 ], [ 9.224454, 44.413648 ], [ 9.224459, 44.413651 ], [ 9.225145, 44.414091 ], [ 9.225494, 44.414339 ], [ 9.225808, 44.41461 ], [ 9.226083, 44.414901 ], [ 9.226318, 44.41521 ], [ 9.226509, 44.415534 ], [ 9.226655, 44.415871 ], [ 9.226755, 44.416215 ], [ 9.226807, 44.416565 ], [ 9.226812, 44.416917 ], [ 9.226768, 44.417268 ], [ 9.226677, 44.417614 ], [ 9.226539, 44.417952 ], [ 9.226356, 44.418278 ], [ 9.226129, 44.41859 ], [ 9.225861, 44.418885 ], [ 9.225554, 44.41916 ], [ 9.225211, 44.419412 ], [ 9.224835, 44.419638 ], [ 9.222127, 44.421116 ], [ 9.22024, 44.422143 ], [ 9.218452, 44.423117 ], [ 9.217586, 44.423588 ], [ 9.216068, 44.424417 ], [ 9.213676, 44.425724 ], [ 9.213669, 44.425728 ], [ 9.211698, 44.426801 ], [ 9.210295, 44.427566 ], [ 9.209829, 44.427792 ], [ 9.20933, 44.427979 ], [ 9.207618, 44.428537 ], [ 9.204564, 44.429536 ], [ 9.204548, 44.429541 ], [ 9.2035, 44.42988 ], [ 9.200386, 44.430898 ], [ 9.200376, 44.430902 ], [ 9.197543, 44.431822 ], [ 9.195812, 44.432391 ], [ 9.195806, 44.432393 ], [ 9.194202, 44.432918 ], [ 9.194191, 44.432922 ], [ 9.192643, 44.433425 ], [ 9.191348, 44.433851 ], [ 9.191335, 44.433855 ], [ 9.188679, 44.434722 ], [ 9.188475, 44.434784 ], [ 9.187311, 44.43512 ], [ 9.183103, 44.43634 ], [ 9.182886, 44.436398 ], [ 9.18223, 44.436564 ], [ 9.182222, 44.436565 ], [ 9.179656, 44.437208 ], [ 9.176804, 44.437926 ], [ 9.176775, 44.437933 ], [ 9.173919, 44.438638 ], [ 9.171961, 44.439122 ], [ 9.170587, 44.439478 ], [ 9.170562, 44.439484 ], [ 9.168093, 44.440112 ], [ 9.167606, 44.440216 ], [ 9.167107, 44.440285 ], [ 9.166601, 44.440317 ], [ 9.166092, 44.440312 ], [ 9.163678, 44.440202 ], [ 9.160126, 44.440042 ], [ 9.159566, 44.439994 ], [ 9.159017, 44.439901 ], [ 9.158486, 44.439765 ], [ 9.157577, 44.43949 ], [ 9.157551, 44.439482 ], [ 9.155766, 44.438934 ], [ 9.155747, 44.438927 ], [ 9.155477, 44.438844 ], [ 9.153747, 44.439507 ], [ 9.153262, 44.439669 ], [ 9.152756, 44.439794 ], [ 9.152234, 44.43988 ], [ 9.151702, 44.439925 ], [ 9.149853, 44.440011 ], [ 9.149839, 44.440011 ], [ 9.14698, 44.440139 ], [ 9.14697, 44.440139 ], [ 9.144363, 44.440252 ], [ 9.140566, 44.440417 ], [ 9.139272, 44.440474 ], [ 9.136562, 44.440592 ], [ 9.134046, 44.440701 ], [ 9.131654, 44.440805 ], [ 9.131407, 44.440812 ], [ 9.129944, 44.440824 ], [ 9.129792, 44.440913 ], [ 9.129396, 44.441123 ], [ 9.128972, 44.441304 ], [ 9.128526, 44.441454 ], [ 9.128062, 44.441573 ], [ 9.127583, 44.441658 ], [ 9.127095, 44.44171 ], [ 9.126602, 44.441726 ], [ 9.12611, 44.441708 ], [ 9.123414, 44.441515 ], [ 9.122738, 44.441433 ], [ 9.121589, 44.441235 ], [ 9.119927, 44.441316 ], [ 9.119889, 44.441318 ], [ 9.116888, 44.441448 ], [ 9.11588, 44.441491 ], [ 9.112146, 44.441654 ], [ 9.108698, 44.441972 ], [ 9.107703, 44.442064 ], [ 9.107683, 44.442066 ], [ 9.10622, 44.442198 ], [ 9.104273, 44.442378 ], [ 9.101962, 44.442733 ], [ 9.100252, 44.442994 ], [ 9.095546, 44.443716 ], [ 9.095539, 44.443717 ], [ 9.093944, 44.443959 ], [ 9.093939, 44.44396 ], [ 9.091632, 44.444309 ], [ 9.089117, 44.444698 ], [ 9.089109, 44.4447 ], [ 9.087754, 44.444908 ], [ 9.087746, 44.444909 ], [ 9.086748, 44.445061 ], [ 9.082294, 44.445739 ], [ 9.080249, 44.446054 ], [ 9.076304, 44.446885 ], [ 9.073713, 44.44743 ], [ 9.070703, 44.448064 ], [ 9.070157, 44.448156 ], [ 9.069599, 44.448204 ], [ 9.068616, 44.448248 ], [ 9.068605, 44.448248 ], [ 9.064749, 44.448415 ], [ 9.062399, 44.448532 ], [ 9.06088, 44.448857 ], [ 9.059103, 44.449281 ], [ 9.056225, 44.449968 ], [ 9.052559, 44.45084 ], [ 9.051502, 44.451093 ], [ 9.051292, 44.451195 ], [ 9.049025, 44.452297 ], [ 9.049016, 44.452302 ], [ 9.046522, 44.453508 ], [ 9.043229, 44.455105 ], [ 9.042832, 44.455279 ], [ 9.042415, 44.455425 ], [ 9.041981, 44.455544 ], [ 9.041014, 44.455771 ], [ 9.039789, 44.456062 ], [ 9.039784, 44.456064 ], [ 9.035656, 44.457041 ], [ 9.035615, 44.45705 ], [ 9.034627, 44.457278 ], [ 9.03414, 44.457371 ], [ 9.033642, 44.457428 ], [ 9.031199, 44.457622 ], [ 9.030361, 44.457997 ], [ 9.030326, 44.458012 ], [ 9.028641, 44.458752 ], [ 9.026227, 44.459834 ], [ 9.026212, 44.459841 ], [ 9.023013, 44.461263 ], [ 9.022205, 44.461624 ], [ 9.021771, 44.461797 ], [ 9.021314, 44.461939 ], [ 9.020841, 44.462047 ], [ 9.020354, 44.462122 ], [ 9.01986, 44.462162 ], [ 9.019363, 44.462166 ], [ 9.018719, 44.46215 ], [ 9.015351, 44.462069 ], [ 9.015344, 44.462069 ], [ 9.013636, 44.462026 ], [ 9.010034, 44.461939 ], [ 9.009997, 44.461938 ], [ 9.00819, 44.461884 ], [ 9.006221, 44.461841 ], [ 9.006215, 44.461841 ], [ 9.003663, 44.461784 ], [ 9.003652, 44.461783 ], [ 9.002552, 44.461757 ], [ 9.002122, 44.461848 ], [ 9.001649, 44.461913 ], [ 9.001171, 44.461946 ], [ 9.00069, 44.461946 ], [ 9.000211, 44.461914 ], [ 8.999739, 44.461848 ], [ 8.999277, 44.461751 ], [ 8.998831, 44.461622 ], [ 8.998404, 44.461464 ], [ 8.998, 44.461276 ], [ 8.997623, 44.461063 ], [ 8.995167, 44.459527 ], [ 8.995076, 44.459469 ], [ 8.994284, 44.458949 ], [ 8.994255, 44.45893 ], [ 8.990419, 44.456373 ], [ 8.990288, 44.456283 ], [ 8.988985, 44.455349 ], [ 8.988613, 44.455051 ], [ 8.988289, 44.454726 ], [ 8.987439, 44.453761 ], [ 8.986702, 44.45354 ], [ 8.982462, 44.453588 ], [ 8.979562, 44.453621 ], [ 8.978524, 44.453632 ] ] ] } }
]
}
