{
"type": "FeatureCollection",
"name": "ejes_linea",
"xy_coordinate_resolution": 1e-06,
"features": [
{ "type": "Feature", "properties": { "tramo": "000-QUAR-274", "n_apoyos": 54 }, "geometry": { "type": "LineString", "coordinates": [ [ 9.217392, 44.41587 ], [ 9.219758, 44.415469 ], [ 9.221106, 44.416333 ], [ 9.221791, 44.416773 ], [ 9.219087, 44.418249 ], [ 9.217201, 44.419276 ], [ 9.215413, 44.420249 ], [ 9.214543, 44.420723 ], [ 9.213022, 44.421553 ], [ 9.21063, 44.42286 ], [ 9.208656, 44.423934 ], [ 9.207251, 44.424701 ], [ 9.205536, 44.425259 ], [ 9.202478, 44.426259 ], [ 9.201422, 44.426601 ], [ 9.1983, 44.427622 ], [ 9.195458, 44.428546 ], [ 9.193717, 44.429118 ], [ 9.192114, 44.429643 ], [ 9.190557, 44.430149 ], [ 9.189253, 44.430578 ], [ 9.186597, 44.431444 ], [ 9.18543, 44.431781 ], [ 9.181219, 44.433001 ], [ 9.180563, 44.433166 ], [ 9.177994, 44.43381 ], [ 9.175139, 44.434528 ], [ 9.172281, 44.435234 ], [ 9.170288, 44.435727 ], [ 9.168881, 44.43609 ], [ 9.166412, 44.436718 ], [ 9.163995, 44.436608 ], [ 9.160441, 44.436448 ], [ 9.159533, 44.436173 ], [ 9.157749, 44.435624 ], [ 9.15525, 44.434847 ], [ 9.151376, 44.436331 ], [ 9.149527, 44.436417 ], [ 9.146668, 44.436545 ], [ 9.144059, 44.436657 ], [ 9.140261, 44.436823 ], [ 9.138967, 44.436879 ], [ 9.136259, 44.436997 ], [ 9.133741, 44.437106 ], [ 9.131348, 44.437211 ], [ 9.128124, 44.437238 ], [ 9.12661, 44.438125 ], [ 9.123914, 44.437932 ], [ 9.122017, 44.437605 ], [ 9.119586, 44.437723 ], [ 9.116585, 44.437853 ], [ 9.115575, 44.437897 ], [ 9.111672, 44.438067 ], [ 9.108054, 44.4384 ] ] } },
{ "type": "Feature", "properties": { "tramo": "274-327", "n_apoyos": 54 }, "geometry": { "type": "LineString", "coordinates": [ [ 9.108054, 44.4384 ], [ 9.107057, 44.438493 ], [ 9.105584, 44.438626 ], [ 9.103423, 44.438826 ], [ 9.100913, 44.439211 ], [ 9.099202, 44.439473 ], [ 9.094494, 44.440194 ], [ 9.0929, 44.440437 ], [ 9.090582, 44.440787 ], [ 9.088056, 44.441178 ], [ 9.086701, 44.441386 ], [ 9.085703, 44.441538 ], [ 9.081243, 44.442218 ], [ 9.079011, 44.442561 ], [ 9.074887, 44.44343 ], [ 9.072295, 44.443975 ], [ 9.069285, 44.44461 ], [ 9.068302, 44.444654 ], [ 9.064423, 44.444821 ], [ 9.061494, 44.444967 ], [ 9.059366, 44.445423 ], [ 9.057515, 44.445864 ], [ 9.05464, 44.446551 ], [ 9.05097, 44.447424 ], [ 9.049261, 44.447833 ], [ 9.048476, 44.448211 ], [ 9.046201, 44.449318 ], [ 9.043706, 44.450525 ], [ 9.040411, 44.452123 ], [ 9.039437, 44.452352 ], [ 9.038206, 44.452645 ], [ 9.034078, 44.453622 ], [ 9.03309, 44.453849 ], [ 9.030303, 44.454069 ], [ 9.029475, 44.454147 ], [ 9.027698, 44.454942 ], [ 9.025993, 44.455691 ], [ 9.023559, 44.456782 ], [ 9.020358, 44.458205 ], [ 9.019546, 44.458568 ], [ 9.018894, 44.458551 ], [ 9.015519, 44.45847 ], [ 9.013809, 44.458427 ], [ 9.010204, 44.458339 ], [ 9.00837, 44.458285 ], [ 9.006374, 44.458242 ], [ 9.003822, 44.458184 ], [ 9.001788, 44.458135 ], [ 9.000929, 44.458349 ], [ 8.998473, 44.456814 ], [ 8.99768, 44.456294 ], [ 8.993844, 44.453737 ], [ 8.99254, 44.452803 ], [ 8.990844, 44.450879 ] ] } },
{ "type": "Feature", "properties": { "tramo": "327-999-MOLA", "n_apoyos": 6 }, "geometry": { "type": "LineString", "coordinates": [ [ 8.990844, 44.450879 ], [ 8.987676, 44.449928 ], [ 8.982382, 44.449987 ], [ 8.979486, 44.45002 ], [ 8.976624, 44.450051 ], [ 8.97589, 44.450569 ] ] } }
]
}
